{
 "type": "FeatureCollection",
 "features": [
  {
   "type": "Feature",
   "properties": {
    "id": "antillia",
    "kind": "island",
    "confidence": "approximate",
    "placeholder": true
   },
   "geometry": {
    "type": "Polygon",
    "coordinates": [
     [
      [
       -43.5464,
       31.6697
      ],
      [
       -43.671,
       31.3493
      ],
      [
       -43.936,
       31.0977
      ],
      [
       -44.367,
       31.0702
      ],
      [
       -44.7674,
       31.2638
      ],
      [
       -45.0,
       31.4125
      ],
      [
       -45.2143,
       31.3217
      ],
      [
       -45.5877,
       31.1368
      ],
      [
       -46.0424,
       31.116
      ],
      [
       -46.4073,
       31.311
      ],
      [
       -46.6448,
       31.6263
      ],
      [
       -46.7321,
       32.0
      ],
      [
       -46.5528,
       32.3529
      ],
      [
       -46.1195,
       32.5481
      ],
      [
       -45.6893,
       32.5846
      ],
      [
       -45.4483,
       32.6585
      ],
      [
       -45.275,
       32.8703
      ],
      [
       -45.0,
       33.0488
      ],
      [
       -44.677,
       33.0221
      ],
      [
       -44.4071,
       32.8709
      ],
      [
       -44.1269,
       32.7404
      ],
      [
       -43.7869,
       32.594
      ],
      [
       -43.5276,
       32.3346
      ],
      [
       -43.4732,
       32.0
      ],
      [
       -43.5464,
       31.6697
      ]
     ]
    ]
   }
  },
  {
   "type": "Feature",
   "properties": {
    "id": "aurora",
    "kind": "island",
    "confidence": "attested",
    "placeholder": true
   },
   "geometry": {
    "type": "Polygon",
    "coordinates": [
     [
      [
       -46.0771,
       -52.9001
      ],
      [
       -46.3295,
       -53.1384
      ],
      [
       -46.5683,
       -53.3751
      ],
      [
       -46.8247,
       -53.6605
      ],
      [
       -47.2592,
       -53.881
      ],
      [
       -47.817,
       -53.9186
      ],
      [
       -48.3533,
       -53.8322
      ],
      [
       -48.8527,
       -53.7062
      ],
      [
       -49.2468,
       -53.4851
      ],
      [
       -49.3043,
       -53.1384
      ],
      [
       -49.0154,
       -52.812
      ],
      [
       -48.7947,
       -52.617
      ],
      [
       -48.967,
       -52.4299
      ],
      [
       -49.2965,
       -52.0984
      ],
      [
       -49.3353,
       -51.6952
      ],
      [
       -48.986,
       -51.3877
      ],
      [
       -48.4354,
       -51.2157
      ],
      [
       -47.817,
       -51.1743
      ],
      [
       -47.252,
       -51.3367
      ],
      [
       -46.9422,
       -51.6971
      ],
      [
       -46.8893,
       -52.0537
      ],
      [
       -46.7716,
       -52.2506
      ],
      [
       -46.4051,
       -52.3873
      ],
      [
       -46.0677,
       -52.617
      ],
      [
       -46.0771,
       -52.9001
      ]
     ]
    ]
   }
  },
  {
   "type": "Feature",
   "properties": {
    "id": "bacalao",
    "kind": "island",
    "confidence": "conjectural",
    "placeholder": true
   },
   "geometry": {
    "type": "Polygon",
    "coordinates": [
     [
      [
       -50.505,
       47.2294
      ],
      [
       -51.0153,
       47.1159
      ],
      [
       -51.3936,
       47.0903
      ],
      [
       -51.5058,
       46.9217
      ],
      [
       -51.6205,
       46.5431
      ],
      [
       -52.0,
       46.2028
      ],
      [
       -52.5385,
       46.1423
      ],
      [
       -53.0117,
       46.3162
      ],
      [
       -53.3832,
       46.5656
      ],
      [
       -53.6465,
       46.8578
      ],
      [
       -53.675,
       47.1968
      ],
      [
       -53.4706,
       47.5
      ],
      [
       -53.2775,
       47.7313
      ],
      [
       -53.2196,
       47.9757
      ],
      [
       -53.0983,
       48.242
      ],
      [
       -52.7572,
       48.386
      ],
      [
       -52.3444,
       48.3683
      ],
      [
       -52.0,
       48.3742
      ],
      [
       -51.5957,
       48.5193
      ],
      [
       -51.0279,
       48.6375
      ],
      [
       -50.4826,
       48.5251
      ],
      [
       -50.1738,
       48.2123
      ],
      [
       -50.0857,
       47.8465
      ],
      [
       -50.1717,
       47.5
      ],
      [
       -50.505,
       47.2294
      ]
     ]
    ]
   }
  },
  {
   "type": "Feature",
   "properties": {
    "id": "bermeja",
    "kind": "island",
    "confidence": "approximate",
    "placeholder": true
   },
   "geometry": {
    "type": "Polygon",
    "coordinates": [
     [
      [
       -89.967,
       22.2443
      ],
      [
       -90.3766,
       22.1675
      ],
      [
       -90.5537,
       22.0876
      ],
      [
       -90.582,
       21.8312
      ],
      [
       -90.7085,
       21.4951
      ],
      [
       -91.0,
       21.2781
      ],
      [
       -91.3722,
       21.2167
      ],
      [
       -91.77,
       21.2678
      ],
      [
       -92.1107,
       21.4739
      ],
      [
       -92.2303,
       21.8437
      ],
      [
       -92.1047,
       22.2265
      ],
      [
       -91.9589,
       22.5
      ],
      [
       -91.9596,
       22.7376
      ],
      [
       -91.9701,
       23.0174
      ],
      [
       -91.7997,
       23.2389
      ],
      [
       -91.5072,
       23.3116
      ],
      [
       -91.247,
       23.3518
      ],
      [
       -91.0,
       23.4876
      ],
      [
       -90.6735,
       23.6259
      ],
      [
       -90.3088,
       23.6061
      ],
      [
       -89.9891,
       23.4339
      ],
      [
       -89.7082,
       23.189
      ],
      [
       -89.5142,
       22.8678
      ],
      [
       -89.5879,
       22.5
      ],
      [
       -89.967,
       22.2443
      ]
     ]
    ]
   }
  },
  {
   "type": "Feature",
   "properties": {
    "id": "bradley-land",
    "kind": "island",
    "confidence": "attested",
    "placeholder": true
   },
   "geometry": {
    "type": "Polygon",
    "coordinates": [
     [
      [
       -101.2982,
       84.6842
      ],
      [
       -101.2466,
       84.5978
      ],
      [
       -101.1872,
       84.4655
      ],
      [
       -101.3175,
       84.3363
      ],
      [
       -101.6521,
       84.2956
      ],
      [
       -102.0,
       84.3543
      ],
      [
       -102.2344,
       84.4438
      ],
      [
       -102.3846,
       84.5168
      ],
      [
       -102.4829,
       84.581
      ],
      [
       -102.5368,
       84.6415
      ],
      [
       -102.6335,
       84.6906
      ],
      [
       -102.8485,
       84.75
      ],
      [
       -103.056,
       84.849
      ],
      [
       -103.0407,
       84.9603
      ],
      [
       -102.7948,
       85.0282
      ],
      [
       -102.5033,
       85.0551
      ],
      [
       -102.2576,
       85.0865
      ],
      [
       -102.0,
       85.1193
      ],
      [
       -101.7293,
       85.1036
      ],
      [
       -101.5347,
       85.0321
      ],
      [
       -101.4238,
       84.9517
      ],
      [
       -101.3245,
       84.8865
      ],
      [
       -101.2502,
       84.8203
      ],
      [
       -101.2628,
       84.75
      ],
      [
       -101.2982,
       84.6842
      ]
     ]
    ]
   }
  },
  {
   "type": "Feature",
   "properties": {
    "id": "buss",
    "kind": "island",
    "confidence": "approximate",
    "placeholder": true
   },
   "geometry": {
    "type": "Polygon",
    "coordinates": [
     [
      [
       -23.871,
       56.8352
      ],
      [
       -24.0807,
       56.7109
      ],
      [
       -23.9496,
       56.4279
      ],
      [
       -23.9608,
       56.0197
      ],
      [
       -24.3675,
       55.7143
      ],
      [
       -25.0,
       55.6134
      ],
      [
       -25.6652,
       55.648
      ],
      [
       -26.2722,
       55.7998
      ],
      [
       -26.6376,
       56.1081
      ],
      [
       -26.6392,
       56.4846
      ],
      [
       -26.5232,
       56.7777
      ],
      [
       -26.618,
       57.0
      ],
      [
       -26.8028,
       57.2631
      ],
      [
       -26.6925,
       57.5322
      ],
      [
       -26.2624,
       57.6876
      ],
      [
       -25.8267,
       57.7798
      ],
      [
       -25.4739,
       57.9633
      ],
      [
       -25.0,
       58.2033
      ],
      [
       -24.3598,
       58.3013
      ],
      [
       -23.7408,
       58.1878
      ],
      [
       -23.2379,
       57.9597
      ],
      [
       -22.8745,
       57.6683
      ],
      [
       -22.8491,
       57.3139
      ],
      [
       -23.2944,
       57.0
      ],
      [
       -23.871,
       56.8352
      ]
     ]
    ]
   }
  },
  {
   "type": "Feature",
   "properties": {
    "id": "californie",
    "kind": "misdrawn",
    "confidence": "approximate",
    "placeholder": true
   },
   "geometry": {
    "type": "Polygon",
    "coordinates": [
     [
      [
       -109.8399,
       27.0158
      ],
      [
       -110.9174,
       26.4286
      ],
      [
       -111.8266,
       26.081
      ],
      [
       -112.426,
       25.5929
      ],
      [
       -113.1287,
       25.129
      ],
      [
       -114.0,
       25.1551
      ],
      [
       -114.7265,
       25.6059
      ],
      [
       -115.313,
       25.9921
      ],
      [
       -116.0304,
       26.2073
      ],
      [
       -116.8006,
       26.5724
      ],
      [
       -117.3386,
       27.2101
      ],
      [
       -117.7233,
       28.0
      ],
      [
       -118.1098,
       28.9723
      ],
      [
       -118.1058,
       30.093
      ],
      [
       -117.2261,
       30.8485
      ],
      [
       -115.7992,
       30.7516
      ],
      [
       -114.648,
       30.1353
      ],
      [
       -114.0,
       29.783
      ],
      [
       -113.4249,
       29.8952
      ],
      [
       -112.6678,
       30.0374
      ],
      [
       -111.8197,
       29.9251
      ],
      [
       -110.8731,
       29.594
      ],
      [
       -109.8808,
       28.9746
      ],
      [
       -109.3739,
       28.0
      ],
      [
       -109.8399,
       27.0158
      ]
     ]
    ]
   }
  },
  {
   "type": "Feature",
   "properties": {
    "id": "coree",
    "kind": "misdrawn",
    "confidence": "approximate",
    "placeholder": true
   },
   "geometry": {
    "type": "Polygon",
    "coordinates": [
     [
      [
       130.9528,
       36.2611
      ],
      [
       129.7561,
       35.9597
      ],
      [
       128.9054,
       35.8776
      ],
      [
       128.6775,
       35.3711
      ],
      [
       128.3985,
       34.3221
      ],
      [
       127.5,
       33.4141
      ],
      [
       126.2318,
       33.2199
      ],
      [
       125.0533,
       33.6156
      ],
      [
       124.1168,
       34.2981
      ],
      [
       123.6274,
       35.2144
      ],
      [
       123.8776,
       36.2248
      ],
      [
       124.5822,
       37.0
      ],
      [
       124.9684,
       37.5418
      ],
      [
       124.8623,
       38.2162
      ],
      [
       124.942,
       39.0429
      ],
      [
       125.6423,
       39.5697
      ],
      [
       126.6068,
       39.6622
      ],
      [
       127.5,
       39.7492
      ],
      [
       128.5172,
       40.0317
      ],
      [
       129.7407,
       40.0996
      ],
      [
       130.7782,
       39.618
      ],
      [
       131.3827,
       38.7903
      ],
      [
       131.7047,
       37.8998
      ],
      [
       131.6754,
       37.0
      ],
      [
       130.9528,
       36.2611
      ]
     ]
    ]
   }
  },
  {
   "type": "Feature",
   "properties": {
    "id": "crocker-land",
    "kind": "island",
    "confidence": "attested",
    "placeholder": true
   },
   "geometry": {
    "type": "Polygon",
    "coordinates": [
     [
      [
       -99.0689,
       82.9127
      ],
      [
       -99.4248,
       82.8838
      ],
      [
       -99.6475,
       82.8766
      ],
      [
       -99.7092,
       82.8237
      ],
      [
       -99.7915,
       82.7276
      ],
      [
       -100.0,
       82.6508
      ],
      [
       -100.2878,
       82.624
      ],
      [
       -100.6019,
       82.6351
      ],
      [
       -100.8935,
       82.6873
      ],
      [
       -101.0363,
       82.7906
      ],
      [
       -100.952,
       82.9107
      ],
      [
       -100.7781,
       83.0
      ],
      [
       -100.7102,
       83.0666
      ],
      [
       -100.7216,
       83.1458
      ],
      [
       -100.6373,
       83.2231
      ],
      [
       -100.4254,
       83.2579
      ],
      [
       -100.202,
       83.2639
      ],
      [
       -100.0,
       83.288
      ],
      [
       -99.7515,
       83.3246
      ],
      [
       -99.4649,
       83.3244
      ],
      [
       -99.2165,
       83.2742
      ],
      [
       -99.0106,
       83.1999
      ],
      [
       -98.8413,
       83.1087
      ],
      [
       -98.8272,
       83.0
      ],
      [
       -99.0689,
       82.9127
      ]
     ]
    ]
   }
  },
  {
   "type": "Feature",
   "properties": {
    "id": "dos-romeiros",
    "kind": "island",
    "confidence": "conjectural",
    "placeholder": true
   },
   "geometry": {
    "type": "Polygon",
    "coordinates": [
     [
      [
       58.0413,
       -26.2508
      ],
      [
       57.8597,
       -26.4461
      ],
      [
       57.7272,
       -26.6536
      ],
      [
       57.5623,
       -26.8753
      ],
      [
       57.2993,
       -27.0038
      ],
      [
       57.0,
       -27.0361
      ],
      [
       56.6714,
       -27.1023
      ],
      [
       56.2338,
       -27.1929
      ],
      [
       55.7774,
       -27.0988
      ],
      [
       55.5808,
       -26.7365
      ],
      [
       55.7398,
       -26.3035
      ],
      [
       56.0208,
       -26.0
      ],
      [
       56.1965,
       -25.8065
      ],
      [
       56.2906,
       -25.6319
      ],
      [
       56.3949,
       -25.4561
      ],
      [
       56.5085,
       -25.2349
      ],
      [
       56.6724,
       -24.9011
      ],
      [
       57.0,
       -24.5703
      ],
      [
       57.4441,
       -24.5103
      ],
      [
       57.7756,
       -24.7926
      ],
      [
       57.9067,
       -25.185
      ],
      [
       57.9952,
       -25.4836
      ],
      [
       58.129,
       -25.7281
      ],
      [
       58.1729,
       -26.0
      ],
      [
       58.0413,
       -26.2508
      ]
     ]
    ]
   }
  },
  {
   "type": "Feature",
   "properties": {
    "id": "dougherty",
    "kind": "island",
    "confidence": "attested",
    "placeholder": true
   },
   "geometry": {
    "type": "Polygon",
    "coordinates": [
     [
      [
       -117.6872,
       -59.6946
      ],
      [
       -118.0867,
       -59.9945
      ],
      [
       -118.779,
       -60.1256
      ],
      [
       -119.4448,
       -60.1176
      ],
      [
       -119.8996,
       -60.1581
      ],
      [
       -120.333,
       -60.3025
      ],
      [
       -120.8739,
       -60.3627
      ],
      [
       -121.3259,
       -60.2101
      ],
      [
       -121.5916,
       -59.9749
      ],
      [
       -121.9252,
       -59.8019
      ],
      [
       -122.4627,
       -59.6241
      ],
      [
       -122.9009,
       -59.333
      ],
      [
       -122.9363,
       -58.9772
      ],
      [
       -122.6495,
       -58.6508
      ],
      [
       -122.2063,
       -58.3775
      ],
      [
       -121.586,
       -58.2261
      ],
      [
       -120.8639,
       -58.3225
      ],
      [
       -120.333,
       -58.6056
      ],
      [
       -120.0477,
       -58.79
      ],
      [
       -119.6469,
       -58.7268
      ],
      [
       -118.9189,
       -58.6117
      ],
      [
       -118.1628,
       -58.6939
      ],
      [
       -117.7289,
       -58.9771
      ],
      [
       -117.6012,
       -59.333
      ],
      [
       -117.6872,
       -59.6946
      ]
     ]
    ]
   }
  },
  {
   "type": "Feature",
   "properties": {
    "id": "elizabeth",
    "kind": "island",
    "confidence": "approximate",
    "placeholder": true
   },
   "geometry": {
    "type": "Polygon",
    "coordinates": [
     [
      [
       -68.2339,
       -57.2577
      ],
      [
       -68.3046,
       -57.5331
      ],
      [
       -68.7133,
       -57.7008
      ],
      [
       -69.1958,
       -57.7586
      ],
      [
       -69.5742,
       -57.8655
      ],
      [
       -70.0,
       -58.0597
      ],
      [
       -70.5808,
       -58.1806
      ],
      [
       -71.1934,
       -58.1258
      ],
      [
       -71.7563,
       -57.9566
      ],
      [
       -72.264,
       -57.7119
      ],
      [
       -72.4949,
       -57.3641
      ],
      [
       -72.1625,
       -57.0
      ],
      [
       -71.4515,
       -56.7882
      ],
      [
       -70.9358,
       -56.7057
      ],
      [
       -70.8443,
       -56.5402
      ],
      [
       -70.8277,
       -56.2192
      ],
      [
       -70.5375,
       -55.9075
      ],
      [
       -70.0,
       -55.7369
      ],
      [
       -69.3521,
       -55.683
      ],
      [
       -68.6731,
       -55.7483
      ],
      [
       -68.1748,
       -56.0059
      ],
      [
       -68.0942,
       -56.4007
      ],
      [
       -68.2865,
       -56.7499
      ],
      [
       -68.3487,
       -57.0
      ],
      [
       -68.2339,
       -57.2577
      ]
     ]
    ]
   }
  },
  {
   "type": "Feature",
   "properties": {
    "id": "emerald",
    "kind": "island",
    "confidence": "attested",
    "placeholder": true
   },
   "geometry": {
    "type": "Polygon",
    "coordinates": [
     [
      [
       164.8436,
       -57.8806
      ],
      [
       164.3588,
       -58.1697
      ],
      [
       163.828,
       -58.3747
      ],
      [
       163.2628,
       -58.4891
      ],
      [
       162.6765,
       -58.4555
      ],
      [
       162.2,
       -58.3435
      ],
      [
       161.7945,
       -58.3132
      ],
      [
       161.2851,
       -58.3514
      ],
      [
       160.7595,
       -58.274
      ],
      [
       160.4966,
       -58.0284
      ],
      [
       160.4507,
       -57.7518
      ],
      [
       160.2788,
       -57.5
      ],
      [
       159.9577,
       -57.1772
      ],
      [
       159.8941,
       -56.7847
      ],
      [
       160.315,
       -56.4872
      ],
      [
       160.9893,
       -56.3733
      ],
      [
       161.6401,
       -56.3772
      ],
      [
       162.2,
       -56.4703
      ],
      [
       162.6048,
       -56.6883
      ],
      [
       162.802,
       -56.9397
      ],
      [
       163.037,
       -57.0503
      ],
      [
       163.6507,
       -57.05
      ],
      [
       164.4927,
       -57.1699
      ],
      [
       164.9817,
       -57.5
      ],
      [
       164.8436,
       -57.8806
      ]
     ]
    ]
   }
  },
  {
   "type": "Feature",
   "properties": {
    "id": "ernest-legouve",
    "kind": "reef",
    "confidence": "attested",
    "placeholder": true
   },
   "geometry": {
    "type": "Point",
    "coordinates": [
     -150.667,
     -35.2
    ]
   }
  },
  {
   "type": "Feature",
   "properties": {
    "id": "frisland",
    "kind": "island",
    "confidence": "approximate",
    "placeholder": true
   },
   "geometry": {
    "type": "Polygon",
    "coordinates": [
     [
      [
       -23.2186,
       62.2796
      ],
      [
       -23.2371,
       62.03
      ],
      [
       -23.3626,
       61.7439
      ],
      [
       -23.7722,
       61.5181
      ],
      [
       -24.35,
       61.3799
      ],
      [
       -25.0,
       61.2658
      ],
      [
       -25.7406,
       61.2238
      ],
      [
       -26.3653,
       61.4081
      ],
      [
       -26.517,
       61.7995
      ],
      [
       -26.2704,
       62.1613
      ],
      [
       -26.1604,
       62.3564
      ],
      [
       -26.4555,
       62.5
      ],
      [
       -26.8434,
       62.7281
      ],
      [
       -26.9705,
       63.0253
      ],
      [
       -26.8226,
       63.3416
      ],
      [
       -26.4438,
       63.6547
      ],
      [
       -25.784,
       63.8511
      ],
      [
       -25.0,
       63.7741
      ],
      [
       -24.4342,
       63.475
      ],
      [
       -24.1208,
       63.2032
      ],
      [
       -23.7545,
       63.0751
      ],
      [
       -23.2767,
       62.9594
      ],
      [
       -23.012,
       62.746
      ],
      [
       -23.0877,
       62.5
      ],
      [
       -23.2186,
       62.2796
      ]
     ]
    ]
   }
  },
  {
   "type": "Feature",
   "properties": {
    "id": "groclant",
    "kind": "island",
    "confidence": "conjectural",
    "placeholder": true
   },
   "geometry": {
    "type": "Polygon",
    "coordinates": [
     [
      [
       -43.1894,
       71.8302
      ],
      [
       -43.2092,
       71.6381
      ],
      [
       -43.3767,
       71.4319
      ],
      [
       -43.8321,
       71.292
      ],
      [
       -44.4213,
       71.2441
      ],
      [
       -45.0,
       71.2371
      ],
      [
       -45.5547,
       71.2754
      ],
      [
       -45.9526,
       71.4225
      ],
      [
       -46.0153,
       71.6447
      ],
      [
       -45.9333,
       71.8114
      ],
      [
       -46.154,
       71.8918
      ],
      [
       -46.7308,
       72.0
      ],
      [
       -47.1975,
       72.2061
      ],
      [
       -47.1942,
       72.4434
      ],
      [
       -46.8142,
       72.635
      ],
      [
       -46.2619,
       72.765
      ],
      [
       -45.611,
       72.7981
      ],
      [
       -45.0,
       72.6871
      ],
      [
       -44.6178,
       72.4993
      ],
      [
       -44.3685,
       72.3828
      ],
      [
       -43.9588,
       72.3644
      ],
      [
       -43.4132,
       72.3207
      ],
      [
       -43.0892,
       72.1792
      ],
      [
       -43.1042,
       72.0
      ],
      [
       -43.1894,
       71.8302
      ]
     ]
    ]
   }
  },
  {
   "type": "Feature",
   "properties": {
    "id": "hy-brasil",
    "kind": "island",
    "confidence": "approximate",
    "placeholder": true
   },
   "geometry": {
    "type": "Polygon",
    "coordinates": [
     [
      [
       -13.2322,
       51.2051
      ],
      [
       -13.3084,
       50.892
      ],
      [
       -13.5378,
       50.5897
      ],
      [
       -13.9031,
       50.3173
      ],
      [
       -14.4401,
       50.1992
      ],
      [
       -15.0,
       50.3049
      ],
      [
       -15.4349,
       50.4897
      ],
      [
       -15.8346,
       50.6002
      ],
      [
       -16.2685,
       50.7103
      ],
      [
       -16.521,
       50.9534
      ],
      [
       -16.423,
       51.2626
      ],
      [
       -16.2206,
       51.5
      ],
      [
       -16.2454,
       51.7077
      ],
      [
       -16.4131,
       52.0079
      ],
      [
       -16.3923,
       52.3667
      ],
      [
       -16.0801,
       52.6646
      ],
      [
       -15.5922,
       52.8759
      ],
      [
       -15.0,
       52.9837
      ],
      [
       -14.4129,
       52.8641
      ],
      [
       -14.093,
       52.478
      ],
      [
       -14.1251,
       52.0446
      ],
      [
       -14.1705,
       51.7981
      ],
      [
       -13.8956,
       51.6842
      ],
      [
       -13.4556,
       51.5
      ],
      [
       -13.2322,
       51.2051
      ]
     ]
    ]
   }
  },
  {
   "type": "Feature",
   "properties": {
    "id": "ile-aux-vaches",
    "kind": "island",
    "confidence": "conjectural",
    "placeholder": true
   },
   "geometry": {
    "type": "Polygon",
    "coordinates": [
     [
      [
       -28.8166,
       -3.3167
      ],
      [
       -28.9506,
       -3.605
      ],
      [
       -29.1675,
       -3.8313
      ],
      [
       -29.4997,
       -3.8653
      ],
      [
       -29.8097,
       -3.7092
      ],
      [
       -30.0,
       -3.6106
      ],
      [
       -30.2003,
       -3.7465
      ],
      [
       -30.5521,
       -3.955
      ],
      [
       -30.9646,
       -3.9633
      ],
      [
       -31.2614,
       -3.7273
      ],
      [
       -31.4064,
       -3.3763
      ],
      [
       -31.4158,
       -3.0
      ],
      [
       -31.2304,
       -2.6708
      ],
      [
       -30.8681,
       -2.4995
      ],
      [
       -30.5296,
       -2.4711
      ],
      [
       -30.3561,
       -2.3841
      ],
      [
       -30.2317,
       -2.1366
      ],
      [
       -30.0,
       -1.9114
      ],
      [
       -29.7067,
       -1.907
      ],
      [
       -29.4562,
       -2.0594
      ],
      [
       -29.2112,
       -2.2123
      ],
      [
       -28.9288,
       -2.3824
      ],
      [
       -28.7252,
       -2.6589
      ],
      [
       -28.7112,
       -3.0
      ],
      [
       -28.8166,
       -3.3167
      ]
     ]
    ]
   }
  },
  {
   "type": "Feature",
   "properties": {
    "id": "ile-des-demons",
    "kind": "island",
    "confidence": "conjectural",
    "placeholder": true
   },
   "geometry": {
    "type": "Polygon",
    "coordinates": [
     [
      [
       -53.8923,
       51.2318
      ],
      [
       -54.1609,
       51.0187
      ],
      [
       -54.3304,
       50.7719
      ],
      [
       -54.6323,
       50.5644
      ],
      [
       -55.0922,
       50.5525
      ],
      [
       -55.5,
       50.6786
      ],
      [
       -55.8371,
       50.7168
      ],
      [
       -56.3095,
       50.6271
      ],
      [
       -56.9266,
       50.6119
      ],
      [
       -57.4374,
       50.8037
      ],
      [
       -57.7064,
       51.132
      ],
      [
       -57.7808,
       51.5
      ],
      [
       -57.6045,
       51.851
      ],
      [
       -57.0786,
       52.0674
      ],
      [
       -56.4087,
       52.0657
      ],
      [
       -55.9667,
       52.0032
      ],
      [
       -55.7729,
       52.134
      ],
      [
       -55.5,
       52.4426
      ],
      [
       -55.0024,
       52.656
      ],
      [
       -54.46,
       52.6213
      ],
      [
       -54.0071,
       52.4294
      ],
      [
       -53.6274,
       52.173
      ],
      [
       -53.4196,
       51.847
      ],
      [
       -53.5465,
       51.5
      ],
      [
       -53.8923,
       51.2318
      ]
     ]
    ]
   }
  },
  {
   "type": "Feature",
   "properties": {
    "id": "jacquet",
    "kind": "island",
    "confidence": "attested",
    "placeholder": true
   },
   "geometry": {
    "type": "Polygon",
    "coordinates": [
     [
      [
       -40.9821,
       46.6312
      ],
      [
       -41.0181,
       46.2196
      ],
      [
       -41.5031,
       45.9791
      ],
      [
       -42.1168,
       45.9567
      ],
      [
       -42.6188,
       46.0296
      ],
      [
       -43.0,
       46.1408
      ],
      [
       -43.2743,
       46.3017
      ],
      [
       -43.4843,
       46.4279
      ],
      [
       -43.834,
       46.4312
      ],
      [
       -44.4421,
       46.4322
      ],
      [
       -45.0233,
       46.6303
      ],
      [
       -45.1694,
       47.0
      ],
      [
       -44.8851,
       47.3445
      ],
      [
       -44.5089,
       47.5941
      ],
      [
       -44.1937,
       47.8141
      ],
      [
       -43.829,
       47.9792
      ],
      [
       -43.3927,
       47.9995
      ],
      [
       -43.0,
       47.9272
      ],
      [
       -42.6504,
       47.8899
      ],
      [
       -42.2739,
       47.8577
      ],
      [
       -41.9626,
       47.7075
      ],
      [
       -41.8203,
       47.4645
      ],
      [
       -41.6799,
       47.2412
      ],
      [
       -41.3372,
       47.0
      ],
      [
       -40.9821,
       46.6312
      ]
     ]
    ]
   }
  },
  {
   "type": "Feature",
   "properties": {
    "id": "juan-de-lisboa",
    "kind": "island",
    "confidence": "conjectural",
    "placeholder": true
   },
   "geometry": {
    "type": "Polygon",
    "coordinates": [
     [
      [
       55.7386,
       -28.1747
      ],
      [
       55.7767,
       -28.3959
      ],
      [
       55.8486,
       -28.7492
      ],
      [
       55.7266,
       -29.1112
      ],
      [
       55.41,
       -29.351
      ],
      [
       55.0,
       -29.4664
      ],
      [
       54.565,
       -29.4334
      ],
      [
       54.2384,
       -29.1647
      ],
      [
       54.1781,
       -28.7257
      ],
      [
       54.2991,
       -28.3573
      ],
      [
       54.2988,
       -28.1659
      ],
      [
       54.0721,
       -28.0
      ],
      [
       53.8589,
       -27.73
      ],
      [
       53.8768,
       -27.4274
      ],
      [
       54.0657,
       -27.1751
      ],
      [
       54.3061,
       -26.9389
      ],
      [
       54.6162,
       -26.7354
      ],
      [
       55.0,
       -26.695
      ],
      [
       55.3511,
       -26.843
      ],
      [
       55.6332,
       -27.0317
      ],
      [
       55.919,
       -27.1886
      ],
      [
       56.1545,
       -27.4115
      ],
      [
       56.1499,
       -27.7279
      ],
      [
       55.9166,
       -28.0
      ],
      [
       55.7386,
       -28.1747
      ]
     ]
    ]
   }
  },
  {
   "type": "Feature",
   "properties": {
    "id": "kianida",
    "kind": "island",
    "confidence": "conjectural",
    "placeholder": true
   },
   "geometry": {
    "type": "Polygon",
    "coordinates": [
     [
      [
       34.3574,
       43.2362
      ],
      [
       34.114,
       43.0335
      ],
      [
       33.9275,
       42.8272
      ],
      [
       33.6798,
       42.646
      ],
      [
       33.3335,
       42.5972
      ],
      [
       33.0,
       42.6306
      ],
      [
       32.6548,
       42.5654
      ],
      [
       32.1357,
       42.4142
      ],
      [
       31.5174,
       42.4246
      ],
      [
       31.1435,
       42.7225
      ],
      [
       31.1781,
       43.1459
      ],
      [
       31.4335,
       43.5
      ],
      [
       31.7176,
       43.7492
      ],
      [
       32.0282,
       43.907
      ],
      [
       32.3356,
       43.982
      ],
      [
       32.5279,
       44.0931
      ],
      [
       32.6731,
       44.3849
      ],
      [
       33.0,
       44.7546
      ],
      [
       33.5174,
       44.9006
      ],
      [
       33.9644,
       44.7117
      ],
      [
       34.2147,
       44.3811
      ],
      [
       34.4016,
       44.087
      ],
      [
       34.5729,
       43.8057
      ],
      [
       34.5713,
       43.5
      ],
      [
       34.3574,
       43.2362
      ]
     ]
    ]
   }
  },
  {
   "type": "Feature",
   "properties": {
    "id": "los-jardines",
    "kind": "island",
    "confidence": "conjectural",
    "placeholder": true
   },
   "geometry": {
    "type": "Polygon",
    "coordinates": [
     [
      [
       151.2019,
       20.6993
      ],
      [
       151.304,
       20.2971
      ],
      [
       151.0673,
       20.0036
      ],
      [
       150.6833,
       19.8951
      ],
      [
       150.3317,
       19.8443
      ],
      [
       150.0,
       19.7985
      ],
      [
       149.6752,
       19.8683
      ],
      [
       149.4349,
       20.0863
      ],
      [
       149.2778,
       20.3258
      ],
      [
       149.1134,
       20.5221
      ],
      [
       148.9745,
       20.7435
      ],
      [
       148.9917,
       21.0
      ],
      [
       149.1202,
       21.2201
      ],
      [
       149.1636,
       21.4508
      ],
      [
       149.1178,
       21.8236
      ],
      [
       149.2157,
       22.2682
      ],
      [
       149.566,
       22.512
      ],
      [
       150.0,
       22.4314
      ],
      [
       150.3372,
       22.1749
      ],
      [
       150.5557,
       21.8986
      ],
      [
       150.6609,
       21.617
      ],
      [
       150.653,
       21.352
      ],
      [
       150.6694,
       21.1675
      ],
      [
       150.8845,
       21.0
      ],
      [
       151.2019,
       20.6993
      ]
     ]
    ]
   }
  },
  {
   "type": "Feature",
   "properties": {
    "id": "maria-de-lajara",
    "kind": "island",
    "confidence": "attested",
    "placeholder": true
   },
   "geometry": {
    "type": "Polygon",
    "coordinates": [
     [
      [
       -138.8868,
       26.7342
      ],
      [
       -138.9449,
       26.4572
      ],
      [
       -139.2109,
       26.2969
      ],
      [
       -139.5214,
       26.2614
      ],
      [
       -139.7542,
       26.1827
      ],
      [
       -140.0,
       25.9997
      ],
      [
       -140.3415,
       25.8643
      ],
      [
       -140.7167,
       25.894
      ],
      [
       -141.074,
       26.0431
      ],
      [
       -141.4074,
       26.276
      ],
      [
       -141.5795,
       26.6229
      ],
      [
       -141.3982,
       27.0
      ],
      [
       -140.9529,
       27.2275
      ],
      [
       -140.5972,
       27.3072
      ],
      [
       -140.503,
       27.4481
      ],
      [
       -140.4807,
       27.7418
      ],
      [
       -140.3126,
       28.0395
      ],
      [
       -140.0,
       28.2091
      ],
      [
       -139.617,
       28.2735
      ],
      [
       -139.2015,
       28.2323
      ],
      [
       -138.8742,
       28.0031
      ],
      [
       -138.7922,
       27.6213
      ],
      [
       -138.8934,
       27.2642
      ],
      [
       -138.9397,
       27.0
      ],
      [
       -138.8868,
       26.7342
      ]
     ]
    ]
   }
  },
  {
   "type": "Feature",
   "properties": {
    "id": "maria-theresa",
    "kind": "reef",
    "confidence": "attested",
    "placeholder": true
   },
   "geometry": {
    "type": "Point",
    "coordinates": [
     -136.65,
     -36.833
    ]
   }
  },
  {
   "type": "Feature",
   "properties": {
    "id": "mayda",
    "kind": "island",
    "confidence": "approximate",
    "placeholder": true
   },
   "geometry": {
    "type": "Polygon",
    "coordinates": [
     [
      [
       -18.0684,
       46.647
      ],
      [
       -18.6314,
       46.4611
      ],
      [
       -19.2369,
       46.4795
      ],
      [
       -19.5634,
       46.4842
      ],
      [
       -19.726,
       46.3026
      ],
      [
       -20.0,
       46.043
      ],
      [
       -20.435,
       45.8928
      ],
      [
       -20.9473,
       45.881
      ],
      [
       -21.4908,
       45.9833
      ],
      [
       -21.9151,
       46.2459
      ],
      [
       -21.9563,
       46.6425
      ],
      [
       -21.6115,
       47.0
      ],
      [
       -21.2461,
       47.2277
      ],
      [
       -21.1109,
       47.4374
      ],
      [
       -21.0284,
       47.7014
      ],
      [
       -20.7581,
       47.8956
      ],
      [
       -20.3652,
       47.9294
      ],
      [
       -20.0,
       47.9201
      ],
      [
       -19.6167,
       47.9757
      ],
      [
       -19.153,
       48.0005
      ],
      [
       -18.7203,
       47.8727
      ],
      [
       -18.3972,
       47.6311
      ],
      [
       -18.11,
       47.3454
      ],
      [
       -17.9121,
       47.0
      ],
      [
       -18.0684,
       46.647
      ]
     ]
    ]
   }
  },
  {
   "type": "Feature",
   "properties": {
    "id": "nakanotorishima",
    "kind": "island",
    "confidence": "approximate",
    "placeholder": true
   },
   "geometry": {
    "type": "Polygon",
    "coordinates": [
     [
      [
       155.5858,
       29.7324
      ],
      [
       155.5446,
       29.3285
      ],
      [
       155.1713,
       29.0867
      ],
      [
       154.7332,
       29.0014
      ],
      [
       154.3473,
       28.9787
      ],
      [
       154.0,
       29.041
      ],
      [
       153.7266,
       29.2172
      ],
      [
       153.5288,
       29.3939
      ],
      [
       153.2845,
       29.481
      ],
      [
       152.9614,
       29.5812
      ],
      [
       152.7501,
       29.8103
      ],
      [
       152.7779,
       30.1
      ],
      [
       152.8817,
       30.3592
      ],
      [
       152.8861,
       30.6564
      ],
      [
       152.9093,
       31.0436
      ],
      [
       153.157,
       31.3632
      ],
      [
       153.5857,
       31.4376
      ],
      [
       154.0,
       31.3124
      ],
      [
       154.3183,
       31.1278
      ],
      [
       154.5368,
       30.9044
      ],
      [
       154.6188,
       30.6353
      ],
      [
       154.6359,
       30.4176
      ],
      [
       154.8206,
       30.2902
      ],
      [
       155.2383,
       30.1
      ],
      [
       155.5858,
       29.7324
      ]
     ]
    ]
   }
  },
  {
   "type": "Feature",
   "properties": {
    "id": "nimrod",
    "kind": "island",
    "confidence": "attested",
    "placeholder": true
   },
   "geometry": {
    "type": "Polygon",
    "coordinates": [
     [
      [
       -156.2846,
       -56.257
      ],
      [
       -155.9845,
       -56.6507
      ],
      [
       -156.1558,
       -57.0313
      ],
      [
       -156.6863,
       -57.2724
      ],
      [
       -157.3401,
       -57.3771
      ],
      [
       -158.0,
       -57.3217
      ],
      [
       -158.5041,
       -57.0521
      ],
      [
       -158.7051,
       -56.6829
      ],
      [
       -158.7976,
       -56.446
      ],
      [
       -159.1563,
       -56.3733
      ],
      [
       -159.7498,
       -56.2622
      ],
      [
       -160.1315,
       -56.0
      ],
      [
       -160.0834,
       -55.6878
      ],
      [
       -159.8334,
       -55.4081
      ],
      [
       -159.5636,
       -55.1257
      ],
      [
       -159.1648,
       -54.8718
      ],
      [
       -158.5879,
       -54.7731
      ],
      [
       -158.0,
       -54.835
      ],
      [
       -157.4855,
       -54.9262
      ],
      [
       -156.9931,
       -55.0247
      ],
      [
       -156.6415,
       -55.2404
      ],
      [
       -156.635,
       -55.5593
      ],
      [
       -156.8061,
       -55.8211
      ],
      [
       -156.71,
       -56.0
      ],
      [
       -156.2846,
       -56.257
      ]
     ]
    ]
   }
  },
  {
   "type": "Feature",
   "properties": {
    "id": "saint-brendan",
    "kind": "island",
    "confidence": "conjectural",
    "placeholder": true
   },
   "geometry": {
    "type": "Polygon",
    "coordinates": [
     [
      [
       -23.2977,
       29.605
      ],
      [
       -23.5474,
       29.2737
      ],
      [
       -23.9185,
       29.0634
      ],
      [
       -24.3004,
       28.9506
      ],
      [
       -24.6836,
       28.9775
      ],
      [
       -25.0,
       29.1382
      ],
      [
       -25.2262,
       29.2688
      ],
      [
       -25.4922,
       29.2617
      ],
      [
       -25.8587,
       29.2563
      ],
      [
       -26.1487,
       29.4256
      ],
      [
       -26.2153,
       29.718
      ],
      [
       -26.1954,
       30.0
      ],
      [
       -26.2636,
       30.2932
      ],
      [
       -26.3156,
       30.6578
      ],
      [
       -26.1434,
       30.9903
      ],
      [
       -25.7675,
       31.1513
      ],
      [
       -25.3608,
       31.1661
      ],
      [
       -25.0,
       31.1111
      ],
      [
       -24.706,
       30.9504
      ],
      [
       -24.5501,
       30.6749
      ],
      [
       -24.4911,
       30.4407
      ],
      [
       -24.2898,
       30.3551
      ],
      [
       -23.8349,
       30.2704
      ],
      [
       -23.3928,
       30.0
      ],
      [
       -23.2977,
       29.605
      ]
     ]
    ]
   }
  },
  {
   "type": "Feature",
   "properties": {
    "id": "saint-mathieu",
    "kind": "island",
    "confidence": "approximate",
    "placeholder": true
   },
   "geometry": {
    "type": "Polygon",
    "coordinates": [
     [
      [
       -11.9254,
       -1.4879
      ],
      [
       -12.0592,
       -1.7431
      ],
      [
       -12.1479,
       -2.0519
      ],
      [
       -12.3252,
       -2.3685
      ],
      [
       -12.6477,
       -2.5146
      ],
      [
       -13.0,
       -2.4476
      ],
      [
       -13.293,
       -2.2932
      ],
      [
       -13.5243,
       -2.1078
      ],
      [
       -13.6476,
       -1.8475
      ],
      [
       -13.6289,
       -1.563
      ],
      [
       -13.623,
       -1.3669
      ],
      [
       -13.8299,
       -1.2
      ],
      [
       -14.1599,
       -0.8893
      ],
      [
       -14.2923,
       -0.454
      ],
      [
       -14.0873,
       -0.113
      ],
      [
       -13.7059,
       0.0224
      ],
      [
       -13.3283,
       0.025
      ],
      [
       -13.0,
       -0.0649
      ],
      [
       -12.7527,
       -0.2771
      ],
      [
       -12.6131,
       -0.53
      ],
      [
       -12.475,
       -0.6752
      ],
      [
       -12.209,
       -0.7434
      ],
      [
       -11.9122,
       -0.9086
      ],
      [
       -11.8122,
       -1.2
      ],
      [
       -11.9254,
       -1.4879
      ]
     ]
    ]
   }
  },
  {
   "type": "Feature",
   "properties": {
    "id": "terre-de-davis",
    "kind": "island",
    "confidence": "conjectural",
    "placeholder": true
   },
   "geometry": {
    "type": "Polygon",
    "coordinates": [
     [
      [
       -88.6152,
       -27.3306
      ],
      [
       -88.8536,
       -27.5898
      ],
      [
       -89.0741,
       -27.825
      ],
      [
       -89.2929,
       -28.0912
      ],
      [
       -89.6195,
       -28.2653
      ],
      [
       -90.0,
       -28.2242
      ],
      [
       -90.3156,
       -28.0495
      ],
      [
       -90.566,
       -27.8735
      ],
      [
       -90.7627,
       -27.6796
      ],
      [
       -90.829,
       -27.4265
      ],
      [
       -90.7939,
       -27.1895
      ],
      [
       -90.8768,
       -27.0
      ],
      [
       -91.1627,
       -26.7224
      ],
      [
       -91.3863,
       -26.2868
      ],
      [
       -91.2589,
       -25.8783
      ],
      [
       -90.8372,
       -25.7079
      ],
      [
       -90.3756,
       -25.7509
      ],
      [
       -90.0,
       -25.878
      ],
      [
       -89.7201,
       -26.0693
      ],
      [
       -89.5592,
       -26.3197
      ],
      [
       -89.4557,
       -26.515
      ],
      [
       -89.2272,
       -26.6025
      ],
      [
       -88.8459,
       -26.7245
      ],
      [
       -88.5717,
       -27.0
      ],
      [
       -88.6152,
       -27.3306
      ]
     ]
    ]
   }
  },
  {
   "type": "Feature",
   "properties": {
    "id": "thule",
    "kind": "island",
    "confidence": "conjectural",
    "placeholder": true
   },
   "geometry": {
    "type": "Polygon",
    "coordinates": [
     [
      [
       -17.5035,
       63.8242
      ],
      [
       -17.5397,
       63.6304
      ],
      [
       -17.5975,
       63.3852
      ],
      [
       -17.7313,
       63.0367
      ],
      [
       -18.1985,
       62.6887
      ],
      [
       -19.0,
       62.5916
      ],
      [
       -19.7152,
       62.83
      ],
      [
       -20.0687,
       63.1886
      ],
      [
       -20.2679,
       63.4442
      ],
      [
       -20.5372,
       63.611
      ],
      [
       -20.7491,
       63.7945
      ],
      [
       -20.7797,
       64.0
      ],
      [
       -20.7852,
       64.2097
      ],
      [
       -20.8369,
       64.4649
      ],
      [
       -20.6918,
       64.7416
      ],
      [
       -20.2069,
       64.9163
      ],
      [
       -19.5905,
       64.9661
      ],
      [
       -19.0,
       65.0219
      ],
      [
       -18.3169,
       65.1176
      ],
      [
       -17.5723,
       65.084
      ],
      [
       -17.1397,
       64.8155
      ],
      [
       -17.2039,
       64.4546
      ],
      [
       -17.4443,
       64.1827
      ],
      [
       -17.5235,
       64.0
      ],
      [
       -17.5035,
       63.8242
      ]
     ]
    ]
   }
  },
  {
   "type": "Feature",
   "properties": {
    "id": "tuanaki",
    "kind": "island",
    "confidence": "approximate",
    "placeholder": true
   },
   "geometry": {
    "type": "Polygon",
    "coordinates": [
     [
      [
       -156.9862,
       -23.7491
      ],
      [
       -156.9397,
       -24.0614
      ],
      [
       -156.9693,
       -24.4452
      ],
      [
       -157.184,
       -24.7962
      ],
      [
       -157.5911,
       -24.8993
      ],
      [
       -158.0,
       -24.7155
      ],
      [
       -158.2851,
       -24.4756
      ],
      [
       -158.5383,
       -24.355
      ],
      [
       -158.8211,
       -24.253
      ],
      [
       -159.0005,
       -24.0297
      ],
      [
       -158.9924,
       -23.7439
      ],
      [
       -158.9375,
       -23.5
      ],
      [
       -158.9625,
       -23.2635
      ],
      [
       -158.9752,
       -22.9837
      ],
      [
       -158.8558,
       -22.7152
      ],
      [
       -158.6406,
       -22.4825
      ],
      [
       -158.373,
       -22.2235
      ],
      [
       -158.0,
       -21.9993
      ],
      [
       -157.5728,
       -22.0379
      ],
      [
       -157.3145,
       -22.4112
      ],
      [
       -157.3149,
       -22.8717
      ],
      [
       -157.3683,
       -23.1655
      ],
      [
       -157.2758,
       -23.322
      ],
      [
       -157.1014,
       -23.5
      ],
      [
       -156.9862,
       -23.7491
      ]
     ]
    ]
   }
  },
  {
   "type": "Feature",
   "properties": {
    "id": "zanara",
    "kind": "island",
    "confidence": "approximate",
    "placeholder": true
   },
   "geometry": {
    "type": "Polygon",
    "coordinates": [
     [
      [
       12.6035,
       41.9802
      ],
      [
       12.2615,
       41.757
      ],
      [
       11.9213,
       41.6112
      ],
      [
       11.6225,
       41.4898
      ],
      [
       11.2985,
       41.4485
      ],
      [
       10.99,
       41.5099
      ],
      [
       10.7095,
       41.5258
      ],
      [
       10.288,
       41.4007
      ],
      [
       9.6579,
       41.3147
      ],
      [
       9.1138,
       41.4988
      ],
      [
       8.9912,
       41.9039
      ],
      [
       9.2385,
       42.3
      ],
      [
       9.5748,
       42.5805
      ],
      [
       9.8923,
       42.7687
      ],
      [
       10.2243,
       42.8663
      ],
      [
       10.5134,
       42.9105
      ],
      [
       10.719,
       43.0481
      ],
      [
       10.99,
       43.327
      ],
      [
       11.4377,
       43.5358
      ],
      [
       11.8947,
       43.4589
      ],
      [
       12.1674,
       43.1709
      ],
      [
       12.3448,
       42.8785
      ],
      [
       12.5748,
       42.6141
      ],
      [
       12.7306,
       42.3
      ],
      [
       12.6035,
       41.9802
      ]
     ]
    ]
   }
  }
 ]
}