{"type": "FeatureCollection", "features": [{"type": "Feature", "properties": {"id": "californie", "part": "erase"}, "geometry": {"type": "MultiPolygon", "coordinates": [[[[-123.41470000000001, 42.6084], [-123.13470000000001, 42.4884], [-122.7547, 42.4684], [-122.35470000000001, 42.308400000000006], [-121.19470000000001, 42.3284], [-120.4547, 42.1084], [-119.7547, 42.1484], [-119.5547, 42.2884], [-119.21470000000001, 42.3684], [-118.99470000000001, 42.3684], [-118.8147, 42.4284], [-118.35470000000001, 42.4284], [-117.9747, 42.308400000000006], [-117.46470000000001, 41.8784], [-117.3047, 41.498400000000004], [-117.3047, 41.19840000000001], [-117.1447, 40.8584], [-117.1447, 40.5784], [-116.9847, 40.3784], [-116.74470000000001, 39.8784], [-116.7047, 39.69840000000001], [-116.5447, 39.4384], [-116.4847, 39.1784], [-116.2247, 38.8584], [-116.10470000000001, 38.498400000000004], [-116.0447, 37.7384], [-116.10470000000001, 37.5384], [-115.9047, 37.2584], [-115.8447, 36.9584], [-115.8147, 36.928399999999996], [-115.5347, 37.0884], [-115.3147, 37.1484], [-114.5747, 37.1084], [-114.2347, 36.9684], [-114.02470000000001, 36.7584], [-113.9047, 36.5184], [-113.8647, 36.2384], [-113.9047, 36.0984], [-114.10470000000001, 35.818400000000004], [-114.1847, 35.5784], [-114.3647, 35.3784], [-114.1547, 35.2684], [-113.9847, 35.0984], [-113.7247, 34.638400000000004], [-113.7047, 34.3784], [-113.8447, 34.0384], [-113.6447, 33.778400000000005], [-113.60470000000001, 33.5184], [-113.7247, 33.2184], [-113.21470000000001, 33.0084], [-113.0447, 32.8384], [-112.94470000000001, 32.5784], [-112.96470000000001, 32.3784], [-113.0647, 32.138400000000004], [-113.3947, 31.8084], [-113.52470000000001, 31.738400000000002], [-113.52470000000001, 31.678400000000003], [-113.4047, 31.2584], [-113.38470000000001, 30.918400000000002], [-113.3347, 30.8484], [-113.1547, 30.7684], [-112.8247, 30.4584], [-112.6847, 30.1384], [-112.6447, 29.7784], [-112.44470000000001, 29.418400000000002], [-112.44470000000001, 29.0584], [-112.52470000000001, 28.8784], [-112.66470000000001, 28.718400000000003], [-112.5847, 28.5184], [-112.60470000000001, 28.218400000000003], [-112.3647, 27.858400000000003], [-112.0647, 27.578400000000002], [-111.8647, 27.1384], [-111.49470000000001, 26.7684], [-111.0547, 26.7084], [-110.7047, 26.418400000000002], [-110.60470000000001, 26.1584], [-110.66470000000001, 25.7584], [-110.3047, 25.3184], [-110.0047, 25.038400000000003], [-109.9047, 24.6984], [-109.41470000000001, 24.2484], [-108.9347, 23.988400000000002], [-108.2847, 23.398400000000002], [-108.16470000000001, 23.078400000000002], [-108.2047, 22.7984], [-108.4047, 22.4784], [-108.8747, 22.0084], [-109.2347, 21.8684], [-109.5147, 21.8684], [-109.91470000000001, 21.968400000000003], [-110.21470000000001, 22.168400000000002], [-111.1147, 22.5084], [-111.3147, 22.668400000000002], [-111.7547, 22.808400000000002], [-111.9347, 22.9284], [-112.3947, 23.0284], [-112.85470000000001, 23.2484], [-113.5547, 23.9284], [-113.8147, 23.988400000000002], [-114.1547, 24.1884], [-114.5547, 24.288400000000003], [-114.7347, 24.4084], [-115.0947, 24.468400000000003], [-115.27470000000001, 24.5684], [-115.49470000000001, 24.788400000000003], [-115.69470000000001, 24.808400000000002], [-115.9347, 24.9084], [-116.3047, 25.218400000000003], [-116.38470000000001, 25.378400000000003], [-116.4247, 25.6584], [-116.3647, 25.858400000000003], [-116.2047, 26.1184], [-116.4247, 26.3184], [-116.52470000000001, 26.6584], [-116.5947, 26.7484], [-116.99470000000001, 26.7484], [-117.2947, 26.8884], [-117.7847, 27.358400000000003], [-117.9047, 27.678400000000003], [-118.13470000000001, 27.988400000000002], [-118.4347, 27.9084], [-118.7947, 27.928400000000003], [-119.1147, 28.0884], [-119.2847, 28.2584], [-119.52470000000001, 28.738400000000002], [-119.4847, 29.0584], [-119.2347, 29.3684], [-118.9247, 29.5584], [-118.8047, 29.8384], [-118.44470000000001, 30.1384], [-118.3247, 30.4384], [-118.8747, 30.3884], [-119.19470000000001, 30.4484], [-119.4747, 30.3684], [-119.71470000000001, 30.3684], [-120.19470000000001, 30.5284], [-120.52470000000001, 30.8384], [-120.7247, 31.078400000000002], [-120.8647, 31.418400000000002], [-120.8047, 31.7584], [-120.6447, 31.998400000000004], [-121.13470000000001, 32.0884], [-121.4547, 32.2284], [-121.6247, 32.3984], [-121.7847, 32.778400000000005], [-121.7847, 33.3584], [-121.7047, 33.5384], [-121.4847, 33.7584], [-121.69470000000001, 33.8684], [-121.94470000000001, 34.1184], [-121.99470000000001, 34.2284], [-122.3947, 34.308400000000006], [-122.6147, 34.4284], [-122.8047, 34.6184], [-122.94470000000001, 34.9584], [-122.9047, 35.2584], [-123.0947, 35.528400000000005], [-123.27470000000001, 35.5484], [-123.5547, 35.668400000000005], [-123.99470000000001, 35.7284], [-124.3947, 35.9884], [-124.60470000000001, 36.1984], [-124.74470000000001, 36.4784], [-124.7647, 36.7384], [-124.6447, 37.0384], [-124.46470000000001, 37.2184], [-124.5047, 37.4584], [-125.05470000000001, 37.4084], [-125.3947, 37.528400000000005], [-125.6847, 37.7984], [-125.8447, 38.138400000000004], [-125.88470000000001, 38.558400000000006], [-125.7247, 38.9584], [-125.8447, 39.278400000000005], [-125.8447, 39.4384], [-125.7247, 39.7384], [-125.60470000000001, 39.8584], [-125.80470000000001, 40.2984], [-125.7847, 40.638400000000004], [-125.7047, 40.8984], [-125.6247, 41.058400000000006], [-125.46470000000001, 41.2184], [-125.3447, 41.558400000000006], [-125.3647, 41.778400000000005], [-125.30470000000001, 42.0184], [-125.16470000000001, 42.278400000000005], [-124.8147, 42.6084], [-124.4547, 42.7284], [-124.1747, 42.7284], [-123.41470000000001, 42.6084]]], [[[-127.5, 44.2], [-123.71480000000001, 44.6], [-115.9748, 43.8146], [-112.9748, 42.6146], [-111.4748, 41.4146], [-111.5335, 41.2818], [-111.6462, 41.2377], [-111.7211, 41.1667], [-111.7399, 40.9976], [-111.8157, 40.9157], [-111.9835, 40.9249], [-112.2277, 40.8903], [-112.3112, 40.9994], [-112.5294, 40.9808], [-112.5444, 41.0222], [-112.4945, 41.1438], [-112.5231, 41.2865], [-112.5628, 41.2916], [-112.7529, 41.1927], [-113.0458, 40.9605], [-113.2664, 40.4259], [-113.3699, 40.3306], [-113.5691, 40.2273], [-113.9686, 40.0653], [-114.0435, 39.9943], [-114.0982, 39.8739], [-114.1554, 39.6027], [-114.0786, 39.4729], [-114.0804, 39.3086], [-114.1499, 39.1428], [-114.2234, 38.742], [-114.168, 38.4036], [-114.3277, 38.215], [-114.3523, 38.0918], [-114.293, 37.9083], [-114.4254, 37.7399], [-114.4746, 37.6048], [-114.4466, 37.5001], [-114.3886, 37.4238], [-114.3947, 37.1982], [-114.3454, 37.1351], [-114.2577, 37.1184], [-114.064, 37.2365], [-113.9361, 37.2636], [-113.7897, 37.2684], [-113.7371, 37.2312], [-113.8997, 37.0656], [-114.0068, 36.7842], [-114.1996, 36.6213], [-114.2381, 36.5505], [-114.2224, 36.4955], [-114.123, 36.4114], [-114.119, 36.2012], [-114.1428, 36.0645], [-114.2576, 35.9185], [-114.2668, 35.7471], [-114.2198, 35.5576], [-114.2313, 35.3155], [-114.1647, 35.226], [-114.1106, 35.2174], [-113.9965, 35.2656], [-113.9541, 35.2131], [-114.078, 34.8645], [-113.8432, 34.5364], [-113.7973, 34.3116], [-113.8872, 34.1151], [-113.8812, 34.0379], [-113.7127, 33.7925], [-113.7026, 33.5853], [-113.6471, 33.3582], [-113.597, 33.2816], [-113.4592, 33.2439], [-113.3803, 33.2716], [-113.1985, 33.544], [-113.1503, 33.5568], [-113.1169, 33.5243], [-113.158, 33.3027], [-113.3419, 33.0398], [-113.3306, 32.5339], [-113.37, 32.3653], [-113.3249, 32.2098], [-113.2141, 32.1207], [-113.0876, 31.9211], [-112.9613, 31.8639], [-112.8824, 31.8917], [-112.797, 32.0269], [-112.7557, 32.2173], [-112.677, 32.3319], [-112.5326, 32.4574], [-112.4677, 32.7045], [-112.4003, 32.7684], [-112.3282, 32.7755], [-112.3132, 32.734], [-112.3683, 32.5648], [-112.3489, 32.4176], [-112.3052, 32.3692], [-112.203, 32.3491], [-112.165, 32.2353], [-112.2743, 31.852], [-112.262, 31.7466], [-112.1952, 31.6259], [-112.0787, 31.6023], [-112.0453, 31.5698], [-112.0689, 31.5131], [-112.2275, 31.3599], [-112.239, 31.2291], [-112.0188, 30.9356], [-111.9657, 30.7491], [-111.8232, 30.5746], [-111.6827, 30.5452], [-111.6182, 30.6877], [-111.5247, 30.6808], [-111.5102, 30.5904], [-111.6493, 30.4013], [-111.6252, 30.3087], [-111.5572, 30.279], [-111.4601, 30.2912], [-111.3284, 30.3619], [-111.1971, 30.3836], [-111.1203, 30.3651], [-111.0896, 30.3244], [-111.0767, 30.2367], [-111.1314, 30.1163], [-111.2587, 29.9956], [-111.2735, 29.7275], [-111.3332, 29.6395], [-111.3586, 29.5299], [-111.343, 29.4504], [-111.2979, 29.4062], [-111.0766, 29.3706], [-111.0447, 29.2539], [-110.9605, 29.1312], [-110.9758, 29.0681], [-111.1292, 28.9626], [-111.1521, 28.8924], [-111.1214, 28.8516], [-111.0459, 28.829], [-110.8956, 28.8773], [-110.7735, 28.839], [-110.6718, 28.7143], [-110.7098, 28.5499], [-110.6718, 28.4361], [-110.5996, 28.3875], [-110.4595, 28.4205], [-110.4056, 28.3875], [-110.4163, 28.3545], [-110.6265, 28.2493], [-110.6707, 28.1931], [-110.8128, 27.5818], [-110.7642, 27.4209], [-110.6387, 27.3773], [-110.3695, 27.4728], [-110.2572, 27.468], [-110.1269, 27.3675], [-110.1115, 27.208], [-110.0718, 27.1472], [-109.8754, 27.1623], [-109.7579, 27.2608], [-109.6633, 27.2892], [-109.6134, 27.2438], [-109.4998, 26.9649], [-109.4195, 26.9411], [-109.2314, 26.9626], [-109.2245, 26.785], [-109.0775, 26.6962], [-109.0971, 26.6519], [-109.2069, 26.5849], [-109.2155, 26.5424], [-109.1504, 26.48], [-108.9297, 26.4268], [-108.8723, 26.0546], [-108.8053, 26.014], [-108.7095, 26.022], [-108.6761, 25.9895], [-108.7656, 25.8419], [-108.7518, 25.7651], [-108.4116, 25.6653], [-108.1546, 25.334], [-108.1711, 25.1243], [-108.1408, 25.0346], [-107.9116, 24.9438], [-107.7769, 24.9603], [-107.7794, 24.8652], [-107.7458, 24.8014], [-107.5983, 24.7614], [-107.4609, 24.6749], [-107.4459, 24.6334], [-107.4893, 24.5638], [-107.4527, 24.3902], [-107.2139, 24.1857], [-107.2809, 24.0594], [-107.2607, 23.8987], [-107.1909, 23.8351], [-106.9361, 23.7114], [-106.9212, 23.67], [-106.9726, 23.5755], [-106.9613, 23.5149], [-106.6859, 23.2482], [-106.7029, 23.1321], [-106.5225, 22.955], [-106.5129, 22.7858], [-106.2417, 22.6492], [-106.2417, 22.6492], [-109.0551, 22.7905], [-109.0495, 22.8871], [-108.9105, 22.9961], [-108.9243, 23.0729], [-108.9834, 23.1138], [-109.0892, 23.0592], [-109.1276, 23.0684], [-109.1234, 23.2166], [-109.1589, 23.2585], [-109.3034, 23.2755], [-109.3361, 23.4058], [-109.4013, 23.4995], [-109.581, 23.5517], [-109.7756, 23.701], [-109.9031, 23.7228], [-109.9799, 23.8526], [-110.181, 23.95], [-110.2367, 24.097], [-110.3603, 24.1624], [-110.4204, 24.2481], [-110.5565, 24.3388], [-110.6826, 24.476], [-110.7225, 24.568], [-110.6442, 24.6338], [-110.6371, 24.7033], [-110.7056, 24.771], [-110.8208, 24.7987], [-110.834, 24.8932], [-110.9327, 24.9637], [-110.9855, 25.0878], [-111.0569, 25.1228], [-111.1126, 25.1028], [-111.1713, 25.0257], [-111.2297, 25.0531], [-111.2433, 25.0987], [-111.1621, 25.2527], [-111.1882, 25.3236], [-111.2671, 25.3515], [-111.3776, 25.298], [-111.435, 25.392], [-111.4934, 25.4194], [-111.6757, 25.352], [-111.7141, 25.3613], [-111.7291, 25.4027], [-111.685, 25.4589], [-111.4993, 25.5522], [-111.4699, 25.7855], [-111.4054, 25.8724], [-111.339, 26.0923], [-111.4054, 26.1506], [-111.4862, 26.1568], [-111.6653, 26.1153], [-111.7819, 26.0276], [-111.8251, 26.038], [-111.9621, 26.2848], [-112.1016, 26.3807], [-112.1846, 26.5076], [-112.3504, 26.6499], [-112.5111, 26.7287], [-112.5115, 26.8468], [-112.6571, 27.0511], [-112.7097, 27.2552], [-112.8896, 27.3943], [-113.2213, 27.8459], [-113.3359, 28.114], [-113.3541, 28.2965], [-113.3126, 28.4557], [-113.5124, 28.6129], [-113.5566, 28.7237], [-113.5335, 28.874], [-113.3256, 29.0198], [-113.1496, 29.2267], [-113.2408, 29.4157], [-113.4003, 29.5854], [-113.3799, 29.8388], [-113.4096, 30.0018], [-113.4711, 30.139], [-113.6143, 30.2715], [-113.698, 30.3005], [-113.889, 30.302], [-114.0711, 30.593], [-114.1103, 30.8384], [-114.1803, 30.9889], [-114.1321, 31.1687], [-114.2233, 31.302], [-114.2085, 31.4587], [-114.2346, 31.5296], [-114.3302, 31.6016], [-114.7423, 31.7187], [-114.85, 31.8092], [-114.8659, 31.951], [-114.951, 32.0873], [-115.0325, 32.3296], [-115.0609, 32.608], [-114.9922, 32.7873], [-115.0575, 32.9366], [-115.0703, 33.1356], [-115.1137, 33.2329], [-115.2022, 33.3188], [-115.307, 33.6646], [-115.3693, 33.7353], [-115.5204, 33.8118], [-115.6421, 34.0103], [-115.9452, 34.208], [-116.0732, 34.3791], [-116.0776, 34.5404], [-115.9951, 34.6986], [-115.9943, 34.7964], [-116.2546, 35.0461], [-116.3139, 35.3409], [-116.2659, 35.4406], [-116.1267, 35.5184], [-116.0662, 35.5929], [-116.0664, 35.7354], [-116.1985, 35.9498], [-116.2687, 36.354], [-116.4563, 36.5172], [-116.5382, 36.655], [-116.6036, 37.0581], [-116.6607, 37.1453], [-116.8733, 37.3345], [-116.9401, 37.4553], [-116.7862, 37.8011], [-116.8028, 37.9565], [-116.8639, 38.0869], [-116.8205, 38.2679], [-116.8328, 38.3733], [-116.9205, 38.5013], [-116.918, 38.6521], [-117.103, 38.7991], [-117.2036, 39.0148], [-117.2447, 39.2384], [-117.3877, 39.4509], [-117.4402, 39.655], [-117.5848, 39.8947], [-117.6276, 40.0653], [-117.8172, 40.2935], [-117.9124, 40.5257], [-117.8777, 40.7756], [-118.0638, 41.1098], [-118.0425, 41.4297], [-118.1204, 41.5798], [-118.4038, 41.7906], [-118.6326, 41.819], [-118.9524, 41.7268], [-119.0764, 41.7434], [-119.2173, 41.7239], [-119.3893, 41.585], [-119.5603, 41.5127], [-119.6938, 41.5003], [-120.0506, 41.5329], [-120.4226, 41.4711], [-120.9167, 41.559], [-121.3373, 41.7137], [-121.6608, 41.6581], [-121.9117, 41.7141], [-122.4002, 41.676], [-122.5565, 41.7047], [-122.9983, 41.8735], [-123.2857, 41.8492], [-123.394, 41.8664], [-123.5356, 41.9718], [-123.6577, 42.0101], [-124.1626, 42.065], [-124.3148, 42.1061], [-127.5, 44.2]]]]}}]}