{
 "type": "Feature",
 "properties": {
  "id": "antillia",
  "traced_from": "Albino de Canepa, portolan chart, 1489",
  "source_url": "https://commons.wikimedia.org/wiki/File:Portolan_chart_by_Albino_de_Canepa_1489.jpg",
  "georeference": null,
  "scale_source": "height set by hand; chart not yet georeferenced",
  "centre": [
   -35.2,
   35.5
  ],
  "size_km": [
   150,
   593
  ]
 },
 "geometry": {
  "type": "Polygon",
  "coordinates": [
   [
    [
     -35.8691,
     32.8262
    ],
    [
     -35.9299,
     32.8288
    ],
    [
     -35.9427,
     32.902
    ],
    [
     -35.9299,
     33.0902
    ],
    [
     -35.9043,
     33.1163
    ],
    [
     -35.9363,
     33.1372
    ],
    [
     -35.9299,
     33.315
    ],
    [
     -35.9747,
     33.3934
    ],
    [
     -35.9491,
     33.4457
    ],
    [
     -35.9555,
     33.6391
    ],
    [
     -35.9299,
     33.6652
    ],
    [
     -35.9555,
     33.7227
    ],
    [
     -35.9491,
     34.0311
    ],
    [
     -35.8979,
     34.4598
    ],
    [
     -35.8434,
     34.5251
    ],
    [
     -35.7602,
     34.5251
    ],
    [
     -35.725,
     34.5539
    ],
    [
     -35.7122,
     34.7159
    ],
    [
     -35.7474,
     34.7499
    ],
    [
     -35.8498,
     34.7342
    ],
    [
     -35.9107,
     34.7629
    ],
    [
     -35.9107,
     35.1707
    ],
    [
     -35.9427,
     35.2439
    ],
    [
     -35.9619,
     35.6307
    ],
    [
     -35.9555,
     35.6986
    ],
    [
     -35.821,
     35.7875
    ],
    [
     -35.8787,
     35.8293
    ],
    [
     -35.8787,
     35.8659
    ],
    [
     -35.837,
     35.8738
    ],
    [
     -35.8146,
     35.913
    ],
    [
     -35.8691,
     35.9417
    ],
    [
     -35.9619,
     35.9443
    ],
    [
     -36.0131,
     36.2684
    ],
    [
     -36.0195,
     37.0577
    ],
    [
     -35.9651,
     37.0708
    ],
    [
     -35.8787,
     37.1623
    ],
    [
     -35.9235,
     37.1937
    ],
    [
     -35.9043,
     37.2668
    ],
    [
     -36.0195,
     37.3191
    ],
    [
     -36.0195,
     38.0719
    ],
    [
     -35.5489,
     38.1058
    ],
    [
     -35.4273,
     38.0797
    ],
    [
     -35.2928,
     38.0849
    ],
    [
     -35.1392,
     38.1267
    ],
    [
     -34.8447,
     38.1163
    ],
    [
     -34.5245,
     38.1738
    ],
    [
     -34.5021,
     38.145
    ],
    [
     -34.4829,
     37.5073
    ],
    [
     -34.4925,
     37.4838
    ],
    [
     -34.563,
     37.4942
    ],
    [
     -34.6366,
     37.4655
    ],
    [
     -34.6558,
     37.3609
    ],
    [
     -34.627,
     37.327
    ],
    [
     -34.5309,
     37.3583
    ],
    [
     -34.4573,
     37.34
    ],
    [
     -34.4317,
     36.7337
    ],
    [
     -34.4413,
     36.6788
    ],
    [
     -34.5245,
     36.6944
    ],
    [
     -34.6206,
     36.6579
    ],
    [
     -34.643,
     36.6187
    ],
    [
     -34.4989,
     36.5115
    ],
    [
     -34.3997,
     36.5298
    ],
    [
     -34.4125,
     35.9077
    ],
    [
     -34.4349,
     35.8633
    ],
    [
     -34.5309,
     35.8633
    ],
    [
     -34.6046,
     35.8084
    ],
    [
     -34.5598,
     35.7875
    ],
    [
     -34.5566,
     35.7013
    ],
    [
     -34.3741,
     35.6986
    ],
    [
     -34.3677,
     35.1602
    ],
    [
     -34.4125,
     35.0086
    ],
    [
     -34.3805,
     34.9877
    ],
    [
     -34.3805,
     34.9354
    ],
    [
     -34.5406,
     34.9198
    ],
    [
     -34.5149,
     34.8204
    ],
    [
     -34.5534,
     34.81
    ],
    [
     -34.5598,
     34.7159
    ],
    [
     -34.5982,
     34.695
    ],
    [
     -34.5438,
     34.661
    ],
    [
     -34.4797,
     34.7499
    ],
    [
     -34.3997,
     34.7316
    ],
    [
     -34.4317,
     34.6166
    ],
    [
     -34.4061,
     34.5957
    ],
    [
     -34.4189,
     33.5502
    ],
    [
     -34.5438,
     33.5215
    ],
    [
     -34.6238,
     33.6391
    ],
    [
     -34.6878,
     33.66
    ],
    [
     -34.6942,
     33.707
    ],
    [
     -34.7998,
     33.7201
    ],
    [
     -34.8479,
     33.8011
    ],
    [
     -34.8959,
     33.8194
    ],
    [
     -35.0559,
     33.8194
    ],
    [
     -35.1072,
     33.7776
    ],
    [
     -35.152,
     33.7776
    ],
    [
     -35.1968,
     33.8194
    ],
    [
     -35.3056,
     33.809
    ],
    [
     -35.3857,
     33.7122
    ],
    [
     -35.3857,
     33.5711
    ],
    [
     -35.4401,
     33.5633
    ],
    [
     -35.4785,
     33.4953
    ],
    [
     -35.5841,
     33.4718
    ],
    [
     -35.6162,
     33.2627
    ],
    [
     -35.7186,
     33.0902
    ],
    [
     -35.7826,
     32.8445
    ],
    [
     -35.8691,
     32.8262
    ]
   ]
  ]
 }
}