{
 "type": "Feature",
 "properties": {
  "id": "californie-mainland",
  "traced_from": "Joan Vinckeboons, chart of California as an island, c. 1650",
  "source_url": "https://commons.wikimedia.org/wiki/File:California_island_Vinckeboons5.jpg",
  "georeference": {
   "km_per_px": 0.476,
   "chart_rotation_deg": -15.6,
   "landmark_rms_km": 127,
   "landmarks": 8
  },
  "centre": [
   -108.094,
   29.471
  ],
  "centre_from_chart": null,
  "turned_deg": null,
  "scaled_by": null,
  "size_km": [
   958,
   2655
  ]
 },
 "geometry": {
  "type": "Polygon",
  "coordinates": [
   [
    [
     -104.5931,
     17.499
    ],
    [
     -104.608,
     17.5405
    ],
    [
     -104.8054,
     17.6815
    ],
    [
     -105.056,
     17.8176
    ],
    [
     -105.1305,
     17.9068
    ],
    [
     -105.4235,
     17.8972
    ],
    [
     -105.7004,
     18.0797
    ],
    [
     -105.8452,
     18.0167
    ],
    [
     -105.8993,
     18.0252
    ],
    [
     -106.1191,
     18.2563
    ],
    [
     -106.2348,
     18.2664
    ],
    [
     -106.2926,
     18.3115
    ],
    [
     -106.461,
     18.303
    ],
    [
     -106.4925,
     18.3574
    ],
    [
     -106.4629,
     18.4482
    ],
    [
     -106.5844,
     18.5598
    ],
    [
     -106.6399,
     18.5643
    ],
    [
     -106.8276,
     18.4804
    ],
    [
     -106.9063,
     18.5328
    ],
    [
     -106.8888,
     18.5865
    ],
    [
     -106.761,
     18.6135
    ],
    [
     -106.7163,
     18.6873
    ],
    [
     -106.8554,
     18.9991
    ],
    [
     -106.9992,
     19.1139
    ],
    [
     -107.1195,
     19.2609
    ],
    [
     -107.1527,
     19.4292
    ],
    [
     -107.0589,
     19.5268
    ],
    [
     -106.9669,
     19.5469
    ],
    [
     -106.713,
     19.4368
    ],
    [
     -106.6711,
     19.4779
    ],
    [
     -106.6609,
     19.6046
    ],
    [
     -106.6978,
     19.698
    ],
    [
     -106.664,
     19.77
    ],
    [
     -106.4805,
     19.8171
    ],
    [
     -106.2868,
     19.8239
    ],
    [
     -106.2319,
     19.8574
    ],
    [
     -106.249,
     19.9082
    ],
    [
     -106.3465,
     19.9585
    ],
    [
     -106.3731,
     20.0116
    ],
    [
     -106.2651,
     20.137
    ],
    [
     -106.1474,
     20.1487
    ],
    [
     -106.1343,
     20.2524
    ],
    [
     -106.0458,
     20.3335
    ],
    [
     -106.081,
     20.48
    ],
    [
     -106.0445,
     20.5602
    ],
    [
     -106.1051,
     20.6283
    ],
    [
     -106.0986,
     20.6801
    ],
    [
     -106.045,
     20.7095
    ],
    [
     -105.9512,
     20.6958
    ],
    [
     -105.9059,
     20.7316
    ],
    [
     -105.8433,
     20.908
    ],
    [
     -105.8214,
     21.1343
    ],
    [
     -105.7004,
     21.2832
    ],
    [
     -105.745,
     21.5121
    ],
    [
     -105.8624,
     21.8031
    ],
    [
     -105.834,
     21.8586
    ],
    [
     -105.7014,
     21.8845
    ],
    [
     -105.6908,
     21.9488
    ],
    [
     -105.7394,
     21.9983
    ],
    [
     -105.8482,
     21.9978
    ],
    [
     -105.8912,
     22.0327
    ],
    [
     -105.8254,
     22.1237
    ],
    [
     -105.8877,
     22.3057
    ],
    [
     -106.1162,
     22.3829
    ],
    [
     -106.1833,
     22.4548
    ],
    [
     -106.2417,
     22.6492
    ],
    [
     -106.5129,
     22.7858
    ],
    [
     -106.5225,
     22.955
    ],
    [
     -106.7029,
     23.1321
    ],
    [
     -106.6859,
     23.2482
    ],
    [
     -106.9613,
     23.5149
    ],
    [
     -106.9726,
     23.5755
    ],
    [
     -106.9212,
     23.67
    ],
    [
     -106.9361,
     23.7114
    ],
    [
     -107.1909,
     23.8351
    ],
    [
     -107.2607,
     23.8987
    ],
    [
     -107.2809,
     24.0594
    ],
    [
     -107.2139,
     24.1857
    ],
    [
     -107.4527,
     24.3902
    ],
    [
     -107.4893,
     24.5638
    ],
    [
     -107.4459,
     24.6334
    ],
    [
     -107.4609,
     24.6749
    ],
    [
     -107.5983,
     24.7614
    ],
    [
     -107.7458,
     24.8014
    ],
    [
     -107.7794,
     24.8652
    ],
    [
     -107.7769,
     24.9603
    ],
    [
     -107.9116,
     24.9438
    ],
    [
     -108.1408,
     25.0346
    ],
    [
     -108.1711,
     25.1243
    ],
    [
     -108.1546,
     25.334
    ],
    [
     -108.4116,
     25.6653
    ],
    [
     -108.7518,
     25.7651
    ],
    [
     -108.7656,
     25.8419
    ],
    [
     -108.6761,
     25.9895
    ],
    [
     -108.7095,
     26.022
    ],
    [
     -108.8053,
     26.014
    ],
    [
     -108.8723,
     26.0546
    ],
    [
     -108.9297,
     26.4268
    ],
    [
     -109.1504,
     26.48
    ],
    [
     -109.2155,
     26.5424
    ],
    [
     -109.2069,
     26.5849
    ],
    [
     -109.0971,
     26.6519
    ],
    [
     -109.0775,
     26.6962
    ],
    [
     -109.2245,
     26.785
    ],
    [
     -109.2314,
     26.9626
    ],
    [
     -109.4195,
     26.9411
    ],
    [
     -109.4998,
     26.9649
    ],
    [
     -109.6134,
     27.2438
    ],
    [
     -109.6633,
     27.2892
    ],
    [
     -109.7579,
     27.2608
    ],
    [
     -109.8754,
     27.1623
    ],
    [
     -110.0718,
     27.1472
    ],
    [
     -110.1115,
     27.208
    ],
    [
     -110.1269,
     27.3675
    ],
    [
     -110.2572,
     27.468
    ],
    [
     -110.3695,
     27.4728
    ],
    [
     -110.6387,
     27.3773
    ],
    [
     -110.7642,
     27.4209
    ],
    [
     -110.8128,
     27.5818
    ],
    [
     -110.6707,
     28.1931
    ],
    [
     -110.6265,
     28.2493
    ],
    [
     -110.4163,
     28.3545
    ],
    [
     -110.4056,
     28.3875
    ],
    [
     -110.4595,
     28.4205
    ],
    [
     -110.5996,
     28.3875
    ],
    [
     -110.6718,
     28.4361
    ],
    [
     -110.7098,
     28.5499
    ],
    [
     -110.6718,
     28.7143
    ],
    [
     -110.7735,
     28.839
    ],
    [
     -110.8956,
     28.8773
    ],
    [
     -111.0459,
     28.829
    ],
    [
     -111.1214,
     28.8516
    ],
    [
     -111.1521,
     28.8924
    ],
    [
     -111.1292,
     28.9626
    ],
    [
     -110.9758,
     29.0681
    ],
    [
     -110.9605,
     29.1312
    ],
    [
     -111.0447,
     29.2539
    ],
    [
     -111.0766,
     29.3706
    ],
    [
     -111.2979,
     29.4062
    ],
    [
     -111.343,
     29.4504
    ],
    [
     -111.3586,
     29.5299
    ],
    [
     -111.3332,
     29.6395
    ],
    [
     -111.2735,
     29.7275
    ],
    [
     -111.2587,
     29.9956
    ],
    [
     -111.1314,
     30.1163
    ],
    [
     -111.0767,
     30.2367
    ],
    [
     -111.0896,
     30.3244
    ],
    [
     -111.1203,
     30.3651
    ],
    [
     -111.1971,
     30.3836
    ],
    [
     -111.3284,
     30.3619
    ],
    [
     -111.4601,
     30.2912
    ],
    [
     -111.5572,
     30.279
    ],
    [
     -111.6252,
     30.3087
    ],
    [
     -111.6493,
     30.4013
    ],
    [
     -111.5102,
     30.5904
    ],
    [
     -111.5247,
     30.6808
    ],
    [
     -111.6182,
     30.6877
    ],
    [
     -111.6827,
     30.5452
    ],
    [
     -111.8232,
     30.5746
    ],
    [
     -111.9657,
     30.7491
    ],
    [
     -112.0188,
     30.9356
    ],
    [
     -112.239,
     31.2291
    ],
    [
     -112.2275,
     31.3599
    ],
    [
     -112.0689,
     31.5131
    ],
    [
     -112.0453,
     31.5698
    ],
    [
     -112.0787,
     31.6023
    ],
    [
     -112.1952,
     31.6259
    ],
    [
     -112.262,
     31.7466
    ],
    [
     -112.2743,
     31.852
    ],
    [
     -112.165,
     32.2353
    ],
    [
     -112.203,
     32.3491
    ],
    [
     -112.3052,
     32.3692
    ],
    [
     -112.3489,
     32.4176
    ],
    [
     -112.3683,
     32.5648
    ],
    [
     -112.3132,
     32.734
    ],
    [
     -112.3282,
     32.7755
    ],
    [
     -112.4003,
     32.7684
    ],
    [
     -112.4677,
     32.7045
    ],
    [
     -112.5326,
     32.4574
    ],
    [
     -112.677,
     32.3319
    ],
    [
     -112.7557,
     32.2173
    ],
    [
     -112.797,
     32.0269
    ],
    [
     -112.8824,
     31.8917
    ],
    [
     -112.9613,
     31.8639
    ],
    [
     -113.0876,
     31.9211
    ],
    [
     -113.2141,
     32.1207
    ],
    [
     -113.3249,
     32.2098
    ],
    [
     -113.37,
     32.3653
    ],
    [
     -113.3306,
     32.5339
    ],
    [
     -113.3419,
     33.0398
    ],
    [
     -113.158,
     33.3027
    ],
    [
     -113.1169,
     33.5243
    ],
    [
     -113.1503,
     33.5568
    ],
    [
     -113.1985,
     33.544
    ],
    [
     -113.3803,
     33.2716
    ],
    [
     -113.4592,
     33.2439
    ],
    [
     -113.597,
     33.2816
    ],
    [
     -113.6471,
     33.3582
    ],
    [
     -113.7026,
     33.5853
    ],
    [
     -113.7127,
     33.7925
    ],
    [
     -113.8812,
     34.0379
    ],
    [
     -113.8872,
     34.1151
    ],
    [
     -113.7973,
     34.3116
    ],
    [
     -113.8432,
     34.5364
    ],
    [
     -114.078,
     34.8645
    ],
    [
     -113.9541,
     35.2131
    ],
    [
     -113.9965,
     35.2656
    ],
    [
     -114.1106,
     35.2174
    ],
    [
     -114.1647,
     35.226
    ],
    [
     -114.2313,
     35.3155
    ],
    [
     -114.2198,
     35.5576
    ],
    [
     -114.2668,
     35.7471
    ],
    [
     -114.2576,
     35.9185
    ],
    [
     -114.1428,
     36.0645
    ],
    [
     -114.119,
     36.2012
    ],
    [
     -114.123,
     36.4114
    ],
    [
     -114.2224,
     36.4955
    ],
    [
     -114.2381,
     36.5505
    ],
    [
     -114.1996,
     36.6213
    ],
    [
     -114.0068,
     36.7842
    ],
    [
     -113.8997,
     37.0656
    ],
    [
     -113.7371,
     37.2312
    ],
    [
     -113.7897,
     37.2684
    ],
    [
     -113.9361,
     37.2636
    ],
    [
     -114.064,
     37.2365
    ],
    [
     -114.2577,
     37.1184
    ],
    [
     -114.3454,
     37.1351
    ],
    [
     -114.3947,
     37.1982
    ],
    [
     -114.3886,
     37.4238
    ],
    [
     -114.4466,
     37.5001
    ],
    [
     -114.4746,
     37.6048
    ],
    [
     -114.4254,
     37.7399
    ],
    [
     -114.293,
     37.9083
    ],
    [
     -114.3523,
     38.0918
    ],
    [
     -114.3277,
     38.215
    ],
    [
     -114.168,
     38.4036
    ],
    [
     -114.2234,
     38.742
    ],
    [
     -114.1499,
     39.1428
    ],
    [
     -114.0804,
     39.3086
    ],
    [
     -114.0786,
     39.4729
    ],
    [
     -114.1554,
     39.6027
    ],
    [
     -114.0982,
     39.8739
    ],
    [
     -114.0435,
     39.9943
    ],
    [
     -113.9686,
     40.0653
    ],
    [
     -113.5691,
     40.2273
    ],
    [
     -113.3699,
     40.3306
    ],
    [
     -113.2664,
     40.4259
    ],
    [
     -113.0458,
     40.9605
    ],
    [
     -112.7529,
     41.1927
    ],
    [
     -112.5628,
     41.2916
    ],
    [
     -112.5231,
     41.2865
    ],
    [
     -112.4945,
     41.1438
    ],
    [
     -112.5444,
     41.0222
    ],
    [
     -112.5294,
     40.9808
    ],
    [
     -112.3112,
     40.9994
    ],
    [
     -112.2277,
     40.8903
    ],
    [
     -111.9835,
     40.9249
    ],
    [
     -111.8157,
     40.9157
    ],
    [
     -111.7399,
     40.9976
    ],
    [
     -111.7211,
     41.1667
    ],
    [
     -111.6462,
     41.2377
    ],
    [
     -111.5335,
     41.2818
    ],
    [
     -111.4748,
     41.4146
    ],
    [
     -104.5931,
     17.499
    ]
   ]
  ]
 }
}