{
 "type": "Feature",
 "properties": {
  "id": "californie",
  "traced_from": "Joan Vinckeboons, chart of California as an island, c. 1650",
  "source_url": "https://commons.wikimedia.org/wiki/File:California_island_Vinckeboons5.jpg",
  "georeference": {
   "km_per_px": 0.476,
   "chart_rotation_deg": -15.6,
   "landmark_rms_km": 127,
   "landmarks": 8
  },
  "centre": [
   -116.647,
   32.801
  ],
  "centre_from_chart": null,
  "turned_deg": null,
  "scaled_by": null,
  "size_km": [
   1520,
   2179
  ],
  "parts": 16
 },
 "geometry": {
  "type": "MultiPolygon",
  "coordinates": [
   [
    [
     [
      -109.3766,
      22.4784
     ],
     [
      -109.4467,
      22.5175
     ],
     [
      -109.5803,
      22.5364
     ],
     [
      -109.7861,
      22.7151
     ],
     [
      -109.9532,
      22.742
     ],
     [
      -110.0893,
      22.8326
     ],
     [
      -110.2038,
      22.8469
     ],
     [
      -110.3919,
      22.9367
     ],
     [
      -110.6792,
      23.0237
     ],
     [
      -110.7618,
      23.0882
     ],
     [
      -110.8337,
      23.2168
     ],
     [
      -111.0077,
      23.2231
     ],
     [
      -111.1286,
      23.2968
     ],
     [
      -111.4413,
      23.3855
     ],
     [
      -111.4795,
      23.4748
     ],
     [
      -111.7167,
      23.5409
     ],
     [
      -111.7763,
      23.5329
     ],
     [
      -111.8273,
      23.5987
     ],
     [
      -112.0394,
      23.583
     ],
     [
      -112.4631,
      23.7919
     ],
     [
      -112.5665,
      24.0306
     ],
     [
      -112.7214,
      24.0634
     ],
     [
      -112.8589,
      24.2613
     ],
     [
      -113.0147,
      24.3389
     ],
     [
      -113.0698,
      24.5036
     ],
     [
      -113.2157,
      24.6278
     ],
     [
      -113.2589,
      24.6382
     ],
     [
      -113.3925,
      24.5457
     ],
     [
      -113.4664,
      24.5412
     ],
     [
      -113.8705,
      24.7944
     ],
     [
      -114.1212,
      24.8192
     ],
     [
      -114.2179,
      24.8559
     ],
     [
      -114.244,
      24.9267
     ],
     [
      -114.1826,
      25.0677
     ],
     [
      -114.2183,
      25.1409
     ],
     [
      -114.2665,
      25.128
     ],
     [
      -114.3112,
      25.0542
     ],
     [
      -114.4008,
      24.9934
     ],
     [
      -114.4659,
      25.0002
     ],
     [
      -114.5607,
      25.0587
     ],
     [
      -114.7508,
      25.0154
     ],
     [
      -114.851,
      25.113
     ],
     [
      -114.8694,
      25.2154
     ],
     [
      -114.8112,
      25.2749
     ],
     [
      -114.5724,
      25.3487
     ],
     [
      -114.5565,
      25.4294
     ],
     [
      -114.5962,
      25.4902
     ],
     [
      -114.7796,
      25.4676
     ],
     [
      -114.875,
      25.3414
     ],
     [
      -114.9512,
      25.3219
     ],
     [
      -115.266,
      25.42
     ],
     [
      -115.4768,
      25.4085
     ],
     [
      -115.6541,
      25.5314
     ],
     [
      -115.6829,
      25.594
     ],
     [
      -115.6343,
      25.7114
     ],
     [
      -115.5397,
      25.7398
     ],
     [
      -115.4178,
      25.7327
     ],
     [
      -115.3452,
      25.7887
     ],
     [
      -115.309,
      25.9001
     ],
     [
      -115.1567,
      25.9147
     ],
     [
      -115.1128,
      25.9464
     ],
     [
      -115.1312,
      25.9931
     ],
     [
      -115.2383,
      26.0456
     ],
     [
      -115.3089,
      26.1227
     ],
     [
      -115.3396,
      26.4418
     ],
     [
      -115.3765,
      26.4796
     ],
     [
      -115.4539,
      26.4805
     ],
     [
      -115.5256,
      26.5779
     ],
     [
      -115.6521,
      26.5549
     ],
     [
      -115.7827,
      26.6309
     ],
     [
      -115.771,
      26.7862
     ],
     [
      -115.876,
      26.9406
     ],
     [
      -115.8164,
      27.0598
     ],
     [
      -115.8314,
      27.1013
     ],
     [
      -115.9752,
      27.1047
     ],
     [
      -116.1205,
      27.2466
     ],
     [
      -116.2708,
      27.3095
     ],
     [
      -116.3069,
      27.4451
     ],
     [
      -116.2769,
      27.5848
     ],
     [
      -116.2132,
      27.6852
     ],
     [
      -116.2706,
      27.8349
     ],
     [
      -116.3831,
      27.8152
     ],
     [
      -116.395,
      27.6355
     ],
     [
      -116.519,
      27.5964
     ],
     [
      -116.5821,
      27.625
     ],
     [
      -116.6082,
      27.6958
     ],
     [
      -116.503,
      27.8441
     ],
     [
      -116.6251,
      28.0494
     ],
     [
      -116.7032,
      28.0638
     ],
     [
      -116.9457,
      27.9708
     ],
     [
      -117.1261,
      28.0365
     ],
     [
      -117.311,
      28.041
     ],
     [
      -117.3674,
      28.1459
     ],
     [
      -117.3565,
      28.259
     ],
     [
      -117.5787,
      28.3949
     ],
     [
      -117.6054,
      28.4481
     ],
     [
      -117.5972,
      28.553
     ],
     [
      -117.7116,
      28.6785
     ],
     [
      -117.6532,
      28.7624
     ],
     [
      -117.4392,
      28.8555
     ],
     [
      -117.3541,
      28.8306
     ],
     [
      -117.1326,
      28.6525
     ],
     [
      -116.9777,
      28.6197
     ],
     [
      -116.8725,
      28.434
     ],
     [
      -116.6332,
      28.3585
     ],
     [
      -116.5454,
      28.3975
     ],
     [
      -116.5383,
      28.467
     ],
     [
      -116.5786,
      28.5101
     ],
     [
      -116.685,
      28.5491
     ],
     [
      -116.7704,
      28.7478
     ],
     [
      -117.0276,
      28.832
     ],
     [
      -117.1105,
      28.9589
     ],
     [
      -117.2977,
      29.004
     ],
     [
      -117.385,
      29.1252
     ],
     [
      -117.3608,
      29.1995
     ],
     [
      -117.2178,
      29.3209
     ],
     [
      -117.1209,
      29.4756
     ],
     [
      -117.1468,
      29.6822
     ],
     [
      -116.978,
      29.9621
     ],
     [
      -116.8939,
      30.4272
     ],
     [
      -116.7814,
      30.6138
     ],
     [
      -116.6568,
      30.7262
     ],
     [
      -116.6608,
      30.9365
     ],
     [
      -116.5478,
      31.1407
     ],
     [
      -116.5568,
      31.2164
     ],
     [
      -116.7121,
      31.3117
     ],
     [
      -116.8292,
      31.3176
     ],
     [
      -117.2039,
      31.1363
     ],
     [
      -117.2642,
      31.1419
     ],
     [
      -117.3457,
      31.2172
     ],
     [
      -117.4058,
      31.4699
     ],
     [
      -117.6667,
      31.4793
     ],
     [
      -117.8126,
      31.6035
     ],
     [
      -117.921,
      31.6519
     ],
     [
      -118.0256,
      31.6326
     ],
     [
      -118.1573,
      31.5619
     ],
     [
      -118.2402,
      31.5775
     ],
     [
      -118.3689,
      31.7309
     ],
     [
      -118.4435,
      31.9069
     ],
     [
      -118.4867,
      31.9173
     ],
     [
      -118.6259,
      31.8396
     ],
     [
      -118.7096,
      31.8686
     ],
     [
      -118.8052,
      32.1076
     ],
     [
      -118.6986,
      32.26
     ],
     [
      -118.7101,
      32.3519
     ],
     [
      -118.7573,
      32.4055
     ],
     [
      -118.918,
      32.4843
     ],
     [
      -119.0336,
      32.6301
     ],
     [
      -118.9986,
      32.7375
     ],
     [
      -118.7567,
      32.9241
     ],
     [
      -118.7924,
      32.9972
     ],
     [
      -118.8859,
      33.0598
     ],
     [
      -118.9859,
      33.0706
     ],
     [
      -119.0635,
      33.047
     ],
     [
      -119.1088,
      32.9555
     ],
     [
      -119.2217,
      32.8869
     ],
     [
      -119.3161,
      32.883
     ],
     [
      -119.4438,
      32.936
     ],
     [
      -119.5808,
      32.8488
     ],
     [
      -119.6948,
      32.9119
     ],
     [
      -119.714,
      32.9722
     ],
     [
      -119.6845,
      33.063
     ],
     [
      -119.7735,
      33.1312
     ],
     [
      -119.8075,
      33.2017
     ],
     [
      -119.8459,
      33.211
     ],
     [
      -119.9764,
      33.12
     ],
     [
      -119.8611,
      32.9497
     ],
     [
      -119.911,
      32.8282
     ],
     [
      -119.9849,
      32.7681
     ],
     [
      -120.1836,
      32.7937
     ],
     [
      -120.2214,
      32.765
     ],
     [
      -120.2373,
      32.6842
     ],
     [
      -120.5015,
      32.612
     ],
     [
      -120.6065,
      32.6551
     ],
     [
      -120.6341,
      32.7531
     ],
     [
      -120.6758,
      32.7921
     ],
     [
      -120.7568,
      32.7737
     ],
     [
      -120.8654,
      32.6864
     ],
     [
      -120.9724,
      32.7077
     ],
     [
      -121.0539,
      32.8943
     ],
     [
      -121.0714,
      33.1745
     ],
     [
      -121.0499,
      33.2406
     ],
     [
      -120.9827,
      33.2801
     ],
     [
      -120.8466,
      33.3007
     ],
     [
      -120.5769,
      33.1912
     ],
     [
      -120.5329,
      33.2229
     ],
     [
      -120.5178,
      33.3172
     ],
     [
      -120.4287,
      33.416
     ],
     [
      -120.2759,
      33.4482
     ],
     [
      -119.9056,
      33.3456
     ],
     [
      -119.8069,
      33.2194
     ],
     [
      -119.7215,
      33.2434
     ],
     [
      -119.5979,
      33.2336
     ],
     [
      -119.5672,
      33.3598
     ],
     [
      -119.5017,
      33.4019
     ],
     [
      -119.4414,
      33.5076
     ],
     [
      -119.4483,
      33.5738
     ],
     [
      -119.637,
      33.646
     ],
     [
      -119.7474,
      33.5056
     ],
     [
      -119.9578,
      33.4873
     ],
     [
      -119.9893,
      33.5416
     ],
     [
      -119.9731,
      33.7025
     ],
     [
      -120.0296,
      33.863
     ],
     [
      -119.9324,
      33.9865
     ],
     [
      -119.9658,
      34.0191
     ],
     [
      -120.2173,
      34.0574
     ],
     [
      -120.2632,
      34.1152
     ],
     [
      -120.2328,
      34.1925
     ],
     [
      -120.1464,
      34.283
     ],
     [
      -119.9046,
      34.3026
     ],
     [
      -119.8318,
      34.2161
     ],
     [
      -119.8002,
      34.0749
     ],
     [
      -119.9234,
      33.9665
     ],
     [
      -119.7677,
      33.8645
     ],
     [
      -119.6952,
      33.7535
     ],
     [
      -119.6568,
      33.7442
     ],
     [
      -119.619,
      33.773
     ],
     [
      -119.6084,
      33.9485
     ],
     [
      -119.5312,
      34.0902
     ],
     [
      -119.5464,
      34.2742
     ],
     [
      -119.7644,
      34.4469
     ],
     [
      -119.8109,
      34.5427
     ],
     [
      -120.043,
      34.5452
     ],
     [
      -120.1846,
      34.6506
     ],
     [
      -120.286,
      34.6572
     ],
     [
      -120.4438,
      34.6017
     ],
     [
      -120.5885,
      34.6499
     ],
     [
      -120.7442,
      34.585
     ],
     [
      -120.9327,
      34.626
     ],
     [
      -121.0813,
      34.7419
     ],
     [
      -121.1114,
      34.8004
     ],
     [
      -121.0045,
      35.0017
     ],
     [
      -121.1772,
      35.099
     ],
     [
      -121.2738,
      35.2158
     ],
     [
      -121.3506,
      35.2343
     ],
     [
      -121.5256,
      35.2052
     ],
     [
      -121.7713,
      35.3089
     ],
     [
      -122.0015,
      35.3332
     ],
     [
      -122.1067,
      35.4075
     ],
     [
      -122.1952,
      35.5491
     ],
     [
      -122.3313,
      35.6397
     ],
     [
      -122.3723,
      35.8077
     ],
     [
      -122.548,
      35.9279
     ],
     [
      -122.6015,
      36.0655
     ],
     [
      -122.8173,
      36.1976
     ],
     [
      -123.0127,
      36.1378
     ],
     [
      -123.1334,
      36.1803
     ],
     [
      -123.205,
      36.3022
     ],
     [
      -123.1303,
      36.5157
     ],
     [
      -123.1453,
      36.5572
     ],
     [
      -123.1837,
      36.5664
     ],
     [
      -123.3104,
      36.519
     ],
     [
      -123.377,
      36.3303
     ],
     [
      -123.4962,
      36.29
     ],
     [
      -123.6558,
      36.2928
     ],
     [
      -123.95,
      36.5017
     ],
     [
      -124.0272,
      36.6383
     ],
     [
      -124.0064,
      36.7179
     ],
     [
      -123.8437,
      36.7966
     ],
     [
      -123.6383,
      36.8473
     ],
     [
      -123.5505,
      36.942
     ],
     [
      -123.5277,
      37.0121
     ],
     [
      -123.7256,
      37.2468
     ],
     [
      -123.7622,
      37.4204
     ],
     [
      -123.7232,
      37.6514
     ],
     [
      -123.7712,
      37.7743
     ],
     [
      -123.9484,
      38.0329
     ],
     [
      -124.0371,
      38.0944
     ],
     [
      -124.1081,
      38.2339
     ],
     [
      -124.0971,
      38.347
     ],
     [
      -124.0111,
      38.5
     ],
     [
      -124.0261,
      38.5414
     ],
     [
      -124.1622,
      38.5208
     ],
     [
      -124.3659,
      38.4118
     ],
     [
      -124.4968,
      38.2163
     ],
     [
      -124.6431,
      38.1803
     ],
     [
      -124.7454,
      38.0647
     ],
     [
      -124.9122,
      38.0292
     ],
     [
      -124.9781,
      38.0495
     ],
     [
      -125.037,
      38.1149
     ],
     [
      -125.1487,
      38.36
     ],
     [
      -125.1547,
      38.4371
     ],
     [
      -125.0969,
      38.6146
     ],
     [
      -124.9552,
      38.7319
     ],
     [
      -124.9398,
      38.795
     ],
     [
      -124.9865,
      38.922
     ],
     [
      -124.949,
      39.0688
     ],
     [
      -125.0747,
      39.2549
     ],
     [
      -125.1028,
      39.3596
     ],
     [
      -125.0826,
      39.4215
     ],
     [
      -124.9964,
      39.4876
     ],
     [
      -124.7185,
      39.5386
     ],
     [
      -124.6559,
      39.8263
     ],
     [
      -124.5628,
      39.8818
     ],
     [
      -124.3167,
      39.9382
     ],
     [
      -124.2278,
      40.0125
     ],
     [
      -124.2143,
      40.1651
     ],
     [
      -124.2554,
      40.2218
     ],
     [
      -124.5848,
      40.132
     ],
     [
      -124.8745,
      40.1483
     ],
     [
      -124.985,
      40.2061
     ],
     [
      -125.0603,
      40.3645
     ],
     [
      -125.0403,
      40.569
     ],
     [
      -124.9812,
      40.7506
     ],
     [
      -124.7147,
      40.9491
     ],
     [
      -124.7287,
      41.2241
     ],
     [
      -124.4866,
      41.4351
     ],
     [
      -124.3271,
      41.4323
     ],
     [
      -124.2079,
      41.4726
     ],
     [
      -124.2407,
      41.5228
     ],
     [
      -124.5218,
      41.5816
     ],
     [
      -124.622,
      41.6792
     ],
     [
      -124.5968,
      41.8201
     ],
     [
      -124.5298,
      41.9464
     ],
     [
      -124.4081,
      42.0818
     ],
     [
      -124.3148,
      42.1061
     ],
     [
      -124.1626,
      42.065
     ],
     [
      -123.6577,
      42.0101
     ],
     [
      -123.5356,
      41.9718
     ],
     [
      -123.394,
      41.8664
     ],
     [
      -123.2857,
      41.8492
     ],
     [
      -122.9983,
      41.8735
     ],
     [
      -122.5565,
      41.7047
     ],
     [
      -122.4002,
      41.676
     ],
     [
      -121.9117,
      41.7141
     ],
     [
      -121.6608,
      41.6581
     ],
     [
      -121.3373,
      41.7137
     ],
     [
      -120.9167,
      41.559
     ],
     [
      -120.4226,
      41.4711
     ],
     [
      -120.0506,
      41.5329
     ],
     [
      -119.6938,
      41.5003
     ],
     [
      -119.5603,
      41.5127
     ],
     [
      -119.3893,
      41.585
     ],
     [
      -119.2173,
      41.7239
     ],
     [
      -119.0764,
      41.7434
     ],
     [
      -118.9524,
      41.7268
     ],
     [
      -118.6326,
      41.819
     ],
     [
      -118.4038,
      41.7906
     ],
     [
      -118.1204,
      41.5798
     ],
     [
      -118.0425,
      41.4297
     ],
     [
      -118.0638,
      41.1098
     ],
     [
      -117.8777,
      40.7756
     ],
     [
      -117.9124,
      40.5257
     ],
     [
      -117.8172,
      40.2935
     ],
     [
      -117.6276,
      40.0653
     ],
     [
      -117.5848,
      39.8947
     ],
     [
      -117.4402,
      39.655
     ],
     [
      -117.3877,
      39.4509
     ],
     [
      -117.2447,
      39.2384
     ],
     [
      -117.2036,
      39.0148
     ],
     [
      -117.103,
      38.7991
     ],
     [
      -116.918,
      38.6521
     ],
     [
      -116.9205,
      38.5013
     ],
     [
      -116.8328,
      38.3733
     ],
     [
      -116.8205,
      38.2679
     ],
     [
      -116.8639,
      38.0869
     ],
     [
      -116.8028,
      37.9565
     ],
     [
      -116.7862,
      37.8011
     ],
     [
      -116.9401,
      37.4553
     ],
     [
      -116.8733,
      37.3345
     ],
     [
      -116.6607,
      37.1453
     ],
     [
      -116.6036,
      37.0581
     ],
     [
      -116.5382,
      36.655
     ],
     [
      -116.4563,
      36.5172
     ],
     [
      -116.2687,
      36.354
     ],
     [
      -116.1985,
      35.9498
     ],
     [
      -116.0664,
      35.7354
     ],
     [
      -116.0662,
      35.5929
     ],
     [
      -116.1267,
      35.5184
     ],
     [
      -116.2659,
      35.4406
     ],
     [
      -116.3139,
      35.3409
     ],
     [
      -116.2546,
      35.0461
     ],
     [
      -115.9943,
      34.7964
     ],
     [
      -115.9951,
      34.6986
     ],
     [
      -116.0776,
      34.5404
     ],
     [
      -116.0732,
      34.3791
     ],
     [
      -115.9452,
      34.208
     ],
     [
      -115.6421,
      34.0103
     ],
     [
      -115.5204,
      33.8118
     ],
     [
      -115.3693,
      33.7353
     ],
     [
      -115.307,
      33.6646
     ],
     [
      -115.2022,
      33.3188
     ],
     [
      -115.1137,
      33.2329
     ],
     [
      -115.0703,
      33.1356
     ],
     [
      -115.0575,
      32.9366
     ],
     [
      -114.9922,
      32.7873
     ],
     [
      -115.0609,
      32.608
     ],
     [
      -115.0325,
      32.3296
     ],
     [
      -114.951,
      32.0873
     ],
     [
      -114.8659,
      31.951
     ],
     [
      -114.85,
      31.8092
     ],
     [
      -114.7423,
      31.7187
     ],
     [
      -114.3302,
      31.6016
     ],
     [
      -114.2346,
      31.5296
     ],
     [
      -114.2085,
      31.4587
     ],
     [
      -114.2233,
      31.302
     ],
     [
      -114.1321,
      31.1687
     ],
     [
      -114.1803,
      30.9889
     ],
     [
      -114.1103,
      30.8384
     ],
     [
      -114.0711,
      30.593
     ],
     [
      -113.889,
      30.302
     ],
     [
      -113.698,
      30.3005
     ],
     [
      -113.6143,
      30.2715
     ],
     [
      -113.4711,
      30.139
     ],
     [
      -113.4096,
      30.0018
     ],
     [
      -113.3799,
      29.8388
     ],
     [
      -113.4003,
      29.5854
     ],
     [
      -113.2408,
      29.4157
     ],
     [
      -113.1496,
      29.2267
     ],
     [
      -113.3256,
      29.0198
     ],
     [
      -113.5335,
      28.874
     ],
     [
      -113.5566,
      28.7237
     ],
     [
      -113.5124,
      28.6129
     ],
     [
      -113.3126,
      28.4557
     ],
     [
      -113.3541,
      28.2965
     ],
     [
      -113.3359,
      28.114
     ],
     [
      -113.2213,
      27.8459
     ],
     [
      -112.8896,
      27.3943
     ],
     [
      -112.7097,
      27.2552
     ],
     [
      -112.6571,
      27.0511
     ],
     [
      -112.5115,
      26.8468
     ],
     [
      -112.5111,
      26.7287
     ],
     [
      -112.3504,
      26.6499
     ],
     [
      -112.1846,
      26.5076
     ],
     [
      -112.1016,
      26.3807
     ],
     [
      -111.9621,
      26.2848
     ],
     [
      -111.8251,
      26.038
     ],
     [
      -111.7819,
      26.0276
     ],
     [
      -111.6653,
      26.1153
     ],
     [
      -111.4862,
      26.1568
     ],
     [
      -111.4054,
      26.1506
     ],
     [
      -111.339,
      26.0923
     ],
     [
      -111.4054,
      25.8724
     ],
     [
      -111.4699,
      25.7855
     ],
     [
      -111.4993,
      25.5522
     ],
     [
      -111.685,
      25.4589
     ],
     [
      -111.7291,
      25.4027
     ],
     [
      -111.7141,
      25.3613
     ],
     [
      -111.6757,
      25.352
     ],
     [
      -111.4934,
      25.4194
     ],
     [
      -111.435,
      25.392
     ],
     [
      -111.3776,
      25.298
     ],
     [
      -111.2671,
      25.3515
     ],
     [
      -111.1882,
      25.3236
     ],
     [
      -111.1621,
      25.2527
     ],
     [
      -111.2433,
      25.0987
     ],
     [
      -111.2297,
      25.0531
     ],
     [
      -111.1713,
      25.0257
     ],
     [
      -111.1126,
      25.1028
     ],
     [
      -111.0569,
      25.1228
     ],
     [
      -110.9855,
      25.0878
     ],
     [
      -110.9327,
      24.9637
     ],
     [
      -110.834,
      24.8932
     ],
     [
      -110.8208,
      24.7987
     ],
     [
      -110.7056,
      24.771
     ],
     [
      -110.6371,
      24.7033
     ],
     [
      -110.6442,
      24.6338
     ],
     [
      -110.7225,
      24.568
     ],
     [
      -110.6826,
      24.476
     ],
     [
      -110.5565,
      24.3388
     ],
     [
      -110.4204,
      24.2481
     ],
     [
      -110.3603,
      24.1624
     ],
     [
      -110.2367,
      24.097
     ],
     [
      -110.181,
      23.95
     ],
     [
      -109.9799,
      23.8526
     ],
     [
      -109.9031,
      23.7228
     ],
     [
      -109.7756,
      23.701
     ],
     [
      -109.581,
      23.5517
     ],
     [
      -109.4013,
      23.4995
     ],
     [
      -109.3361,
      23.4058
     ],
     [
      -109.3034,
      23.2755
     ],
     [
      -109.1589,
      23.2585
     ],
     [
      -109.1234,
      23.2166
     ],
     [
      -109.1276,
      23.0684
     ],
     [
      -109.0892,
      23.0592
     ],
     [
      -108.9834,
      23.1138
     ],
     [
      -108.9243,
      23.0729
     ],
     [
      -108.9105,
      22.9961
     ],
     [
      -109.0495,
      22.8871
     ],
     [
      -109.0551,
      22.7905
     ],
     [
      -109.3119,
      22.5897
     ],
     [
      -109.3415,
      22.4989
     ],
     [
      -109.3766,
      22.4784
     ]
    ]
   ],
   [
    [
     [
      -119.599,
      30.9965
     ],
     [
      -119.7643,
      31.0453
     ],
     [
      -119.8836,
      31.1475
     ],
     [
      -119.8621,
      31.2136
     ],
     [
      -119.7224,
      31.309
     ],
     [
      -119.7272,
      31.3658
     ],
     [
      -119.9804,
      31.3511
     ],
     [
      -120.0689,
      31.3814
     ],
     [
      -120.1232,
      31.4768
     ],
     [
      -120.0904,
      31.5936
     ],
     [
      -119.9767,
      31.6486
     ],
     [
      -119.7473,
      31.6378
     ],
     [
      -119.5465,
      31.8254
     ],
     [
      -119.4596,
      31.8223
     ],
     [
      -119.3175,
      31.7658
     ],
     [
      -119.1073,
      31.871
     ],
     [
      -118.9359,
      31.8252
     ],
     [
      -118.8845,
      31.7527
     ],
     [
      -118.8829,
      31.6143
     ],
     [
      -118.6956,
      31.4267
     ],
     [
      -118.8108,
      31.2318
     ],
     [
      -118.6614,
      31.158
     ],
     [
      -118.6188,
      31.0743
     ],
     [
      -118.635,
      31.0247
     ],
     [
      -118.7501,
      30.9968
     ],
     [
      -118.8515,
      31.1148
     ],
     [
      -119.0114,
      31.0687
     ],
     [
      -119.2291,
      31.179
     ],
     [
      -119.3456,
      31.147
     ],
     [
      -119.44,
      31.0317
     ],
     [
      -119.599,
      30.9965
     ]
    ]
   ],
   [
    [
     [
      -118.5694,
      28.5312
     ],
     [
      -118.6386,
      28.5812
     ],
     [
      -118.5929,
      28.7216
     ],
     [
      -118.6263,
      28.7542
     ],
     [
      -118.7495,
      28.7571
     ],
     [
      -118.7871,
      28.8085
     ],
     [
      -118.7792,
      28.8645
     ],
     [
      -118.6479,
      28.9419
     ],
     [
      -118.5272,
      28.9551
     ],
     [
      -118.4594,
      29.0679
     ],
     [
      -118.3229,
      29.1374
     ],
     [
      -118.1922,
      29.2529
     ],
     [
      -118.1734,
      29.3107
     ],
     [
      -118.1968,
      29.4454
     ],
     [
      -118.144,
      29.544
     ],
     [
      -118.0027,
      29.6124
     ],
     [
      -117.8979,
      29.7118
     ],
     [
      -117.8409,
      29.7359
     ],
     [
      -117.7772,
      29.725
     ],
     [
      -117.7169,
      29.6637
     ],
     [
      -117.7255,
      29.51
     ],
     [
      -117.6833,
      29.3217
     ],
     [
      -117.6259,
      29.2277
     ],
     [
      -117.63,
      29.1041
     ],
     [
      -117.8167,
      28.9754
     ],
     [
      -117.8695,
      28.8768
     ],
     [
      -118.1744,
      28.7432
     ],
     [
      -118.3608,
      28.7191
     ],
     [
      -118.3963,
      28.5941
     ],
     [
      -118.5694,
      28.5312
     ]
    ]
   ],
   [
    [
     [
      -115.2675,
      35.5585
     ],
     [
      -115.4149,
      35.5985
     ],
     [
      -115.4554,
      35.6728
     ],
     [
      -115.447,
      35.7464
     ],
     [
      -115.3625,
      35.8151
     ],
     [
      -115.3228,
      35.9213
     ],
     [
      -115.3508,
      36.026
     ],
     [
      -115.3268,
      36.1316
     ],
     [
      -115.3492,
      36.4442
     ],
     [
      -115.1974,
      36.5211
     ],
     [
      -115.0939,
      36.5051
     ],
     [
      -114.9954,
      36.4101
     ],
     [
      -114.8112,
      36.4993
     ],
     [
      -114.7037,
      36.4957
     ],
     [
      -114.6042,
      36.3003
     ],
     [
      -114.6326,
      36.2448
     ],
     [
      -114.7697,
      36.1576
     ],
     [
      -114.8156,
      36.0485
     ],
     [
      -114.8256,
      35.8906
     ],
     [
      -114.9634,
      35.8169
     ],
     [
      -115.0135,
      35.7266
     ],
     [
      -115.1974,
      35.575
     ],
     [
      -115.2675,
      35.5585
     ]
    ]
   ],
   [
    [
     [
      -114.3645,
      32.1797
     ],
     [
      -114.4317,
      32.1959
     ],
     [
      -114.4872,
      32.256
     ],
     [
      -114.4449,
      32.4017
     ],
     [
      -114.5743,
      32.6243
     ],
     [
      -114.5447,
      32.7152
     ],
     [
      -114.4418,
      32.7371
     ],
     [
      -114.2574,
      32.6838
     ],
     [
      -114.1725,
      32.69
     ],
     [
      -114.099,
      32.6456
     ],
     [
      -114.0526,
      32.5498
     ],
     [
      -113.8756,
      32.6007
     ],
     [
      -113.6944,
      32.5214
     ],
     [
      -113.7011,
      32.4451
     ],
     [
      -113.7932,
      32.4005
     ],
     [
      -113.8719,
      32.2859
     ],
     [
      -113.97,
      32.2628
     ],
     [
      -114.1071,
      32.1756
     ],
     [
      -114.2599,
      32.1991
     ],
     [
      -114.3645,
      32.1797
     ]
    ]
   ],
   [
    [
     [
      -115.139,
      34.3476
     ],
     [
      -115.2213,
      34.3808
     ],
     [
      -115.2535,
      34.4487
     ],
     [
      -115.0846,
      34.5861
     ],
     [
      -115.1353,
      34.7007
     ],
     [
      -115.0871,
      34.7693
     ],
     [
      -115.0028,
      34.8135
     ],
     [
      -114.7778,
      34.8528
     ],
     [
      -114.6289,
      34.7858
     ],
     [
      -114.602,
      34.7014
     ],
     [
      -114.4446,
      34.4853
     ],
     [
      -114.4646,
      34.3922
     ],
     [
      -114.698,
      34.3349
     ],
     [
      -114.8345,
      34.3767
     ],
     [
      -114.9712,
      34.3384
     ],
     [
      -115.139,
      34.3476
     ]
    ]
   ],
   [
    [
     [
      -117.6386,
      29.8964
     ],
     [
      -117.7188,
      29.9202
     ],
     [
      -117.7434,
      29.964
     ],
     [
      -117.6679,
      30.164
     ],
     [
      -117.4473,
      30.3646
     ],
     [
      -117.3327,
      30.3748
     ],
     [
      -117.2523,
      30.2642
     ],
     [
      -117.2592,
      30.0521
     ],
     [
      -117.3253,
      29.9924
     ],
     [
      -117.5099,
      29.91
     ],
     [
      -117.6386,
      29.8964
     ]
    ]
   ],
   [
    [
     [
      -114.7526,
      33.4042
     ],
     [
      -114.8205,
      33.4339
     ],
     [
      -114.8637,
      33.4999
     ],
     [
      -114.7988,
      33.6357
     ],
     [
      -114.8509,
      33.7462
     ],
     [
      -114.8198,
      33.8099
     ],
     [
      -114.6984,
      33.8408
     ],
     [
      -114.5681,
      33.796
     ],
     [
      -114.3474,
      33.5759
     ],
     [
      -114.3948,
      33.4938
     ],
     [
      -114.4898,
      33.4165
     ],
     [
      -114.6357,
      33.4294
     ],
     [
      -114.7526,
      33.4042
     ]
    ]
   ],
   [
    [
     [
      -121.1493,
      34.3264
     ],
     [
      -121.2412,
      34.362
     ],
     [
      -121.332,
      34.4885
     ],
     [
      -121.3249,
      34.558
     ],
     [
      -121.2625,
      34.5986
     ],
     [
      -121.0945,
      34.5581
     ],
     [
      -120.9475,
      34.4136
     ],
     [
      -121.0036,
      34.3448
     ],
     [
      -121.1493,
      34.3264
     ]
    ]
   ],
   [
    [
     [
      -117.2713,
      30.5159
     ],
     [
      -117.4026,
      30.6054
     ],
     [
      -117.43,
      30.6721
     ],
     [
      -117.3901,
      30.7471
     ],
     [
      -117.2373,
      30.7793
     ],
     [
      -117.124,
      30.7297
     ],
     [
      -117.1027,
      30.66
     ],
     [
      -117.1753,
      30.5484
     ],
     [
      -117.2713,
      30.5159
     ]
    ]
   ],
   [
    [
     [
      -121.98,
      34.8427
     ],
     [
      -122.1551,
      34.925
     ],
     [
      -122.2006,
      35.0317
     ],
     [
      -122.1695,
      35.0954
     ],
     [
      -122.0589,
      35.0933
     ],
     [
      -121.9023,
      35.0021
     ],
     [
      -121.8656,
      34.8842
     ],
     [
      -121.98,
      34.8427
     ]
    ]
   ],
   [
    [
     [
      -120.6893,
      33.7838
     ],
     [
      -120.7579,
      33.8515
     ],
     [
      -120.7698,
      34.0057
     ],
     [
      -120.7291,
      34.0671
     ],
     [
      -120.6577,
      34.0878
     ],
     [
      -120.5383,
      34.0412
     ],
     [
      -120.506,
      33.9733
     ],
     [
      -120.603,
      33.8186
     ],
     [
      -120.6893,
      33.7838
     ]
    ]
   ],
   [
    [
     [
      -117.0697,
      27.6534
     ],
     [
      -117.1356,
      27.6737
     ],
     [
      -117.1697,
      27.7198
     ],
     [
      -117.1866,
      27.7951
     ],
     [
      -117.1576,
      27.8682
     ],
     [
      -117.0923,
      27.8859
     ],
     [
      -116.8708,
      27.8192
     ],
     [
      -116.8545,
      27.7819
     ],
     [
      -116.8864,
      27.7317
     ],
     [
      -117.0697,
      27.6534
     ]
    ]
   ],
   [
    [
     [
      -117.8256,
      31.1659
     ],
     [
      -117.9402,
      31.2113
     ],
     [
      -117.9604,
      31.3164
     ],
     [
      -117.8878,
      31.3723
     ],
     [
      -117.7283,
      31.3695
     ],
     [
      -117.6659,
      31.2988
     ],
     [
      -117.6784,
      31.2128
     ],
     [
      -117.7346,
      31.1751
     ],
     [
      -117.8256,
      31.1659
     ]
    ]
   ],
   [
    [
     [
      -117.6149,
      30.8435
     ],
     [
      -117.6897,
      30.8838
     ],
     [
      -117.7297,
      30.9758
     ],
     [
      -117.6918,
      31.0602
     ],
     [
      -117.6116,
      31.0921
     ],
     [
      -117.5183,
      31.0607
     ],
     [
      -117.4786,
      30.9999
     ],
     [
      -117.5108,
      30.9008
     ],
     [
      -117.6149,
      30.8435
     ]
    ]
   ],
   [
    [
     [
      -116.7714,
      27.3455
     ],
     [
      -116.8336,
      27.385
     ],
     [
      -116.8507,
      27.4915
     ],
     [
      -116.8129,
      27.5759
     ],
     [
      -116.7484,
      27.6071
     ],
     [
      -116.6674,
      27.5698
     ],
     [
      -116.6369,
      27.4489
     ],
     [
      -116.6741,
      27.3822
     ],
     [
      -116.7714,
      27.3455
     ]
    ]
   ]
  ]
 }
}