{
 "type": "Feature",
 "properties": {
  "id": "coree",
  "traced_from": "Jodocus Hondius, Iaponia, after Lu\u00eds Teixeira (Mercator\u2013Hondius atlas, first 1606; this impression c. 1619)",
  "source_url": "https://commons.wikimedia.org/wiki/File:Iaponia.jpg",
  "georeference": {
   "km_per_px": 0.217,
   "chart_rotation_deg": -3.3,
   "landmark_rms_km": 35,
   "landmarks": 6
  },
  "centre": [
   127.522,
   37.642
  ],
  "centre_from_chart": null,
  "turned_deg": null,
  "scaled_by": null,
  "size_km": [
   279,
   1023
  ],
  "parts": 4
 },
 "geometry": {
  "type": "MultiPolygon",
  "coordinates": [
   [
    [
     [
      126.6943,
      33.1443
     ],
     [
      126.6499,
      33.2032
     ],
     [
      126.5966,
      33.2185
     ],
     [
      126.5939,
      33.2793
     ],
     [
      126.525,
      33.3198
     ],
     [
      126.5321,
      33.3547
     ],
     [
      126.5824,
      33.4148
     ],
     [
      126.5833,
      33.4616
     ],
     [
      126.6109,
      33.4935
     ],
     [
      126.6083,
      33.5562
     ],
     [
      126.5923,
      33.5756
     ],
     [
      126.5675,
      33.5846
     ],
     [
      126.52,
      33.5655
     ],
     [
      126.4995,
      33.5704
     ],
     [
      126.4807,
      33.6485
     ],
     [
      126.4106,
      33.7048
     ],
     [
      126.4611,
      33.8333
     ],
     [
      126.4451,
      33.9377
     ],
     [
      126.4098,
      33.9776
     ],
     [
      126.3794,
      33.9898
     ],
     [
      126.3832,
      34.0112
     ],
     [
      126.4085,
      34.0431
     ],
     [
      126.3972,
      34.0809
     ],
     [
      126.3723,
      34.1212
     ],
     [
      126.3352,
      34.1524
     ],
     [
      126.301,
      34.2098
     ],
     [
      126.1852,
      34.2556
     ],
     [
      126.1837,
      34.2674
     ],
     [
      126.2159,
      34.299
     ],
     [
      126.2347,
      34.3372
     ],
     [
      126.2313,
      34.3882
     ],
     [
      126.242,
      34.4092
     ],
     [
      126.2363,
      34.4271
     ],
     [
      126.1778,
      34.4847
     ],
     [
      126.1888,
      34.5096
     ],
     [
      126.1812,
      34.5334
     ],
     [
      126.1877,
      34.5605
     ],
     [
      126.2081,
      34.5888
     ],
     [
      126.1861,
      34.6387
     ],
     [
      126.1996,
      34.7006
     ],
     [
      126.2455,
      34.7297
     ],
     [
      126.2592,
      34.7603
     ],
     [
      126.2438,
      34.7874
     ],
     [
      126.1915,
      34.7998
     ],
     [
      126.1553,
      34.828
     ],
     [
      126.1555,
      34.8651
     ],
     [
      126.1333,
      34.9112
     ],
     [
      126.0768,
      34.9628
     ],
     [
      126.0996,
      34.993
     ],
     [
      126.0815,
      35.031
     ],
     [
      126.0926,
      35.0412
     ],
     [
      126.1769,
      35.0586
     ],
     [
      126.2456,
      35.0493
     ],
     [
      126.2845,
      35.0768
     ],
     [
      126.2807,
      35.0388
     ],
     [
      126.2555,
      35.0088
     ],
     [
      126.261,
      34.987
     ],
     [
      126.2327,
      34.9454
     ],
     [
      126.25,
      34.9123
     ],
     [
      126.3015,
      34.8882
     ],
     [
      126.4232,
      34.8763
     ],
     [
      126.454,
      34.8885
     ],
     [
      126.4731,
      34.914
     ],
     [
      126.4498,
      34.9777
     ],
     [
      126.4173,
      35.0086
     ],
     [
      126.4178,
      35.0496
     ],
     [
      126.3966,
      35.1113
     ],
     [
      126.3644,
      35.1295
     ],
     [
      126.322,
      35.1179
     ],
     [
      126.3119,
      35.1233
     ],
     [
      126.3702,
      35.1634
     ],
     [
      126.388,
      35.188
     ],
     [
      126.3922,
      35.2151
     ],
     [
      126.3865,
      35.233
     ],
     [
      126.3232,
      35.287
     ],
     [
      126.3003,
      35.3898
     ],
     [
      126.2732,
      35.4156
     ],
     [
      126.237,
      35.4271
     ],
     [
      126.1606,
      35.3918
     ],
     [
      126.1163,
      35.3862
     ],
     [
      126.0894,
      35.364
     ],
     [
      126.0757,
      35.3667
     ],
     [
      126.0772,
      35.5064
     ],
     [
      126.0382,
      35.5767
     ],
     [
      126.047,
      35.6369
     ],
     [
      126.0979,
      35.6716
     ],
     [
      126.1239,
      35.7133
     ],
     [
      126.1138,
      35.7685
     ],
     [
      126.0623,
      35.8591
     ],
     [
      126.0939,
      35.9162
     ],
     [
      126.0994,
      35.996
     ],
     [
      126.1373,
      36.0431
     ],
     [
      126.1315,
      36.0922
     ],
     [
      126.1886,
      36.1334
     ],
     [
      126.2255,
      36.0983
     ],
     [
      126.2458,
      36.0915
     ],
     [
      126.3047,
      36.1081
     ],
     [
      126.3232,
      36.1258
     ],
     [
      126.3528,
      36.2534
     ],
     [
      126.3523,
      36.3121
     ],
     [
      126.325,
      36.3359
     ],
     [
      126.2814,
      36.34
     ],
     [
      126.2416,
      36.3322
     ],
     [
      126.1878,
      36.2899
     ],
     [
      126.1532,
      36.2896
     ],
     [
      126.1247,
      36.3291
     ],
     [
      126.1444,
      36.4142
     ],
     [
      126.0942,
      36.5242
     ],
     [
      126.0987,
      36.5553
     ],
     [
      126.1532,
      36.6758
     ],
     [
      126.1616,
      36.7301
     ],
     [
      126.1445,
      36.7837
     ],
     [
      126.1673,
      36.8471
     ],
     [
      126.1658,
      36.8922
     ],
     [
      126.1346,
      36.9426
     ],
     [
      126.1328,
      37.017
     ],
     [
      126.1649,
      37.0799
     ],
     [
      126.1691,
      37.1755
     ],
     [
      126.2015,
      37.2424
     ],
     [
      126.1953,
      37.2876
     ],
     [
      126.2201,
      37.3118
     ],
     [
      126.2225,
      37.3469
     ],
     [
      126.2447,
      37.3673
     ],
     [
      126.2398,
      37.3969
     ],
     [
      126.279,
      37.4116
     ],
     [
      126.2866,
      37.4044
     ],
     [
      126.2786,
      37.3559
     ],
     [
      126.3008,
      37.3098
     ],
     [
      126.3195,
      37.2962
     ],
     [
      126.3521,
      37.2985
     ],
     [
      126.428,
      37.3778
     ],
     [
      126.4263,
      37.4209
     ],
     [
      126.4095,
      37.4452
     ],
     [
      126.4157,
      37.5016
     ],
     [
      126.437,
      37.5416
     ],
     [
      126.4229,
      37.5717
     ],
     [
      126.402,
      37.5874
     ],
     [
      126.3482,
      37.5783
     ],
     [
      126.326,
      37.5579
     ],
     [
      126.2823,
      37.5766
     ],
     [
      126.2971,
      37.6248
     ],
     [
      126.3218,
      37.647
     ],
     [
      126.3438,
      37.732
     ],
     [
      126.3005,
      37.8417
     ],
     [
      126.2928,
      37.8968
     ],
     [
      126.293,
      37.9672
     ],
     [
      126.3198,
      38.0538
     ],
     [
      126.3153,
      38.0892
     ],
     [
      126.2998,
      38.133
     ],
     [
      126.2419,
      38.1984
     ],
     [
      126.2217,
      38.2737
     ],
     [
      126.2198,
      38.3129
     ],
     [
      126.2795,
      38.4762
     ],
     [
      126.26,
      38.528
     ],
     [
      126.2272,
      38.555
     ],
     [
      126.2313,
      38.5802
     ],
     [
      126.207,
      38.6303
     ],
     [
      126.2307,
      38.6722
     ],
     [
      126.2379,
      38.7442
     ],
     [
      126.207,
      38.8317
     ],
     [
      126.2231,
      38.8974
     ],
     [
      126.2629,
      38.9385
     ],
     [
      126.2635,
      38.9814
     ],
     [
      126.247,
      39.0096
     ],
     [
      126.2765,
      39.0355
     ],
     [
      126.2739,
      39.065
     ],
     [
      126.2994,
      39.0823
     ],
     [
      126.3245,
      39.0791
     ],
     [
      126.3696,
      39.0964
     ],
     [
      126.413,
      39.1217
     ],
     [
      126.4635,
      39.1671
     ],
     [
      126.4767,
      39.1919
     ],
     [
      126.4562,
      39.23
     ],
     [
      126.376,
      39.2897
     ],
     [
      126.2934,
      39.3309
     ],
     [
      126.203,
      39.3276
     ],
     [
      126.1613,
      39.3756
     ],
     [
      126.171,
      39.4162
     ],
     [
      126.2082,
      39.4534
     ],
     [
      126.2105,
      39.4865
     ],
     [
      126.2303,
      39.5051
     ],
     [
      126.2277,
      39.5346
     ],
     [
      126.2483,
      39.5482
     ],
     [
      126.2991,
      39.5477
     ],
     [
      126.3306,
      39.5862
     ],
     [
      126.3378,
      39.623
     ],
     [
      126.3194,
      39.6591
     ],
     [
      126.345,
      39.7282
     ],
     [
      126.3702,
      39.7583
     ],
     [
      126.3406,
      39.7988
     ],
     [
      126.358,
      39.8156
     ],
     [
      126.3555,
      39.847
     ],
     [
      126.3728,
      39.8637
     ],
     [
      126.3872,
      39.9041
     ],
     [
      126.3755,
      39.9359
     ],
     [
      126.3885,
      39.9568
     ],
     [
      126.392,
      40.0075
     ],
     [
      126.4614,
      40.0764
     ],
     [
      126.4629,
      40.0978
     ],
     [
      126.4466,
      40.1299
     ],
     [
      126.4709,
      40.1463
     ],
     [
      126.4773,
      40.1734
     ],
     [
      126.4967,
      40.1861
     ],
     [
      126.5078,
      40.2129
     ],
     [
      126.4855,
      40.259
     ],
     [
      126.4995,
      40.2935
     ],
     [
      126.527,
      40.3234
     ],
     [
      126.5356,
      40.3817
     ],
     [
      126.5516,
      40.4122
     ],
     [
      126.5494,
      40.4475
     ],
     [
      126.5763,
      40.4696
     ],
     [
      126.5717,
      40.5031
     ],
     [
      126.6276,
      40.6098
     ],
     [
      126.6183,
      40.6435
     ],
     [
      126.5943,
      40.6642
     ],
     [
      126.5963,
      40.6935
     ],
     [
      126.584,
      40.7156
     ],
     [
      126.5951,
      40.7424
     ],
     [
      126.5851,
      40.7644
     ],
     [
      126.6185,
      40.7803
     ],
     [
      126.6406,
      40.8154
     ],
     [
      126.6961,
      40.8332
     ],
     [
      126.7026,
      40.8603
     ],
     [
      126.6765,
      40.885
     ],
     [
      126.6828,
      40.8916
     ],
     [
      126.8,
      40.8486
     ],
     [
      126.8329,
      40.8568
     ],
     [
      126.8694,
      40.9009
     ],
     [
      126.8645,
      40.997
     ],
     [
      126.8507,
      41.0143
     ],
     [
      126.8111,
      41.027
     ],
     [
      126.8157,
      41.06
     ],
     [
      126.7911,
      41.1062
     ],
     [
      126.7613,
      41.1262
     ],
     [
      126.7169,
      41.1186
     ],
     [
      126.6551,
      41.1442
     ],
     [
      126.6556,
      41.1852
     ],
     [
      126.6688,
      41.208
     ],
     [
      126.657,
      41.2379
     ],
     [
      126.6676,
      41.2922
     ],
     [
      126.6557,
      41.3201
     ],
     [
      126.6796,
      41.3659
     ],
     [
      126.7522,
      41.4131
     ],
     [
      126.8379,
      41.4998
     ],
     [
      126.9022,
      41.5279
     ],
     [
      126.9694,
      41.5803
     ],
     [
      126.9872,
      41.6049
     ],
     [
      127.0282,
      41.7299
     ],
     [
      127.0853,
      41.7877
     ],
     [
      127.1827,
      41.8426
     ],
     [
      127.2512,
      41.8646
     ],
     [
      127.2945,
      41.9065
     ],
     [
      127.3064,
      42.0115
     ],
     [
      127.3177,
      42.0422
     ],
     [
      127.3505,
      42.0816
     ],
     [
      127.3498,
      42.24
     ],
     [
      127.375,
      42.3033
     ],
     [
      127.3925,
      42.322
     ],
     [
      127.3949,
      42.3571
     ],
     [
      127.4057,
      42.3634
     ],
     [
      127.4886,
      42.3593
     ],
     [
      127.5154,
      42.3462
     ],
     [
      127.5807,
      42.3548
     ],
     [
      127.8452,
      42.3378
     ],
     [
      127.8684,
      42.322
     ],
     [
      127.8938,
      42.2543
     ],
     [
      127.9418,
      42.1795
     ],
     [
      127.955,
      42.1026
     ],
     [
      127.9294,
      42.0335
     ],
     [
      127.9444,
      41.9487
     ],
     [
      127.939,
      41.904
     ],
     [
      127.9695,
      41.8438
     ],
     [
      128.0352,
      41.8083
     ],
     [
      128.1088,
      41.7363
     ],
     [
      128.1436,
      41.7385
     ],
     [
      128.1883,
      41.7832
     ],
     [
      128.2189,
      41.7914
     ],
     [
      128.2511,
      41.7898
     ],
     [
      128.2705,
      41.7693
     ],
     [
      128.313,
      41.7496
     ],
     [
      128.3201,
      41.7014
     ],
     [
      128.3462,
      41.6434
     ],
     [
      128.3488,
      41.5807
     ],
     [
      128.4162,
      41.4689
     ],
     [
      128.4632,
      41.447
     ],
     [
      128.5322,
      41.4436
     ],
     [
      128.6111,
      41.4143
     ],
     [
      128.7323,
      41.4298
     ],
     [
      128.806,
      41.4262
     ],
     [
      128.8136,
      41.419
     ],
     [
      128.8097,
      41.3957
     ],
     [
      128.7715,
      41.3614
     ],
     [
      128.6778,
      41.3426
     ],
     [
      128.6557,
      41.3075
     ],
     [
      128.7074,
      41.2355
     ],
     [
      128.7923,
      41.2274
     ],
     [
      128.8506,
      41.1845
     ],
     [
      128.8582,
      41.1606
     ],
     [
      128.8215,
      41.1311
     ],
     [
      128.815,
      41.1041
     ],
     [
      128.8647,
      41.0547
     ],
     [
      128.8683,
      41.0389
     ],
     [
      128.9035,
      41.0137
     ],
     [
      128.9302,
      40.9322
     ],
     [
      128.8987,
      40.8937
     ],
     [
      128.8734,
      40.8949
     ],
     [
      128.8529,
      40.8832
     ],
     [
      128.8448,
      40.866
     ],
     [
      128.8546,
      40.8401
     ],
     [
      128.9516,
      40.7894
     ],
     [
      128.9977,
      40.7539
     ],
     [
      129.1391,
      40.7274
     ],
     [
      129.2012,
      40.6725
     ],
     [
      129.2088,
      40.6486
     ],
     [
      129.1755,
      40.5682
     ],
     [
      129.1318,
      40.5205
     ],
     [
      129.0558,
      40.5242
     ],
     [
      128.9765,
      40.5144
     ],
     [
      128.9175,
      40.4792
     ],
     [
      128.8941,
      40.4413
     ],
     [
      128.8851,
      40.3772
     ],
     [
      128.8618,
      40.3412
     ],
     [
      128.7742,
      40.2937
     ],
     [
      128.7506,
      40.2704
     ],
     [
      128.7066,
      40.1338
     ],
     [
      128.7101,
      40.118
     ],
     [
      128.6837,
      40.0704
     ],
     [
      128.629,
      40.031
     ],
     [
      128.5815,
      40.0119
     ],
     [
      128.5234,
      39.9571
     ],
     [
      128.4778,
      39.7305
     ],
     [
      128.5119,
      39.7064
     ],
     [
      128.5803,
      39.7265
     ],
     [
      128.6333,
      39.674
     ],
     [
      128.6366,
      39.621
     ],
     [
      128.6708,
      39.547
     ],
     [
      128.6704,
      39.5079
     ],
     [
      128.6849,
      39.4837
     ],
     [
      128.6666,
      39.4201
     ],
     [
      128.6714,
      39.3554
     ],
     [
      128.6625,
      39.3265
     ],
     [
      128.6704,
      39.3065
     ],
     [
      128.6563,
      39.2701
     ],
     [
      128.7005,
      39.2239
     ],
     [
      128.7241,
      39.2139
     ],
     [
      128.7216,
      39.1789
     ],
     [
      128.7638,
      39.1533
     ],
     [
      128.7495,
      39.113
     ],
     [
      128.755,
      39.0931
     ],
     [
      128.7396,
      39.0704
     ],
     [
      128.7502,
      39.023
     ],
     [
      128.7915,
      38.9691
     ],
     [
      128.8312,
      38.9584
     ],
     [
      128.8352,
      38.9152
     ],
     [
      128.7802,
      38.8719
     ],
     [
      128.721,
      38.8514
     ],
     [
      128.6877,
      38.8208
     ],
     [
      128.6966,
      38.7812
     ],
     [
      128.6783,
      38.7508
     ],
     [
      128.6841,
      38.7349
     ],
     [
      128.6596,
      38.7146
     ],
     [
      128.6581,
      38.6932
     ],
     [
      128.597,
      38.6434
     ],
     [
      128.5979,
      38.5906
     ],
     [
      128.5236,
      38.4847
     ],
     [
      128.5239,
      38.4554
     ],
     [
      128.5388,
      38.4371
     ],
     [
      128.5336,
      38.3943
     ],
     [
      128.5025,
      38.3616
     ],
     [
      128.4794,
      38.3628
     ],
     [
      128.4517,
      38.3456
     ],
     [
      128.3843,
      38.2394
     ],
     [
      128.3437,
      38.2199
     ],
     [
      128.3323,
      38.1892
     ],
     [
      128.3022,
      38.1555
     ],
     [
      128.3062,
      38.1122
     ],
     [
      128.2603,
      38.05
     ],
     [
      128.2514,
      38.0211
     ],
     [
      128.2689,
      37.9733
     ],
     [
      128.2689,
      37.9401
     ],
     [
      128.2576,
      37.9093
     ],
     [
      128.2232,
      37.8798
     ],
     [
      128.2145,
      37.8548
     ],
     [
      128.1532,
      37.8363
     ],
     [
      128.1194,
      37.7812
     ],
     [
      128.115,
      37.7521
     ],
     [
      128.0896,
      37.7348
     ],
     [
      128.0357,
      37.7238
     ],
     [
      127.9556,
      37.7356
     ],
     [
      127.8814,
      37.7314
     ],
     [
      127.853,
      37.7211
     ],
     [
      127.7949,
      37.6663
     ],
     [
      127.7872,
      37.5552
     ],
     [
      127.7919,
      37.5217
     ],
     [
      127.8079,
      37.5024
     ],
     [
      127.8868,
      37.475
     ],
     [
      127.942,
      37.4703
     ],
     [
      127.9941,
      37.5059
     ],
     [
      128.009,
      37.554
     ],
     [
      128.0453,
      37.561
     ],
     [
      128.0641,
      37.5493
     ],
     [
      128.0609,
      37.4693
     ],
     [
      128.1053,
      37.4437
     ],
     [
      128.0295,
      37.3829
     ],
     [
      127.9899,
      37.3106
     ],
     [
      127.9028,
      37.2376
     ],
     [
      127.8396,
      37.2085
     ],
     [
      127.8043,
      37.1652
     ],
     [
      127.782,
      37.1096
     ],
     [
      127.7926,
      37.0622
     ],
     [
      127.7827,
      37.0197
     ],
     [
      127.7387,
      37.0013
     ],
     [
      127.6912,
      36.9655
     ],
     [
      127.6674,
      36.9217
     ],
     [
      127.6897,
      36.8444
     ],
     [
      127.6879,
      36.8171
     ],
     [
      127.6424,
      36.7607
     ],
     [
      127.6379,
      36.7296
     ],
     [
      127.6543,
      36.631
     ],
     [
      127.6333,
      36.5949
     ],
     [
      127.5924,
      36.5715
     ],
     [
      127.5806,
      36.5516
     ],
     [
      127.5412,
      36.533
     ],
     [
      127.5219,
      36.4538
     ],
     [
      127.4841,
      36.4087
     ],
     [
      127.5109,
      36.3272
     ],
     [
      127.5091,
      36.3019
     ],
     [
      127.4861,
      36.2698
     ],
     [
      127.4779,
      36.2174
     ],
     [
      127.5035,
      36.1203
     ],
     [
      127.5014,
      36.0892
     ],
     [
      127.4701,
      36.0379
     ],
     [
      127.4725,
      36.0046
     ],
     [
      127.4879,
      35.9774
     ],
     [
      127.5147,
      35.9643
     ],
     [
      127.5611,
      35.966
     ],
     [
      127.6059,
      35.9794
     ],
     [
      127.6292,
      35.8991
     ],
     [
      127.6599,
      35.8741
     ],
     [
      127.7016,
      35.8095
     ],
     [
      127.6744,
      35.8001
     ],
     [
      127.6366,
      35.8215
     ],
     [
      127.5861,
      35.8259
     ],
     [
      127.554,
      35.8128
     ],
     [
      127.5433,
      35.7919
     ],
     [
      127.5525,
      35.7582
     ],
     [
      127.5484,
      35.6645
     ],
     [
      127.4593,
      35.6122
     ],
     [
      127.4309,
      35.5686
     ],
     [
      127.4414,
      35.486
     ],
     [
      127.4629,
      35.4634
     ],
     [
      127.4568,
      35.409
     ],
     [
      127.4282,
      35.3781
     ],
     [
      127.3646,
      35.3617
     ],
     [
      127.3267,
      35.3313
     ],
     [
      127.3159,
      35.2752
     ],
     [
      127.3539,
      35.1892
     ],
     [
      127.3319,
      35.1043
     ],
     [
      127.3454,
      35.0664
     ],
     [
      127.3648,
      35.0459
     ],
     [
      127.37,
      34.987
     ],
     [
      127.3615,
      34.9806
     ],
     [
      127.3225,
      35.0177
     ],
     [
      127.2764,
      35.02
     ],
     [
      127.2277,
      34.9833
     ],
     [
      127.1801,
      34.9974
     ],
     [
      127.1265,
      34.9902
     ],
     [
      127.0343,
      34.9264
     ],
     [
      127.0023,
      34.9318
     ],
     [
      126.9589,
      34.9731
     ],
     [
      126.9313,
      34.9744
     ],
     [
      126.8991,
      34.9594
     ],
     [
      126.8917,
      34.9187
     ],
     [
      126.8648,
      34.8985
     ],
     [
      126.8336,
      34.8473
     ],
     [
      126.8389,
      34.8236
     ],
     [
      126.888,
      34.7644
     ],
     [
      126.8811,
      34.7315
     ],
     [
      126.891,
      34.7076
     ],
     [
      126.9291,
      34.6735
     ],
     [
      126.9746,
      34.6634
     ],
     [
      126.9944,
      34.6487
     ],
     [
      127.0131,
      34.6019
     ],
     [
      127.0464,
      34.5826
     ],
     [
      127.0426,
      34.5613
     ],
     [
      127.0573,
      34.5391
     ],
     [
      127.1124,
      34.5011
     ],
     [
      127.1103,
      34.47
     ],
     [
      127.0938,
      34.4483
     ],
     [
      127.0412,
      34.4568
     ],
     [
      126.9568,
      34.4394
     ],
     [
      126.926,
      34.4106
     ],
     [
      126.9239,
      34.3814
     ],
     [
      126.9443,
      34.308
     ],
     [
      126.974,
      34.2694
     ],
     [
      126.9907,
      34.2099
     ],
     [
      126.9772,
      34.1813
     ],
     [
      126.9382,
      34.1519
     ],
     [
      126.8849,
      34.0822
     ],
     [
      126.8589,
      34.0072
     ],
     [
      126.8799,
      33.9436
     ],
     [
      126.916,
      33.8969
     ],
     [
      126.919,
      33.8733
     ],
     [
      126.8991,
      33.8527
     ],
     [
      126.8973,
      33.8274
     ],
     [
      126.9337,
      33.7846
     ],
     [
      126.8948,
      33.7572
     ],
     [
      126.8978,
      33.7003
     ],
     [
      126.8606,
      33.663
     ],
     [
      126.861,
      33.6356
     ],
     [
      126.8876,
      33.5854
     ],
     [
      126.886,
      33.5288
     ],
     [
      126.904,
      33.5054
     ],
     [
      126.9898,
      33.4758
     ],
     [
      127.0245,
      33.476
     ],
     [
      127.0483,
      33.4866
     ],
     [
      127.06,
      33.4714
     ],
     [
      127.0566,
      33.4559
     ],
     [
      126.9778,
      33.4187
     ],
     [
      126.9712,
      33.3897
     ],
     [
      126.9961,
      33.366
     ],
     [
      127.0516,
      33.3672
     ],
     [
      127.0763,
      33.3562
     ],
     [
      127.1052,
      33.3225
     ],
     [
      127.0912,
      33.3046
     ],
     [
      126.9742,
      33.283
     ],
     [
      126.931,
      33.2265
     ],
     [
      126.8921,
      33.2323
     ],
     [
      126.8519,
      33.2186
     ],
     [
      126.8271,
      33.2277
     ],
     [
      126.7968,
      33.2233
     ],
     [
      126.7428,
      33.1605
     ],
     [
      126.6943,
      33.1443
     ]
    ]
   ],
   [
    [
     [
      126.5898,
      33.0028
     ],
     [
      126.5257,
      33.0617
     ],
     [
      126.5165,
      33.0954
     ],
     [
      126.5229,
      33.1039
     ],
     [
      126.5505,
      33.1025
     ],
     [
      126.5993,
      33.0727
     ],
     [
      126.6384,
      33.0708
     ],
     [
      126.6657,
      33.047
     ],
     [
      126.659,
      33.0346
     ],
     [
      126.6215,
      33.0267
     ],
     [
      126.5898,
      33.0028
     ]
    ]
   ],
   [
    [
     [
      126.8754,
      33.0904
     ],
     [
      126.8366,
      33.1128
     ],
     [
      126.8677,
      33.1455
     ],
     [
      126.9177,
      33.1665
     ],
     [
      126.9337,
      33.1139
     ],
     [
      126.9153,
      33.0982
     ],
     [
      126.8754,
      33.0904
     ]
    ]
   ],
   [
    [
     [
      126.8893,
      32.9567
     ],
     [
      126.8662,
      32.9726
     ],
     [
      126.8751,
      32.9848
     ],
     [
      126.8988,
      32.9768
     ],
     [
      126.8893,
      32.9567
     ]
    ]
   ]
  ]
 }
}