{
 "type": "Feature",
 "properties": {
  "id": "frisland",
  "traced_from": "Frisland, plate from an Italian atlas, 1562 (BnF btv1b53093871d)",
  "source_url": "https://commons.wikimedia.org/wiki/File:Accipe..._lector..._Suetiae,_Gotiae,_Norvegiae,_Prusiae,_Pomeraniae,_ducatus_Megapolensis,_Frisiae,_Geldriae,_Altae_Marchiae,_Lusatiae..._descriptionem..._-_btv1b53093871d_(2_of_2).jpg",
  "georeference": {
   "km_per_px": 0.1531,
   "source": "the plate's own latitude ticks",
   "landmark_rms_km": null,
   "landmarks": 0
  },
  "scale_source": "the plate's latitude ticks, read as a plan at equal linear scale both ways",
  "parts": 23,
  "centre": [
   -29.0,
   63.02
  ]
 },
 "geometry": {
  "type": "MultiPolygon",
  "coordinates": [
   [
    [
     [
      -29.5465,
      61.3616
     ],
     [
      -29.6527,
      61.3616
     ],
     [
      -29.6815,
      61.3657
     ],
     [
      -29.7148,
      61.3802
     ],
     [
      -29.7704,
      61.4243
     ],
     [
      -29.7689,
      61.4794
     ],
     [
      -29.7751,
      61.4973
     ],
     [
      -29.7699,
      61.5207
     ],
     [
      -29.7847,
      61.5331
     ],
     [
      -29.8358,
      61.5558
     ],
     [
      -29.8561,
      61.5599
     ],
     [
      -29.8734,
      61.5586
     ],
     [
      -29.8862,
      61.5524
     ],
     [
      -29.897,
      61.5262
     ],
     [
      -29.9155,
      61.5186
     ],
     [
      -29.9959,
      61.509
     ],
     [
      -30.0306,
      61.5104
     ],
     [
      -30.0974,
      61.5241
     ],
     [
      -30.1608,
      61.5228
     ],
     [
      -30.2071,
      61.5283
     ],
     [
      -30.2203,
      61.5345
     ],
     [
      -30.2237,
      61.5455
     ],
     [
      -30.1451,
      61.6061
     ],
     [
      -30.146,
      61.6295
     ],
     [
      -30.1829,
      61.6509
     ],
     [
      -30.3201,
      61.6756
     ],
     [
      -30.3606,
      61.6743
     ],
     [
      -30.4032,
      61.655
     ],
     [
      -30.4404,
      61.6453
     ],
     [
      -30.4616,
      61.635
     ],
     [
      -30.4664,
      61.6144
     ],
     [
      -30.4509,
      61.5909
     ],
     [
      -30.4502,
      61.5772
     ],
     [
      -30.4656,
      61.5668
     ],
     [
      -30.4828,
      61.5641
     ],
     [
      -30.5403,
      61.5586
     ],
     [
      -30.6271,
      61.5613
     ],
     [
      -30.665,
      61.5682
     ],
     [
      -30.7501,
      61.593
     ],
     [
      -30.782,
      61.5944
     ],
     [
      -30.8033,
      61.5868
     ],
     [
      -30.8141,
      61.5744
     ],
     [
      -30.8325,
      61.5682
     ],
     [
      -30.8994,
      61.5765
     ],
     [
      -30.9283,
      61.5765
     ],
     [
      -30.9655,
      61.571
     ],
     [
      -31.0348,
      61.5696
     ],
     [
      -31.0714,
      61.5558
     ],
     [
      -31.103,
      61.5531
     ],
     [
      -31.2023,
      61.5696
     ],
     [
      -31.2427,
      61.5696
     ],
     [
      -31.3162,
      61.5475
     ],
     [
      -31.3534,
      61.5434
     ],
     [
      -31.3939,
      61.5448
     ],
     [
      -31.4133,
      61.5537
     ],
     [
      -31.4112,
      61.5634
     ],
     [
      -31.3705,
      61.5978
     ],
     [
      -31.3524,
      61.6068
     ],
     [
      -31.2216,
      61.6385
     ],
     [
      -31.1953,
      61.6543
     ],
     [
      -31.1712,
      61.6832
     ],
     [
      -31.0877,
      61.7128
     ],
     [
      -31.0132,
      61.7493
     ],
     [
      -30.9889,
      61.7783
     ],
     [
      -30.973,
      61.8471
     ],
     [
      -30.9738,
      61.8595
     ],
     [
      -30.9832,
      61.8692
     ],
     [
      -31.0286,
      61.894
     ],
     [
      -31.0233,
      61.9463
     ],
     [
      -31.015,
      61.9546
     ],
     [
      -30.988,
      61.9663
     ],
     [
      -30.9447,
      61.9745
     ],
     [
      -30.9152,
      61.9945
     ],
     [
      -30.8909,
      62.0048
     ],
     [
      -30.8617,
      62.0062
     ],
     [
      -30.7936,
      61.9938
     ],
     [
      -30.7643,
      61.9938
     ],
     [
      -30.7296,
      62.0007
     ],
     [
      -30.6554,
      62.0365
     ],
     [
      -30.6321,
      62.0407
     ],
     [
      -30.5794,
      62.042
     ],
     [
      -30.5504,
      62.0489
     ],
     [
      -30.4431,
      62.1061
     ],
     [
      -30.432,
      62.1199
     ],
     [
      -30.4329,
      62.1378
     ],
     [
      -30.4497,
      62.1818
     ],
     [
      -30.4252,
      62.2245
     ],
     [
      -30.4238,
      62.2576
     ],
     [
      -30.4363,
      62.2714
     ],
     [
      -30.479,
      62.2989
     ],
     [
      -30.4828,
      62.3155
     ],
     [
      -30.4369,
      62.4091
     ],
     [
      -30.4524,
      62.4215
     ],
     [
      -30.4995,
      62.4429
     ],
     [
      -30.5296,
      62.4498
     ],
     [
      -30.5443,
      62.447
     ],
     [
      -30.5789,
      62.4277
     ],
     [
      -30.6461,
      62.4057
     ],
     [
      -30.6697,
      62.4029
     ],
     [
      -30.6923,
      62.4105
     ],
     [
      -30.7144,
      62.4325
     ],
     [
      -30.7492,
      62.4442
     ],
     [
      -30.7759,
      62.4429
     ],
     [
      -30.8285,
      62.4277
     ],
     [
      -30.8493,
      62.4277
     ],
     [
      -30.9015,
      62.4553
     ],
     [
      -30.9226,
      62.4594
     ],
     [
      -30.9612,
      62.458
     ],
     [
      -31.0196,
      62.4429
     ],
     [
      -31.0404,
      62.4429
     ],
     [
      -31.1015,
      62.4663
     ],
     [
      -31.1553,
      62.469
     ],
     [
      -31.1876,
      62.4635
     ],
     [
      -31.2428,
      62.4456
     ],
     [
      -31.2842,
      62.4429
     ],
     [
      -31.3719,
      62.4621
     ],
     [
      -31.4621,
      62.4745
     ],
     [
      -31.552,
      62.4814
     ],
     [
      -31.5915,
      62.4911
     ],
     [
      -31.6212,
      62.5069
     ],
     [
      -31.6544,
      62.5455
     ],
     [
      -31.7106,
      62.573
     ],
     [
      -31.7459,
      62.5992
     ],
     [
      -31.7595,
      62.6171
     ],
     [
      -31.7576,
      62.6295
     ],
     [
      -31.7307,
      62.6453
     ],
     [
      -31.6717,
      62.655
     ],
     [
      -31.6442,
      62.6653
     ],
     [
      -31.6262,
      62.6984
     ],
     [
      -31.5876,
      62.7369
     ],
     [
      -31.5716,
      62.7431
     ],
     [
      -31.5475,
      62.7418
     ],
     [
      -31.5272,
      62.7328
     ],
     [
      -31.5078,
      62.7163
     ],
     [
      -31.4753,
      62.7046
     ],
     [
      -31.391,
      62.7004
     ],
     [
      -31.3555,
      62.706
     ],
     [
      -31.3263,
      62.717
     ],
     [
      -31.2878,
      62.7425
     ],
     [
      -31.2863,
      62.7617
     ],
     [
      -31.3097,
      62.792
     ],
     [
      -31.3691,
      62.8196
     ],
     [
      -31.364,
      62.832
     ],
     [
      -31.3479,
      62.8368
     ],
     [
      -31.3087,
      62.8368
     ],
     [
      -31.2051,
      62.8203
     ],
     [
      -31.1629,
      62.8203
     ],
     [
      -31.1333,
      62.8272
     ],
     [
      -31.0823,
      62.8513
     ],
     [
      -31.0655,
      62.8692
     ],
     [
      -31.0666,
      62.8843
     ],
     [
      -31.0894,
      62.9091
     ],
     [
      -31.0847,
      62.927
     ],
     [
      -31.0655,
      62.9332
     ],
     [
      -31.0383,
      62.9332
     ],
     [
      -30.9704,
      62.9126
     ],
     [
      -30.9344,
      62.9153
     ],
     [
      -30.9126,
      62.9284
     ],
     [
      -30.8986,
      62.9463
     ],
     [
      -30.9046,
      62.9918
     ],
     [
      -30.8989,
      62.9973
     ],
     [
      -30.8826,
      63.0035
     ],
     [
      -30.8615,
      63.0048
     ],
     [
      -30.7789,
      62.9911
     ],
     [
      -30.7458,
      62.9938
     ],
     [
      -30.7295,
      63.0014
     ],
     [
      -30.724,
      63.0097
     ],
     [
      -30.7229,
      63.0427
     ],
     [
      -30.73,
      63.0606
     ],
     [
      -30.7215,
      63.0703
     ],
     [
      -30.6932,
      63.0792
     ],
     [
      -30.6689,
      63.0792
     ],
     [
      -30.629,
      63.0723
     ],
     [
      -30.6017,
      63.0723
     ],
     [
      -30.5747,
      63.0792
     ],
     [
      -30.544,
      63.1006
     ],
     [
      -30.5485,
      63.1281
     ],
     [
      -30.5429,
      63.1378
     ],
     [
      -30.5118,
      63.1536
     ],
     [
      -30.4666,
      63.1633
     ],
     [
      -30.4361,
      63.1633
     ],
     [
      -30.39,
      63.155
     ],
     [
      -30.2974,
      63.1261
     ],
     [
      -30.2639,
      63.1261
     ],
     [
      -30.2459,
      63.1302
     ],
     [
      -30.2235,
      63.1405
     ],
     [
      -30.1881,
      63.1681
     ],
     [
      -30.1571,
      63.2314
     ],
     [
      -30.1159,
      63.2714
     ],
     [
      -30.1102,
      63.2824
     ],
     [
      -30.1134,
      63.3637
     ],
     [
      -30.0989,
      63.3871
     ],
     [
      -30.0661,
      63.4119
     ],
     [
      -30.0634,
      63.4229
     ],
     [
      -30.1073,
      63.4449
     ],
     [
      -30.1111,
      63.4642
     ],
     [
      -30.1208,
      63.4752
     ],
     [
      -30.1725,
      63.4966
     ],
     [
      -30.2064,
      63.498
     ],
     [
      -30.2738,
      63.4897
     ],
     [
      -30.3293,
      63.4897
     ],
     [
      -30.3652,
      63.5
     ],
     [
      -30.3748,
      63.5083
     ],
     [
      -30.3824,
      63.5372
     ],
     [
      -30.4303,
      63.5689
     ],
     [
      -30.4537,
      63.6047
     ],
     [
      -30.4859,
      63.6281
     ],
     [
      -30.5027,
      63.6529
     ],
     [
      -30.5267,
      63.6674
     ],
     [
      -30.5581,
      63.6743
     ],
     [
      -30.5982,
      63.6715
     ],
     [
      -30.6359,
      63.6529
     ],
     [
      -30.6561,
      63.6267
     ],
     [
      -30.6547,
      63.6033
     ],
     [
      -30.6444,
      63.5854
     ],
     [
      -30.6464,
      63.5661
     ],
     [
      -30.6688,
      63.5531
     ],
     [
      -30.6993,
      63.5475
     ],
     [
      -30.7799,
      63.5531
     ],
     [
      -30.8555,
      63.5765
     ],
     [
      -30.8894,
      63.5751
     ],
     [
      -30.9286,
      63.5599
     ],
     [
      -30.9652,
      63.5531
     ],
     [
      -30.9991,
      63.5531
     ],
     [
      -31.0833,
      63.5641
     ],
     [
      -31.1053,
      63.5696
     ],
     [
      -31.1264,
      63.5827
     ],
     [
      -31.1455,
      63.6309
     ],
     [
      -31.1753,
      63.6571
     ],
     [
      -31.2183,
      63.6715
     ],
     [
      -31.2648,
      63.6715
     ],
     [
      -31.3265,
      63.6488
     ],
     [
      -31.3436,
      63.6309
     ],
     [
      -31.3389,
      63.6116
     ],
     [
      -31.3051,
      63.5758
     ],
     [
      -31.3039,
      63.5606
     ],
     [
      -31.3123,
      63.551
     ],
     [
      -31.3643,
      63.5255
     ],
     [
      -31.4224,
      63.52
     ],
     [
      -31.4733,
      63.5021
     ],
     [
      -31.5009,
      63.5007
     ],
     [
      -31.5639,
      63.5331
     ],
     [
      -31.5882,
      63.5634
     ],
     [
      -31.6733,
      63.6144
     ],
     [
      -31.6934,
      63.6309
     ],
     [
      -31.7218,
      63.6681
     ],
     [
      -31.7219,
      63.7011
     ],
     [
      -31.7883,
      63.7452
     ],
     [
      -31.7937,
      63.7686
     ],
     [
      -31.8124,
      63.8003
     ],
     [
      -31.8118,
      63.8251
     ],
     [
      -31.7898,
      63.8396
     ],
     [
      -31.7556,
      63.8409
     ],
     [
      -31.6799,
      63.8313
     ],
     [
      -31.6029,
      63.8079
     ],
     [
      -31.5751,
      63.8106
     ],
     [
      -31.5465,
      63.8223
     ],
     [
      -31.532,
      63.8334
     ],
     [
      -31.5257,
      63.8678
     ],
     [
      -31.4701,
      63.9277
     ],
     [
      -31.3868,
      63.9415
     ],
     [
      -31.3336,
      63.9415
     ],
     [
      -31.2847,
      63.9566
     ],
     [
      -31.2255,
      63.9608
     ],
     [
      -31.2089,
      63.9683
     ],
     [
      -31.192,
      63.9931
     ],
     [
      -31.1932,
      64.0083
     ],
     [
      -31.2067,
      64.0193
     ],
     [
      -31.2717,
      64.0469
     ],
     [
      -31.2829,
      64.0689
     ],
     [
      -31.2748,
      64.0854
     ],
     [
      -31.2746,
      64.1212
     ],
     [
      -31.2394,
      64.1529
     ],
     [
      -31.2253,
      64.175
     ],
     [
      -31.2055,
      64.1839
     ],
     [
      -31.1739,
      64.1825
     ],
     [
      -31.1249,
      64.1619
     ],
     [
      -31.0927,
      64.1536
     ],
     [
      -31.058,
      64.1536
     ],
     [
      -30.9896,
      64.1674
     ],
     [
      -30.9432,
      64.2025
     ],
     [
      -30.9078,
      64.2156
     ],
     [
      -30.8826,
      64.217
     ],
     [
      -30.8506,
      64.2115
     ],
     [
      -30.7987,
      64.1908
     ],
     [
      -30.7698,
      64.1839
     ],
     [
      -30.71,
      64.1867
     ],
     [
      -30.6356,
      64.2101
     ],
     [
      -30.5946,
      64.2115
     ],
     [
      -30.569,
      64.2073
     ],
     [
      -30.5416,
      64.197
     ],
     [
      -30.5151,
      64.175
     ],
     [
      -30.4876,
      64.1619
     ],
     [
      -30.3981,
      64.1398
     ],
     [
      -30.3601,
      64.1357
     ],
     [
      -30.3318,
      64.1371
     ],
     [
      -30.3069,
      64.144
     ],
     [
      -30.2219,
      64.1832
     ],
     [
      -30.2162,
      64.1956
     ],
     [
      -30.2306,
      64.2004
     ],
     [
      -30.2719,
      64.2046
     ],
     [
      -30.2897,
      64.2149
     ],
     [
      -30.2841,
      64.2301
     ],
     [
      -30.2536,
      64.2548
     ],
     [
      -30.2574,
      64.2686
     ],
     [
      -30.3515,
      64.3141
     ],
     [
      -30.3815,
      64.343
     ],
     [
      -30.4209,
      64.3678
     ],
     [
      -30.423,
      64.4091
     ],
     [
      -30.4364,
      64.4215
     ],
     [
      -30.4837,
      64.4429
     ],
     [
      -30.529,
      64.4553
     ],
     [
      -30.5472,
      64.467
     ],
     [
      -30.5592,
      64.5083
     ],
     [
      -30.5587,
      64.5565
     ],
     [
      -30.5858,
      64.5813
     ],
     [
      -30.6417,
      64.6061
     ],
     [
      -30.6623,
      64.6281
     ],
     [
      -30.667,
      64.6529
     ],
     [
      -30.6436,
      64.6633
     ],
     [
      -30.6208,
      64.6591
     ],
     [
      -30.5617,
      64.6371
     ],
     [
      -30.4904,
      64.6247
     ],
     [
      -30.3492,
      64.6247
     ],
     [
      -30.3111,
      64.6316
     ],
     [
      -30.264,
      64.6536
     ],
     [
      -30.2164,
      64.6674
     ],
     [
      -30.1654,
      64.6784
     ],
     [
      -30.13,
      64.677
     ],
     [
      -30.1084,
      64.6598
     ],
     [
      -30.1191,
      64.6061
     ],
     [
      -30.1087,
      64.5882
     ],
     [
      -30.0617,
      64.5737
     ],
     [
      -29.9493,
      64.5641
     ],
     [
      -29.9138,
      64.5572
     ],
     [
      -29.8892,
      64.5386
     ],
     [
      -29.8887,
      64.5248
     ],
     [
      -29.901,
      64.5083
     ],
     [
      -29.9005,
      64.4931
     ],
     [
      -29.8906,
      64.4849
     ],
     [
      -29.8632,
      64.4759
     ],
     [
      -29.7607,
      64.4621
     ],
     [
      -29.73,
      64.4463
     ],
     [
      -29.7134,
      64.4201
     ],
     [
      -29.6701,
      64.4071
     ],
     [
      -29.6192,
      64.4084
     ],
     [
      -29.6018,
      64.416
     ],
     [
      -29.5833,
      64.4422
     ],
     [
      -29.5596,
      64.4525
     ],
     [
      -29.5024,
      64.4621
     ],
     [
      -29.4818,
      64.4697
     ],
     [
      -29.4693,
      64.4849
     ],
     [
      -29.4698,
      64.5152
     ],
     [
      -29.4572,
      64.5276
     ],
     [
      -29.3602,
      64.5641
     ],
     [
      -29.3282,
      64.5668
     ],
     [
      -29.3041,
      64.5579
     ],
     [
      -29.2879,
      64.54
     ],
     [
      -29.2941,
      64.5207
     ],
     [
      -29.3194,
      64.5
     ],
     [
      -29.2998,
      64.4642
     ],
     [
      -29.3219,
      64.438
     ],
     [
      -29.3217,
      64.427
     ],
     [
      -29.3073,
      64.4222
     ],
     [
      -29.2627,
      64.4181
     ],
     [
      -29.2388,
      64.4091
     ],
     [
      -29.2259,
      64.3981
     ],
     [
      -29.2194,
      64.3774
     ],
     [
      -29.1923,
      64.3657
     ],
     [
      -29.1446,
      64.3644
     ],
     [
      -29.097,
      64.3823
     ],
     [
      -29.0684,
      64.3864
     ],
     [
      -29.0525,
      64.385
     ],
     [
      -28.9984,
      64.3699
     ],
     [
      -28.9253,
      64.3767
     ],
     [
      -28.8918,
      64.3885
     ],
     [
      -28.8822,
      64.4133
     ],
     [
      -28.8662,
      64.427
     ],
     [
      -28.8455,
      64.436
     ],
     [
      -28.8231,
      64.4401
     ],
     [
      -28.7817,
      64.436
     ],
     [
      -28.7278,
      64.4153
     ],
     [
      -28.6801,
      64.4057
     ],
     [
      -28.5814,
      64.4071
     ],
     [
      -28.5465,
      64.4015
     ],
     [
      -28.5198,
      64.3829
     ],
     [
      -28.5109,
      64.3471
     ],
     [
      -28.5238,
      64.3334
     ],
     [
      -28.5654,
      64.3113
     ],
     [
      -28.5688,
      64.2989
     ],
     [
      -28.5626,
      64.292
     ],
     [
      -28.4997,
      64.2645
     ],
     [
      -28.4719,
      64.2273
     ],
     [
      -28.4753,
      64.2108
     ],
     [
      -28.4979,
      64.1846
     ],
     [
      -28.5078,
      64.1612
     ],
     [
      -28.496,
      64.1157
     ],
     [
      -28.5122,
      64.0937
     ],
     [
      -28.5124,
      64.0785
     ],
     [
      -28.5,
      64.0689
     ],
     [
      -28.4486,
      64.0462
     ],
     [
      -28.4205,
      64.0393
     ],
     [
      -28.3921,
      64.042
     ],
     [
      -28.3319,
      64.0627
     ],
     [
      -28.3006,
      64.0599
     ],
     [
      -28.2773,
      64.0496
     ],
     [
      -28.2682,
      64.0372
     ],
     [
      -28.2666,
      63.978
     ],
     [
      -28.3055,
      63.9243
     ],
     [
      -28.3096,
      63.8871
     ],
     [
      -28.3005,
      63.8747
     ],
     [
      -28.2514,
      63.843
     ],
     [
      -28.218,
      63.8113
     ],
     [
      -28.1949,
      63.7996
     ],
     [
      -28.1733,
      63.7941
     ],
     [
      -28.0491,
      63.7817
     ],
     [
      -27.9963,
      63.7803
     ],
     [
      -27.965,
      63.7845
     ],
     [
      -27.9083,
      63.8024
     ],
     [
      -27.8676,
      63.8079
     ],
     [
      -27.8469,
      63.8182
     ],
     [
      -27.8392,
      63.854
     ],
     [
      -27.8119,
      63.8726
     ],
     [
      -27.7706,
      63.8878
     ],
     [
      -27.7011,
      63.9057
     ],
     [
      -27.6697,
      63.9071
     ],
     [
      -27.6171,
      63.896
     ],
     [
      -27.5732,
      63.8988
     ],
     [
      -27.5333,
      63.916
     ],
     [
      -27.5,
      63.9532
     ],
     [
      -27.3885,
      63.9863
     ],
     [
      -27.3819,
      63.9918
     ],
     [
      -27.3834,
      64.0207
     ],
     [
      -27.4031,
      64.0324
     ],
     [
      -27.4386,
      64.0441
     ],
     [
      -27.4533,
      64.062
     ],
     [
      -27.449,
      64.0827
     ],
     [
      -27.4228,
      64.1006
     ],
     [
      -27.4283,
      64.1157
     ],
     [
      -27.4604,
      64.1329
     ],
     [
      -27.4888,
      64.1316
     ],
     [
      -27.527,
      64.1247
     ],
     [
      -27.5522,
      64.1247
     ],
     [
      -27.5754,
      64.1323
     ],
     [
      -27.5844,
      64.1419
     ],
     [
      -27.5868,
      64.1571
     ],
     [
      -27.5725,
      64.1901
     ],
     [
      -27.5611,
      64.1963
     ],
     [
      -27.5325,
      64.1991
     ],
     [
      -27.4937,
      64.1874
     ],
     [
      -27.4672,
      64.1515
     ],
     [
      -27.4475,
      64.1385
     ],
     [
      -27.4255,
      64.1371
     ],
     [
      -27.3969,
      64.1412
     ],
     [
      -27.3546,
      64.1633
     ],
     [
      -27.3355,
      64.166
     ],
     [
      -27.2817,
      64.1674
     ],
     [
      -27.2381,
      64.1591
     ],
     [
      -27.1492,
      64.1206
     ],
     [
      -27.0497,
      64.1013
     ],
     [
      -27.036,
      64.0951
     ],
     [
      -27.0307,
      64.0813
     ],
     [
      -27.0484,
      64.0524
     ],
     [
      -27.0497,
      64.0345
     ],
     [
      -27.0274,
      64.0159
     ],
     [
      -26.9967,
      64.0062
     ],
     [
      -26.9626,
      64.0007
     ],
     [
      -26.9313,
      64.0007
     ],
     [
      -26.8959,
      64.0117
     ],
     [
      -26.8675,
      64.0145
     ],
     [
      -26.8507,
      64.0083
     ],
     [
      -26.8367,
      63.9863
     ],
     [
      -26.8081,
      63.9718
     ],
     [
      -26.7774,
      63.9635
     ],
     [
      -26.7246,
      63.958
     ],
     [
      -26.7047,
      63.9518
     ],
     [
      -26.6995,
      63.9394
     ],
     [
      -26.7173,
      63.9318
     ],
     [
      -26.8016,
      63.9346
     ],
     [
      -26.8556,
      63.9236
     ],
     [
      -26.8798,
      63.9146
     ],
     [
      -26.9417,
      63.8802
     ],
     [
      -26.9715,
      63.8568
     ],
     [
      -26.9856,
      63.8347
     ],
     [
      -26.9912,
      63.7989
     ],
     [
      -27.0085,
      63.7755
     ],
     [
      -26.9938,
      63.7631
     ],
     [
      -26.9411,
      63.739
     ],
     [
      -26.9168,
      63.7321
     ],
     [
      -26.8213,
      63.7211
     ],
     [
      -26.7792,
      63.7431
     ],
     [
      -26.735,
      63.7514
     ],
     [
      -26.6598,
      63.7583
     ],
     [
      -26.6407,
      63.7638
     ],
     [
      -26.6129,
      63.7796
     ],
     [
      -26.5694,
      63.8155
     ],
     [
      -26.5517,
      63.8217
     ],
     [
      -26.5109,
      63.8244
     ],
     [
      -26.4743,
      63.8161
     ],
     [
      -26.443,
      63.8003
     ],
     [
      -26.4317,
      63.7879
     ],
     [
      -26.4274,
      63.7659
     ],
     [
      -26.3876,
      63.7431
     ],
     [
      -26.3663,
      63.7376
     ],
     [
      -26.3383,
      63.7376
     ],
     [
      -26.2815,
      63.7473
     ],
     [
      -26.2352,
      63.7431
     ],
     [
      -26.1684,
      63.7121
     ],
     [
      -26.1455,
      63.6929
     ],
     [
      -26.1377,
      63.6777
     ],
     [
      -26.1389,
      63.6667
     ],
     [
      -26.167,
      63.6336
     ],
     [
      -26.19,
      63.6199
     ],
     [
      -26.1773,
      63.5923
     ],
     [
      -26.1902,
      63.5551
     ],
     [
      -26.2175,
      63.529
     ],
     [
      -26.2972,
      63.4856
     ],
     [
      -26.3128,
      63.4828
     ],
     [
      -26.3434,
      63.4856
     ],
     [
      -26.3859,
      63.5083
     ],
     [
      -26.4166,
      63.5441
     ],
     [
      -26.4228,
      63.5785
     ],
     [
      -26.4504,
      63.5971
     ],
     [
      -26.5199,
      63.6164
     ],
     [
      -26.5508,
      63.6164
     ],
     [
      -26.5791,
      63.6109
     ],
     [
      -26.6677,
      63.5875
     ],
     [
      -26.6888,
      63.5744
     ],
     [
      -26.6931,
      63.5606
     ],
     [
      -26.6797,
      63.5345
     ],
     [
      -26.6815,
      63.5124
     ],
     [
      -26.7062,
      63.4938
     ],
     [
      -26.7402,
      63.4925
     ],
     [
      -26.8342,
      63.5117
     ],
     [
      -26.8744,
      63.5104
     ],
     [
      -26.8964,
      63.5048
     ],
     [
      -26.9425,
      63.4849
     ],
     [
      -27.0413,
      63.4367
     ],
     [
      -27.0644,
      63.4133
     ],
     [
      -27.0651,
      63.4022
     ],
     [
      -27.0449,
      63.3843
     ],
     [
      -26.9914,
      63.3582
     ],
     [
      -26.9859,
      63.3499
     ],
     [
      -26.9929,
      63.3375
     ],
     [
      -27.0227,
      63.3272
     ],
     [
      -27.1029,
      63.3189
     ],
     [
      -27.2365,
      63.2872
     ],
     [
      -27.2853,
      63.2645
     ],
     [
      -27.3329,
      63.2342
     ],
     [
      -27.3522,
      63.2163
     ],
     [
      -27.3693,
      63.1846
     ],
     [
      -27.3707,
      63.1584
     ],
     [
      -27.3624,
      63.1433
     ],
     [
      -27.345,
      63.1295
     ],
     [
      -27.302,
      63.1095
     ],
     [
      -27.2343,
      63.0978
     ],
     [
      -27.2286,
      63.0923
     ],
     [
      -27.2341,
      63.051
     ],
     [
      -27.2288,
      63.0386
     ],
     [
      -27.2099,
      63.0255
     ],
     [
      -27.171,
      63.0172
     ],
     [
      -27.1551,
      63.0055
     ],
     [
      -27.1478,
      62.978
     ],
     [
      -27.1517,
      62.9628
     ],
     [
      -27.2301,
      62.9174
     ],
     [
      -27.2934,
      62.8947
     ],
     [
      -27.329,
      62.8788
     ],
     [
      -27.3385,
      62.8706
     ],
     [
      -27.3486,
      62.8513
     ],
     [
      -27.3455,
      62.7989
     ],
     [
      -27.3586,
      62.781
     ],
     [
      -27.3846,
      62.7721
     ],
     [
      -27.4569,
      62.7693
     ],
     [
      -27.4934,
      62.761
     ],
     [
      -27.5196,
      62.7466
     ],
     [
      -27.5514,
      62.7108
     ],
     [
      -27.5743,
      62.7032
     ],
     [
      -27.6164,
      62.7004
     ],
     [
      -27.6332,
      62.6929
     ],
     [
      -27.646,
      62.675
     ],
     [
      -27.6952,
      62.6474
     ],
     [
      -27.788,
      62.573
     ],
     [
      -27.8039,
      62.5482
     ],
     [
      -27.8055,
      62.5097
     ],
     [
      -27.7856,
      62.4849
     ],
     [
      -27.7637,
      62.4745
     ],
     [
      -27.7401,
      62.4704
     ],
     [
      -27.6953,
      62.4745
     ],
     [
      -27.6286,
      62.5007
     ],
     [
      -27.5988,
      62.5021
     ],
     [
      -27.571,
      62.4904
     ],
     [
      -27.5511,
      62.4711
     ],
     [
      -27.5264,
      62.4594
     ],
     [
      -27.4179,
      62.4318
     ],
     [
      -27.394,
      62.4332
     ],
     [
      -27.3277,
      62.4498
     ],
     [
      -27.261,
      62.4732
     ],
     [
      -27.2072,
      62.4759
     ],
     [
      -27.1708,
      62.4642
     ],
     [
      -27.1513,
      62.4422
     ],
     [
      -27.1565,
      62.4064
     ],
     [
      -27.1817,
      62.3816
     ],
     [
      -27.2428,
      62.3526
     ],
     [
      -27.2832,
      62.3182
     ],
     [
      -27.3062,
      62.3051
     ],
     [
      -27.3362,
      62.2982
     ],
     [
      -27.4134,
      62.2927
     ],
     [
      -27.4419,
      62.2838
     ],
     [
      -27.4482,
      62.2769
     ],
     [
      -27.4496,
      62.2493
     ],
     [
      -27.5083,
      62.197
     ],
     [
      -27.5523,
      62.1715
     ],
     [
      -27.5939,
      62.1619
     ],
     [
      -27.6205,
      62.1619
     ],
     [
      -27.6421,
      62.1708
     ],
     [
      -27.6497,
      62.1998
     ],
     [
      -27.6609,
      62.2135
     ],
     [
      -27.7094,
      62.2507
     ],
     [
      -27.7427,
      62.2666
     ],
     [
      -27.772,
      62.2721
     ],
     [
      -27.8076,
      62.2693
     ],
     [
      -27.8917,
      62.2321
     ],
     [
      -27.9155,
      62.2266
     ],
     [
      -27.9509,
      62.228
     ],
     [
      -28.0077,
      62.2493
     ],
     [
      -28.065,
      62.3072
     ],
     [
      -28.0839,
      62.3175
     ],
     [
      -28.1191,
      62.3285
     ],
     [
      -28.1486,
      62.3327
     ],
     [
      -28.1783,
      62.3299
     ],
     [
      -28.2204,
      62.3065
     ],
     [
      -28.2666,
      62.2907
     ],
     [
      -28.2877,
      62.2728
     ],
     [
      -28.2891,
      62.2149
     ],
     [
      -28.3283,
      62.1763
     ],
     [
      -28.3318,
      62.1515
     ],
     [
      -28.344,
      62.1323
     ],
     [
      -28.3444,
      62.1144
     ],
     [
      -28.3272,
      62.0937
     ],
     [
      -28.3026,
      62.0792
     ],
     [
      -28.2676,
      62.0696
     ],
     [
      -28.2323,
      62.0696
     ],
     [
      -28.2087,
      62.0751
     ],
     [
      -28.1521,
      62.1026
     ],
     [
      -28.1257,
      62.1026
     ],
     [
      -28.0865,
      62.0882
     ],
     [
      -28.0693,
      62.073
     ],
     [
      -28.0527,
      62.0386
     ],
     [
      -28.0128,
      62.0055
     ],
     [
      -27.9907,
      61.9656
     ],
     [
      -27.9289,
      61.9318
     ],
     [
      -27.8654,
      61.9126
     ],
     [
      -27.8352,
      61.8981
     ],
     [
      -27.8269,
      61.8871
     ],
     [
      -27.8195,
      61.8526
     ],
     [
      -27.8054,
      61.8389
     ],
     [
      -27.7885,
      61.8265
     ],
     [
      -27.6869,
      61.7845
     ],
     [
      -27.6543,
      61.7645
     ],
     [
      -27.616,
      61.7108
     ],
     [
      -27.5564,
      61.6818
     ],
     [
      -27.5258,
      61.6557
     ],
     [
      -27.5151,
      61.6378
     ],
     [
      -27.5215,
      61.624
     ],
     [
      -27.5406,
      61.6178
     ],
     [
      -27.5695,
      61.6178
     ],
     [
      -27.6213,
      61.6247
     ],
     [
      -27.6728,
      61.6385
     ],
     [
      -27.7655,
      61.6371
     ],
     [
      -27.8027,
      61.6481
     ],
     [
      -27.8595,
      61.677
     ],
     [
      -27.9113,
      61.688
     ],
     [
      -27.9519,
      61.6894
     ],
     [
      -27.9986,
      61.6784
     ],
     [
      -28.012,
      61.6667
     ],
     [
      -28.0067,
      61.6515
     ],
     [
      -27.9729,
      61.6226
     ],
     [
      -27.9675,
      61.6116
     ],
     [
      -27.9917,
      61.5799
     ],
     [
      -27.9926,
      61.551
     ],
     [
      -28.0088,
      61.542
     ],
     [
      -28.0608,
      61.5407
     ],
     [
      -28.1152,
      61.5531
     ],
     [
      -28.1614,
      61.5544
     ],
     [
      -28.2028,
      61.5703
     ],
     [
      -28.2225,
      61.5937
     ],
     [
      -28.2325,
      61.5985
     ],
     [
      -28.2613,
      61.5999
     ],
     [
      -28.2817,
      61.5958
     ],
     [
      -28.3007,
      61.5868
     ],
     [
      -28.3185,
      61.5661
     ],
     [
      -28.3432,
      61.5544
     ],
     [
      -28.41,
      61.5352
     ],
     [
      -28.4303,
      61.5324
     ],
     [
      -28.5745,
      61.5338
     ],
     [
      -28.6178,
      61.5296
     ],
     [
      -28.6754,
      61.5338
     ],
     [
      -28.733,
      61.5531
     ],
     [
      -28.7676,
      61.5599
     ],
     [
      -28.935,
      61.5668
     ],
     [
      -29.0043,
      61.5985
     ],
     [
      -29.0361,
      61.6068
     ],
     [
      -29.0708,
      61.6068
     ],
     [
      -29.1402,
      61.5861
     ],
     [
      -29.1719,
      61.5875
     ],
     [
      -29.2357,
      61.604
     ],
     [
      -29.2675,
      61.6054
     ],
     [
      -29.2848,
      61.6026
     ],
     [
      -29.3093,
      61.5923
     ],
     [
      -29.3407,
      61.5606
     ],
     [
      -29.3651,
      61.5503
     ],
     [
      -29.4083,
      61.5407
     ],
     [
      -29.4355,
      61.5276
     ],
     [
      -29.4583,
      61.5097
     ],
     [
      -29.4492,
      61.4766
     ],
     [
      -29.4631,
      61.4449
     ],
     [
      -29.4166,
      61.405
     ],
     [
      -29.4163,
      61.3857
     ],
     [
      -29.4406,
      61.3767
     ],
     [
      -29.5465,
      61.3616
     ]
    ]
   ],
   [
    [
     [
      -27.2603,
      64.509
     ],
     [
      -27.3652,
      64.5172
     ],
     [
      -27.4188,
      64.5296
     ],
     [
      -27.4508,
      64.5296
     ],
     [
      -27.5317,
      64.5117
     ],
     [
      -27.5701,
      64.5104
     ],
     [
      -27.6082,
      64.5159
     ],
     [
      -27.6656,
      64.5186
     ],
     [
      -27.7157,
      64.5407
     ],
     [
      -27.7442,
      64.5462
     ],
     [
      -27.7922,
      64.5462
     ],
     [
      -27.8824,
      64.531
     ],
     [
      -27.9016,
      64.531
     ],
     [
      -27.946,
      64.5407
     ],
     [
      -27.9963,
      64.5655
     ],
     [
      -28.0423,
      64.5772
     ],
     [
      -28.0539,
      64.6116
     ],
     [
      -28.0966,
      64.6302
     ],
     [
      -28.1286,
      64.6316
     ],
     [
      -28.1464,
      64.6267
     ],
     [
      -28.1596,
      64.6157
     ],
     [
      -28.1632,
      64.602
     ],
     [
      -28.1572,
      64.5896
     ],
     [
      -28.1654,
      64.5847
     ],
     [
      -28.1911,
      64.582
     ],
     [
      -28.2262,
      64.5847
     ],
     [
      -28.2549,
      64.5916
     ],
     [
      -28.3071,
      64.6171
     ],
     [
      -28.3415,
      64.6529
     ],
     [
      -28.3954,
      64.686
     ],
     [
      -28.4337,
      64.6998
     ],
     [
      -28.475,
      64.7273
     ],
     [
      -28.4775,
      64.7631
     ],
     [
      -28.4932,
      64.7852
     ],
     [
      -28.4929,
      64.8058
     ],
     [
      -28.4829,
      64.821
     ],
     [
      -28.4649,
      64.8285
     ],
     [
      -28.4293,
      64.834
     ],
     [
      -28.4034,
      64.8327
     ],
     [
      -28.2972,
      64.8134
     ],
     [
      -28.2648,
      64.8161
     ],
     [
      -28.2468,
      64.8251
     ],
     [
      -28.2521,
      64.8692
     ],
     [
      -28.219,
      64.8912
     ],
     [
      -28.2155,
      64.9022
     ],
     [
      -28.2601,
      64.9312
     ],
     [
      -28.2629,
      64.9463
     ],
     [
      -28.2359,
      64.9835
     ],
     [
      -28.2286,
      65.0083
     ],
     [
      -28.2338,
      65.0565
     ],
     [
      -28.2188,
      65.0668
     ],
     [
      -28.2024,
      65.0696
     ],
     [
      -28.0621,
      65.0696
     ],
     [
      -28.0427,
      65.0668
     ],
     [
      -28.0347,
      65.062
     ],
     [
      -28.0415,
      65.0524
     ],
     [
      -28.0978,
      65.029
     ],
     [
      -28.1047,
      65.0152
     ],
     [
      -28.0279,
      64.9794
     ],
     [
      -27.9902,
      64.9436
     ],
     [
      -27.9599,
      64.9318
     ],
     [
      -27.8971,
      64.9188
     ],
     [
      -27.8877,
      64.9105
     ],
     [
      -27.8823,
      64.8843
     ],
     [
      -27.8602,
      64.8706
     ],
     [
      -27.8653,
      64.8657
     ],
     [
      -27.8782,
      64.8657
     ],
     [
      -27.9523,
      64.8754
     ],
     [
      -27.9635,
      64.8802
     ],
     [
      -27.9724,
      64.9009
     ],
     [
      -27.9963,
      64.9126
     ],
     [
      -28.0349,
      64.9208
     ],
     [
      -28.0706,
      64.9208
     ],
     [
      -28.079,
      64.9119
     ],
     [
      -28.0068,
      64.8919
     ],
     [
      -27.9896,
      64.8733
     ],
     [
      -27.9673,
      64.865
     ],
     [
      -27.9612,
      64.854
     ],
     [
      -27.9744,
      64.8485
     ],
     [
      -27.9747,
      64.8402
     ],
     [
      -27.9668,
      64.8368
     ],
     [
      -27.8637,
      64.8272
     ],
     [
      -27.7998,
      64.8106
     ],
     [
      -27.7714,
      64.7941
     ],
     [
      -27.7489,
      64.7927
     ],
     [
      -27.7389,
      64.7996
     ],
     [
      -27.7177,
      64.8031
     ],
     [
      -27.7171,
      64.8155
     ],
     [
      -27.741,
      64.8244
     ],
     [
      -27.8084,
      64.8354
     ],
     [
      -27.8226,
      64.8416
     ],
     [
      -27.8255,
      64.8499
     ],
     [
      -27.8109,
      64.852
     ],
     [
      -27.7819,
      64.8478
     ],
     [
      -27.7625,
      64.8492
     ],
     [
      -27.7069,
      64.8616
     ],
     [
      -27.6842,
      64.8616
     ],
     [
      -27.6508,
      64.8499
     ],
     [
      -27.6322,
      64.8347
     ],
     [
      -27.6463,
      64.8113
     ],
     [
      -27.6412,
      64.7838
     ],
     [
      -27.6258,
      64.7686
     ],
     [
      -27.5659,
      64.7438
     ],
     [
      -27.5317,
      64.719
     ],
     [
      -27.5292,
      64.7066
     ],
     [
      -27.543,
      64.6901
     ],
     [
      -27.5342,
      64.6736
     ],
     [
      -27.4546,
      64.6329
     ],
     [
      -27.3722,
      64.615
     ],
     [
      -27.3234,
      64.5992
     ],
     [
      -27.3022,
      64.5799
     ],
     [
      -27.2943,
      64.5524
     ],
     [
      -27.2514,
      64.5234
     ],
     [
      -27.2521,
      64.5124
     ],
     [
      -27.2603,
      64.509
     ]
    ]
   ],
   [
    [
     [
      -26.905,
      62.0324
     ],
     [
      -26.9342,
      62.0352
     ],
     [
      -26.9525,
      62.0455
     ],
     [
      -26.9595,
      62.073
     ],
     [
      -26.9843,
      62.0978
     ],
     [
      -26.9796,
      62.124
     ],
     [
      -26.985,
      62.1309
     ],
     [
      -27.0008,
      62.1371
     ],
     [
      -27.0712,
      62.1398
     ],
     [
      -27.0899,
      62.1474
     ],
     [
      -27.0954,
      62.1529
     ],
     [
      -27.0904,
      62.186
     ],
     [
      -27.0779,
      62.197
     ],
     [
      -27.0187,
      62.2225
     ],
     [
      -27.0067,
      62.2252
     ],
     [
      -26.9685,
      62.2239
     ],
     [
      -26.9214,
      62.2438
     ],
     [
      -26.9178,
      62.2521
     ],
     [
      -26.9313,
      62.2714
     ],
     [
      -26.9276,
      62.2824
     ],
     [
      -26.8645,
      62.3175
     ],
     [
      -26.8406,
      62.3203
     ],
     [
      -26.8026,
      62.3134
     ],
     [
      -26.7493,
      62.2948
     ],
     [
      -26.733,
      62.2755
     ],
     [
      -26.7257,
      62.2548
     ],
     [
      -26.6911,
      62.2239
     ],
     [
      -26.6676,
      62.2225
     ],
     [
      -26.62,
      62.228
     ],
     [
      -26.5754,
      62.2135
     ],
     [
      -26.5616,
      62.2011
     ],
     [
      -26.5538,
      62.1529
     ],
     [
      -26.5739,
      62.1398
     ],
     [
      -26.6548,
      62.1219
     ],
     [
      -26.6902,
      62.1206
     ],
     [
      -26.7194,
      62.1233
     ],
     [
      -26.7343,
      62.1206
     ],
     [
      -26.7481,
      62.113
     ],
     [
      -26.7475,
      62.0813
     ],
     [
      -26.7694,
      62.0634
     ],
     [
      -26.8069,
      62.0517
     ],
     [
      -26.905,
      62.0324
     ]
    ]
   ],
   [
    [
     [
      -29.526,
      60.9925
     ],
     [
      -29.5715,
      60.9966
     ],
     [
      -29.637,
      61.0117
     ],
     [
      -29.6785,
      61.0276
     ],
     [
      -29.6929,
      61.04
     ],
     [
      -29.6989,
      61.0524
     ],
     [
      -29.6978,
      61.1336
     ],
     [
      -29.7067,
      61.1474
     ],
     [
      -29.7071,
      61.1681
     ],
     [
      -29.6933,
      61.186
     ],
     [
      -29.6806,
      61.1922
     ],
     [
      -29.6436,
      61.1963
     ],
     [
      -29.5754,
      61.2156
     ],
     [
      -29.5315,
      61.2356
     ],
     [
      -29.4962,
      61.2597
     ],
     [
      -29.4762,
      61.261
     ],
     [
      -29.4603,
      61.2521
     ],
     [
      -29.4601,
      61.2369
     ],
     [
      -29.474,
      61.2121
     ],
     [
      -29.4736,
      61.1832
     ],
     [
      -29.453,
      61.1391
     ],
     [
      -29.4576,
      61.0634
     ],
     [
      -29.4795,
      61.011
     ],
     [
      -29.4949,
      60.9993
     ],
     [
      -29.526,
      60.9925
     ]
    ]
   ],
   [
    [
     [
      -26.0867,
      63.8575
     ],
     [
      -26.1145,
      63.8602
     ],
     [
      -26.226,
      63.9002
     ],
     [
      -26.2572,
      63.9015
     ],
     [
      -26.2891,
      63.8947
     ],
     [
      -26.3202,
      63.896
     ],
     [
      -26.3664,
      63.9201
     ],
     [
      -26.3743,
      63.9353
     ],
     [
      -26.389,
      63.9463
     ],
     [
      -26.3915,
      63.9532
     ],
     [
      -26.3741,
      63.9711
     ],
     [
      -26.3122,
      63.9959
     ],
     [
      -26.288,
      64.0193
     ],
     [
      -26.2476,
      64.0469
     ],
     [
      -26.2264,
      64.0544
     ],
     [
      -26.192,
      64.0531
     ],
     [
      -26.1573,
      64.0386
     ],
     [
      -26.1466,
      64.0207
     ],
     [
      -26.1484,
      64.0028
     ],
     [
      -26.1787,
      63.9518
     ],
     [
      -26.1533,
      63.9243
     ],
     [
      -26.1339,
      63.9153
     ],
     [
      -26.0911,
      63.9057
     ],
     [
      -26.0688,
      63.894
     ],
     [
      -26.0636,
      63.8843
     ],
     [
      -26.0687,
      63.865
     ],
     [
      -26.0867,
      63.8575
     ]
    ]
   ],
   [
    [
     [
      -31.8212,
      61.706
     ],
     [
      -31.8375,
      61.7094
     ],
     [
      -31.8395,
      61.7156
     ],
     [
      -31.8747,
      61.7197
     ],
     [
      -31.8986,
      61.7266
     ],
     [
      -31.9365,
      61.7438
     ],
     [
      -31.9524,
      61.7576
     ],
     [
      -31.9535,
      61.77
     ],
     [
      -31.893,
      61.8217
     ],
     [
      -31.8648,
      61.8313
     ],
     [
      -31.8502,
      61.8313
     ],
     [
      -31.8481,
      61.8396
     ],
     [
      -31.8103,
      61.8409
     ],
     [
      -31.7955,
      61.8382
     ],
     [
      -31.7816,
      61.8292
     ],
     [
      -31.7796,
      61.8072
     ],
     [
      -31.7453,
      61.7824
     ],
     [
      -31.7378,
      61.779
     ],
     [
      -31.7178,
      61.7831
     ],
     [
      -31.6915,
      61.7817
     ],
     [
      -31.6808,
      61.7755
     ],
     [
      -31.6799,
      61.7659
     ],
     [
      -31.6894,
      61.7583
     ],
     [
      -31.7293,
      61.7487
     ],
     [
      -31.7986,
      61.7128
     ],
     [
      -31.8212,
      61.706
     ]
    ]
   ],
   [
    [
     [
      -29.2117,
      61.0544
     ],
     [
      -29.2401,
      61.0544
     ],
     [
      -29.314,
      61.0627
     ],
     [
      -29.3554,
      61.0744
     ],
     [
      -29.3697,
      61.0882
     ],
     [
      -29.3759,
      61.1254
     ],
     [
      -29.3518,
      61.1412
     ],
     [
      -29.312,
      61.1495
     ],
     [
      -29.2921,
      61.1481
     ],
     [
      -29.2551,
      61.1522
     ],
     [
      -29.2067,
      61.1633
     ],
     [
      -29.1853,
      61.1584
     ],
     [
      -29.1824,
      61.1447
     ],
     [
      -29.2078,
      61.1102
     ],
     [
      -29.1933,
      61.0648
     ],
     [
      -29.2117,
      61.0544
     ]
    ]
   ],
   [
    [
     [
      -25.8135,
      63.8726
     ],
     [
      -25.8444,
      63.8754
     ],
     [
      -25.886,
      63.8947
     ],
     [
      -25.9318,
      63.9043
     ],
     [
      -25.954,
      63.916
     ],
     [
      -25.9531,
      63.9243
     ],
     [
      -25.9226,
      63.9449
     ],
     [
      -25.9238,
      63.9628
     ],
     [
      -25.9168,
      63.9697
     ],
     [
      -25.8591,
      63.9952
     ],
     [
      -25.8431,
      63.998
     ],
     [
      -25.8244,
      63.9966
     ],
     [
      -25.7988,
      63.9876
     ],
     [
      -25.7792,
      63.967
     ],
     [
      -25.8012,
      63.9394
     ],
     [
      -25.8023,
      63.9298
     ],
     [
      -25.784,
      63.8981
     ],
     [
      -25.7853,
      63.8871
     ],
     [
      -25.7923,
      63.8802
     ],
     [
      -25.8135,
      63.8726
     ]
    ]
   ],
   [
    [
     [
      -27.3309,
      61.3217
     ],
     [
      -27.3594,
      61.3258
     ],
     [
      -27.4086,
      61.3444
     ],
     [
      -27.4184,
      61.3761
     ],
     [
      -27.418,
      61.3857
     ],
     [
      -27.3999,
      61.4022
     ],
     [
      -27.3934,
      61.4174
     ],
     [
      -27.3633,
      61.4422
     ],
     [
      -27.3413,
      61.4511
     ],
     [
      -27.3241,
      61.4498
     ],
     [
      -27.3115,
      61.4436
     ],
     [
      -27.2987,
      61.4146
     ],
     [
      -27.269,
      61.3802
     ],
     [
      -27.2696,
      61.3678
     ],
     [
      -27.2907,
      61.3499
     ],
     [
      -27.2943,
      61.3361
     ],
     [
      -27.3136,
      61.3244
     ],
     [
      -27.3309,
      61.3217
     ]
    ]
   ],
   [
    [
     [
      -31.4953,
      61.4057
     ],
     [
      -31.5298,
      61.4071
     ],
     [
      -31.5669,
      61.4215
     ],
     [
      -31.5794,
      61.4325
     ],
     [
      -31.5745,
      61.4436
     ],
     [
      -31.535,
      61.4704
     ],
     [
      -31.5237,
      61.4732
     ],
     [
      -31.4718,
      61.4718
     ],
     [
      -31.4548,
      61.4759
     ],
     [
      -31.4273,
      61.4925
     ],
     [
      -31.4103,
      61.4966
     ],
     [
      -31.4016,
      61.4952
     ],
     [
      -31.391,
      61.489
     ],
     [
      -31.3926,
      61.4725
     ],
     [
      -31.417,
      61.4532
     ],
     [
      -31.435,
      61.4256
     ],
     [
      -31.4586,
      61.4139
     ],
     [
      -31.4953,
      61.4057
     ]
    ]
   ],
   [
    [
     [
      -31.6217,
      63.1371
     ],
     [
      -31.6554,
      63.1398
     ],
     [
      -31.6854,
      63.1515
     ],
     [
      -31.6863,
      63.1612
     ],
     [
      -31.6575,
      63.1791
     ],
     [
      -31.6413,
      63.2025
     ],
     [
      -31.6192,
      63.2115
     ],
     [
      -31.5648,
      63.217
     ],
     [
      -31.532,
      63.2252
     ],
     [
      -31.5138,
      63.2266
     ],
     [
      -31.4983,
      63.2239
     ],
     [
      -31.4871,
      63.2177
     ],
     [
      -31.4866,
      63.2121
     ],
     [
      -31.5142,
      63.1791
     ],
     [
      -31.6217,
      63.1371
     ]
    ]
   ],
   [
    [
     [
      -29.8524,
      61.2142
     ],
     [
      -29.8753,
      61.2156
     ],
     [
      -29.8999,
      61.2287
     ],
     [
      -29.9031,
      61.2397
     ],
     [
      -29.8892,
      61.2548
     ],
     [
      -29.8724,
      61.2672
     ],
     [
      -29.8427,
      61.279
     ],
     [
      -29.8198,
      61.2803
     ],
     [
      -29.7743,
      61.29
     ],
     [
      -29.7514,
      61.2886
     ],
     [
      -29.7354,
      61.2783
     ],
     [
      -29.7349,
      61.2562
     ],
     [
      -29.7404,
      61.2493
     ],
     [
      -29.7956,
      61.2266
     ],
     [
      -29.8524,
      61.2142
     ]
    ]
   ],
   [
    [
     [
      -28.1611,
      61.458
     ],
     [
      -28.2214,
      61.4635
     ],
     [
      -28.2473,
      61.4621
     ],
     [
      -28.2731,
      61.4663
     ],
     [
      -28.2916,
      61.4766
     ],
     [
      -28.2913,
      61.4904
     ],
     [
      -28.2695,
      61.4993
     ],
     [
      -28.2058,
      61.509
     ],
     [
      -28.137,
      61.4952
     ],
     [
      -28.065,
      61.4966
     ],
     [
      -28.0522,
      61.4918
     ],
     [
      -28.0524,
      61.4835
     ],
     [
      -28.0626,
      61.4787
     ],
     [
      -28.1611,
      61.458
     ]
    ]
   ],
   [
    [
     [
      -31.7367,
      62.7748
     ],
     [
      -31.767,
      62.7776
     ],
     [
      -31.8003,
      62.7962
     ],
     [
      -31.8044,
      62.8072
     ],
     [
      -31.7936,
      62.821
     ],
     [
      -31.7987,
      62.843
     ],
     [
      -31.7835,
      62.8575
     ],
     [
      -31.7155,
      62.8712
     ],
     [
      -31.6892,
      62.8637
     ],
     [
      -31.6821,
      62.8526
     ],
     [
      -31.704,
      62.8279
     ],
     [
      -31.7021,
      62.8072
     ],
     [
      -31.7124,
      62.7893
     ],
     [
      -31.7178,
      62.7824
     ],
     [
      -31.7367,
      62.7748
     ]
    ]
   ],
   [
    [
     [
      -31.2995,
      62.9883
     ],
     [
      -31.3269,
      62.9911
     ],
     [
      -31.3475,
      63.0014
     ],
     [
      -31.3516,
      63.0152
     ],
     [
      -31.3436,
      63.029
     ],
     [
      -31.3246,
      63.0379
     ],
     [
      -31.2811,
      63.0441
     ],
     [
      -31.2515,
      63.0723
     ],
     [
      -31.2213,
      63.0751
     ],
     [
      -31.1997,
      63.071
     ],
     [
      -31.1791,
      63.0593
     ],
     [
      -31.1783,
      63.0482
     ],
     [
      -31.2282,
      63.0262
     ],
     [
      -31.2385,
      63.0028
     ],
     [
      -31.2546,
      62.9952
     ],
     [
      -31.2995,
      62.9883
     ]
    ]
   ],
   [
    [
     [
      -27.6128,
      61.4277
     ],
     [
      -27.6357,
      61.4305
     ],
     [
      -27.6483,
      61.4367
     ],
     [
      -27.6607,
      61.4821
     ],
     [
      -27.6488,
      61.4931
     ],
     [
      -27.6002,
      61.5159
     ],
     [
      -27.5828,
      61.5172
     ],
     [
      -27.5505,
      61.4987
     ],
     [
      -27.5402,
      61.4725
     ],
     [
      -27.5675,
      61.4436
     ],
     [
      -27.6128,
      61.4277
     ]
    ]
   ],
   [
    [
     [
      -31.5583,
      62.9015
     ],
     [
      -31.5765,
      62.9029
     ],
     [
      -31.5941,
      62.9133
     ],
     [
      -31.5978,
      62.9215
     ],
     [
      -31.5845,
      62.9422
     ],
     [
      -31.5382,
      62.9656
     ],
     [
      -31.5273,
      62.9794
     ],
     [
      -31.5142,
      62.9856
     ],
     [
      -31.484,
      62.9869
     ],
     [
      -31.4572,
      62.9739
     ],
     [
      -31.4591,
      62.9601
     ],
     [
      -31.4924,
      62.9256
     ],
     [
      -31.5583,
      62.9015
     ]
    ]
   ],
   [
    [
     [
      -31.0163,
      63.0971
     ],
     [
      -31.0315,
      63.0971
     ],
     [
      -31.0517,
      63.1033
     ],
     [
      -31.0582,
      63.1088
     ],
     [
      -31.0531,
      63.1226
     ],
     [
      -31.0087,
      63.1405
     ],
     [
      -30.995,
      63.1626
     ],
     [
      -30.9817,
      63.1688
     ],
     [
      -30.9576,
      63.1729
     ],
     [
      -30.924,
      63.1715
     ],
     [
      -30.91,
      63.1667
     ],
     [
      -30.9002,
      63.1571
     ],
     [
      -30.9056,
      63.146
     ],
     [
      -30.9422,
      63.1247
     ],
     [
      -30.9895,
      63.104
     ],
     [
      -31.0163,
      63.0971
     ]
    ]
   ],
   [
    [
     [
      -30.7845,
      63.1825
     ],
     [
      -30.8121,
      63.1853
     ],
     [
      -30.8232,
      63.1915
     ],
     [
      -30.8236,
      63.1984
     ],
     [
      -30.8004,
      63.2177
     ],
     [
      -30.8016,
      63.2356
     ],
     [
      -30.7883,
      63.2431
     ],
     [
      -30.7401,
      63.2542
     ],
     [
      -30.7187,
      63.2542
     ],
     [
      -30.6919,
      63.2397
     ],
     [
      -30.6914,
      63.2314
     ],
     [
      -30.7113,
      63.2066
     ],
     [
      -30.7334,
      63.1936
     ],
     [
      -30.7845,
      63.1825
     ]
    ]
   ],
   [
    [
     [
      -31.0124,
      63.2597
     ],
     [
      -31.0514,
      63.2714
     ],
     [
      -31.0643,
      63.2796
     ],
     [
      -31.068,
      63.2893
     ],
     [
      -31.0567,
      63.3017
     ],
     [
      -31.0209,
      63.3155
     ],
     [
      -31.0064,
      63.3279
     ],
     [
      -30.9807,
      63.3327
     ],
     [
      -30.9384,
      63.3182
     ],
     [
      -30.9283,
      63.3044
     ],
     [
      -30.9719,
      63.2714
     ],
     [
      -31.0124,
      63.2597
     ]
    ]
   ],
   [
    [
     [
      -31.2883,
      63.155
     ],
     [
      -31.3128,
      63.1564
     ],
     [
      -31.3272,
      63.1653
     ],
     [
      -31.3325,
      63.1929
     ],
     [
      -31.3154,
      63.208
     ],
     [
      -31.2845,
      63.2225
     ],
     [
      -31.2602,
      63.2239
     ],
     [
      -31.2303,
      63.2121
     ],
     [
      -31.2262,
      63.1984
     ],
     [
      -31.2482,
      63.1681
     ],
     [
      -31.2883,
      63.155
     ]
    ]
   ],
   [
    [
     [
      -31.259,
      63.3258
     ],
     [
      -31.2774,
      63.3258
     ],
     [
      -31.2979,
      63.3334
     ],
     [
      -31.309,
      63.3568
     ],
     [
      -31.2769,
      63.3774
     ],
     [
      -31.2658,
      63.3926
     ],
     [
      -31.2524,
      63.3974
     ],
     [
      -31.2401,
      63.3974
     ],
     [
      -31.2069,
      63.3857
     ],
     [
      -31.2029,
      63.3733
     ],
     [
      -31.2366,
      63.3334
     ],
     [
      -31.259,
      63.3258
     ]
    ]
   ],
   [
    [
     [
      -31.7313,
      63.0407
     ],
     [
      -31.7704,
      63.0537
     ],
     [
      -31.7779,
      63.0689
     ],
     [
      -31.7474,
      63.0992
     ],
     [
      -31.7343,
      63.1054
     ],
     [
      -31.7192,
      63.1068
     ],
     [
      -31.6956,
      63.0978
     ],
     [
      -31.6917,
      63.0882
     ],
     [
      -31.7081,
      63.0689
     ],
     [
      -31.7095,
      63.051
     ],
     [
      -31.7313,
      63.0407
     ]
    ]
   ]
  ]
 }
}