{
 "type": "Feature",
 "properties": {
  "id": "groclant",
  "traced_from": "Abraham Ortelius, Septentrionalium Regionum Descriptio, 1570",
  "source_url": "https://commons.wikimedia.org/wiki/File:Ortelius,_Abraham_Septentrionalivm_regionvm_descrip.jpg",
  "georeference": {
   "projection": "stereographic polar",
   "pole_px": [
    2490.0,
    -392.0
   ],
   "k": 12320.8,
   "lon0": -4.0,
   "km_per_px": 1.0134,
   "north_offset_deg": 54.6,
   "landmark_rms_km": 208,
   "landmarks": 12
  },
  "scale_source": "the chart's own graticule, fitted on coastal landmarks",
  "centre": [
   -67.75,
   73.95
  ],
  "centre_from_chart": [
   -58.62,
   77.47
  ],
  "turned_deg": -32.5,
  "scaled_by": 0.91,
  "size_km_measured": [
   629,
   480
  ]
 },
 "geometry": {
  "type": "Polygon",
  "coordinates": [
   [
    [
     -58.6804,
     72.4893
    ],
    [
     -59.1863,
     72.4791
    ],
    [
     -59.732,
     72.5162
    ],
    [
     -59.8564,
     72.4765
    ],
    [
     -59.9461,
     72.3963
    ],
    [
     -60.0798,
     72.386
    ],
    [
     -60.7964,
     72.4844
    ],
    [
     -61.2692,
     72.4972
    ],
    [
     -62.1939,
     72.6435
    ],
    [
     -62.4409,
     72.6563
    ],
    [
     -62.8079,
     72.7279
    ],
    [
     -63.5286,
     72.7392
    ],
    [
     -63.9112,
     72.7637
    ],
    [
     -64.445,
     72.7107
    ],
    [
     -64.8628,
     72.7121
    ],
    [
     -65.5236,
     72.6424
    ],
    [
     -66.471,
     72.4484
    ],
    [
     -66.7232,
     72.4372
    ],
    [
     -67.3554,
     72.3537
    ],
    [
     -68.2204,
     72.4005
    ],
    [
     -69.079,
     72.4993
    ],
    [
     -69.5885,
     72.496
    ],
    [
     -70.2077,
     72.4032
    ],
    [
     -70.7853,
     72.4237
    ],
    [
     -71.1462,
     72.4691
    ],
    [
     -71.3285,
     72.526
    ],
    [
     -71.6417,
     72.7585
    ],
    [
     -71.9283,
     72.8748
    ],
    [
     -72.028,
     72.9719
    ],
    [
     -72.0388,
     73.0912
    ],
    [
     -72.1408,
     73.1509
    ],
    [
     -72.4372,
     73.2106
    ],
    [
     -72.6975,
     73.3035
    ],
    [
     -72.9392,
     73.3383
    ],
    [
     -73.4876,
     73.3694
    ],
    [
     -74.1664,
     73.3791
    ],
    [
     -74.4755,
     73.3498
    ],
    [
     -74.8513,
     73.3809
    ],
    [
     -75.3163,
     73.4976
    ],
    [
     -75.5976,
     73.6537
    ],
    [
     -75.9451,
     73.7225
    ],
    [
     -76.1282,
     73.7359
    ],
    [
     -76.4449,
     73.7223
    ],
    [
     -76.9708,
     73.7652
    ],
    [
     -77.2846,
     73.956
    ],
    [
     -77.5941,
     74.0307
    ],
    [
     -77.9978,
     74.0743
    ],
    [
     -78.8984,
     74.1039
    ],
    [
     -79.9086,
     74.1652
    ],
    [
     -80.1235,
     74.2362
    ],
    [
     -80.1372,
     74.3448
    ],
    [
     -79.8079,
     74.6822
    ],
    [
     -78.5378,
     74.8431
    ],
    [
     -77.9712,
     74.9376
    ],
    [
     -77.5927,
     75.0484
    ],
    [
     -77.0849,
     75.1389
    ],
    [
     -76.5484,
     75.1538
    ],
    [
     -76.3241,
     75.188
    ],
    [
     -75.5658,
     75.2045
    ],
    [
     -75.184,
     75.2024
    ],
    [
     -73.715,
     75.0994
    ],
    [
     -73.2306,
     75.0424
    ],
    [
     -72.6613,
     74.9209
    ],
    [
     -71.9147,
     74.8689
    ],
    [
     -71.4603,
     74.7781
    ],
    [
     -71.21,
     74.6799
    ],
    [
     -70.8912,
     74.5997
    ],
    [
     -70.2434,
     74.4862
    ],
    [
     -69.5326,
     74.3063
    ],
    [
     -69.1178,
     74.2689
    ],
    [
     -67.8339,
     74.2613
    ],
    [
     -67.2386,
     74.2181
    ],
    [
     -66.9344,
     74.2597
    ],
    [
     -66.6666,
     74.3506
    ],
    [
     -66.1363,
     74.4228
    ],
    [
     -65.7834,
     74.5293
    ],
    [
     -65.5393,
     74.5709
    ],
    [
     -64.226,
     74.6664
    ],
    [
     -64.0255,
     74.6533
    ],
    [
     -63.8158,
     74.5923
    ],
    [
     -63.5279,
     74.5468
    ],
    [
     -63.2149,
     74.4373
    ],
    [
     -62.5534,
     74.4313
    ],
    [
     -62.2901,
     74.4002
    ],
    [
     -62.0334,
     74.4032
    ],
    [
     -60.0094,
     74.2849
    ],
    [
     -59.3575,
     74.1653
    ],
    [
     -58.5853,
     74.1123
    ],
    [
     -57.9528,
     74.0097
    ],
    [
     -57.5263,
     73.8208
    ],
    [
     -57.2483,
     73.7986
    ],
    [
     -57.1354,
     73.7494
    ],
    [
     -56.8531,
     73.697
    ],
    [
     -56.713,
     73.628
    ],
    [
     -56.6561,
     73.5029
    ],
    [
     -56.8015,
     73.2383
    ],
    [
     -57.0053,
     73.1069
    ],
    [
     -57.1716,
     72.926
    ],
    [
     -57.3153,
     72.8617
    ],
    [
     -57.635,
     72.7818
    ],
    [
     -57.8882,
     72.6543
    ],
    [
     -58.2497,
     72.5618
    ],
    [
     -58.6804,
     72.4893
    ]
   ]
  ]
 }
}