{
 "type": "Feature",
 "properties": {
  "id": "hy-brasil",
  "traced_from": "Atlas catalan, attributed to Cresques Abraham, 1375 \u2014 westernmost panel",
  "source_url": "https://gallica.bnf.fr/iiif/ark:/12148/btv1b55002481n/f6/3654,3262,2300,2400/full/0/native.jpg",
  "georeference": null,
  "scale_source": "height set by hand; chart not yet georeferenced",
  "centre": [
   -15.0,
   51.5
  ],
  "size_km": [
   72,
   73
  ]
 },
 "geometry": {
  "type": "Polygon",
  "coordinates": [
   [
    [
     -14.9562,
     51.1703
    ],
    [
     -14.9912,
     51.1703
    ],
    [
     -15.1809,
     51.1958
    ],
    [
     -15.3181,
     51.2377
    ],
    [
     -15.4144,
     51.2577
    ],
    [
     -15.4392,
     51.2787
    ],
    [
     -15.48,
     51.3479
    ],
    [
     -15.5092,
     51.4226
    ],
    [
     -15.5209,
     51.4882
    ],
    [
     -15.5209,
     51.5501
    ],
    [
     -15.5092,
     51.5829
    ],
    [
     -15.4567,
     51.6667
    ],
    [
     -15.4129,
     51.7177
    ],
    [
     -15.3706,
     51.7423
    ],
    [
     -15.248,
     51.7696
    ],
    [
     -15.2101,
     51.7951
    ],
    [
     -15.1634,
     51.8115
    ],
    [
     -15.0204,
     51.8297
    ],
    [
     -14.9533,
     51.8261
    ],
    [
     -14.7782,
     51.7897
    ],
    [
     -14.6673,
     51.7532
    ],
    [
     -14.6309,
     51.7286
    ],
    [
     -14.5404,
     51.6357
    ],
    [
     -14.5375,
     51.6175
    ],
    [
     -14.5521,
     51.6011
    ],
    [
     -14.5521,
     51.5792
    ],
    [
     -14.4966,
     51.5337
    ],
    [
     -14.4791,
     51.5009
    ],
    [
     -14.482,
     51.4554
    ],
    [
     -14.5112,
     51.3716
    ],
    [
     -14.5404,
     51.3278
    ],
    [
     -14.5638,
     51.3078
    ],
    [
     -14.6644,
     51.2504
    ],
    [
     -14.714,
     51.2286
    ],
    [
     -14.7957,
     51.2049
    ],
    [
     -14.895,
     51.1867
    ],
    [
     -14.9562,
     51.1703
    ]
   ]
  ]
 }
}