{
 "type": "Feature",
 "properties": {
  "id": "kianida",
  "traced_from": "Nona Europe Tabula, Ptolemy's Cosmographia, Ulm 1482",
  "source_url": "https://archive.org/details/cosmographia00ptol/page/n197",
  "georeference": {
   "km_per_px": 0.322,
   "chart_rotation_deg": -6.2,
   "landmark_rms_km": 35,
   "landmarks": 11
  },
  "centre": [
   29.618,
   42.133
  ],
  "centre_from_chart": null,
  "size_km": [
   62,
   40
  ]
 },
 "geometry": {
  "type": "Polygon",
  "coordinates": [
   [
    [
     29.4841,
     41.9525
    ],
    [
     29.4527,
     41.955
    ],
    [
     29.4439,
     41.9893
    ],
    [
     29.4464,
     42.0066
    ],
    [
     29.4755,
     42.0422
    ],
    [
     29.4729,
     42.0511
    ],
    [
     29.3813,
     42.0628
    ],
    [
     29.3638,
     42.092
    ],
    [
     29.2546,
     42.1853
    ],
    [
     29.2427,
     42.2125
    ],
    [
     29.2989,
     42.2299
    ],
    [
     29.3833,
     42.2903
    ],
    [
     29.3981,
     42.2832
    ],
    [
     29.4845,
     42.2763
    ],
    [
     29.5254,
     42.2847
    ],
    [
     29.5689,
     42.3104
    ],
    [
     29.6344,
     42.2964
    ],
    [
     29.8305,
     42.3069
    ],
    [
     29.8345,
     42.2672
    ],
    [
     29.8063,
     42.2374
    ],
    [
     29.8064,
     42.2111
    ],
    [
     29.8365,
     42.1868
    ],
    [
     29.8561,
     42.1853
    ],
    [
     29.892,
     42.1591
    ],
    [
     29.9687,
     42.1412
    ],
    [
     29.9967,
     42.1025
    ],
    [
     29.9977,
     42.082
    ],
    [
     29.982,
     42.0702
    ],
    [
     29.9585,
     42.072
    ],
    [
     29.8866,
     42.0428
    ],
    [
     29.8164,
     42.0513
    ],
    [
     29.7668,
     42.0378
    ],
    [
     29.7554,
     42.0285
    ],
    [
     29.739,
     41.9846
    ],
    [
     29.6919,
     41.9884
    ],
    [
     29.6487,
     42.0181
    ],
    [
     29.6181,
     42.0264
    ],
    [
     29.582,
     42.0103
    ],
    [
     29.5255,
     41.9638
    ],
    [
     29.4841,
     41.9525
    ]
   ]
  ]
 }
}