{
 "type": "Feature",
 "properties": {
  "id": "mayda",
  "traced_from": "Atlas catalan, attributed to Cresques Abraham, 1375 \u2014 westernmost panel",
  "source_url": "https://gallica.bnf.fr/iiif/ark:/12148/btv1b55002481n/f6/3654,3262,2300,2400/full/0/native.jpg",
  "georeference": null,
  "scale_source": "height set by hand; chart not yet georeferenced",
  "centre": [
   -20.0,
   47.0
  ],
  "size_km": [
   61,
   60
  ]
 },
 "geometry": {
  "type": "Polygon",
  "coordinates": [
   [
    [
     -20.004,
     46.7306
    ],
    [
     -20.118,
     46.7306
    ],
    [
     -20.1498,
     46.7415
    ],
    [
     -20.1764,
     46.7415
    ],
    [
     -20.2082,
     46.7488
    ],
    [
     -20.2851,
     46.7778
    ],
    [
     -20.305,
     46.7914
    ],
    [
     -20.3169,
     46.8086
    ],
    [
     -20.3302,
     46.8123
    ],
    [
     -20.3541,
     46.8086
    ],
    [
     -20.37,
     46.8141
    ],
    [
     -20.4005,
     46.8494
    ],
    [
     -20.3793,
     46.8585
    ],
    [
     -20.3793,
     46.8748
    ],
    [
     -20.3514,
     46.8866
    ],
    [
     -20.3328,
     46.9066
    ],
    [
     -20.3249,
     46.9084
    ],
    [
     -20.3209,
     46.9002
    ],
    [
     -20.309,
     46.8957
    ],
    [
     -20.2851,
     46.8993
    ],
    [
     -20.2692,
     46.912
    ],
    [
     -20.187,
     46.9519
    ],
    [
     -20.175,
     46.9619
    ],
    [
     -20.1697,
     46.9819
    ],
    [
     -20.1512,
     46.9891
    ],
    [
     -20.1366,
     47.0154
    ],
    [
     -20.1207,
     47.0172
    ],
    [
     -20.0942,
     47.0063
    ],
    [
     -20.0703,
     47.0082
    ],
    [
     -20.0332,
     47.0354
    ],
    [
     -19.9801,
     47.0571
    ],
    [
     -19.9735,
     47.0653
    ],
    [
     -19.9761,
     47.078
    ],
    [
     -19.947,
     47.127
    ],
    [
     -19.9138,
     47.1497
    ],
    [
     -19.8873,
     47.1515
    ],
    [
     -19.8342,
     47.1732
    ],
    [
     -19.7958,
     47.1995
    ],
    [
     -19.7931,
     47.205
    ],
    [
     -19.8037,
     47.2177
    ],
    [
     -19.8037,
     47.2286
    ],
    [
     -19.7971,
     47.2331
    ],
    [
     -19.7759,
     47.2313
    ],
    [
     -19.7534,
     47.2648
    ],
    [
     -19.7441,
     47.2694
    ],
    [
     -19.687,
     47.234
    ],
    [
     -19.6738,
     47.1868
    ],
    [
     -19.6446,
     47.1723
    ],
    [
     -19.634,
     47.1433
    ],
    [
     -19.6101,
     47.1107
    ],
    [
     -19.5995,
     47.0689
    ],
    [
     -19.5995,
     47.0327
    ],
    [
     -19.626,
     46.9184
    ],
    [
     -19.642,
     46.8912
    ],
    [
     -19.6552,
     46.8821
    ],
    [
     -19.6738,
     46.8549
    ],
    [
     -19.7335,
     46.8141
    ],
    [
     -19.7759,
     46.8032
    ],
    [
     -19.8157,
     46.7742
    ],
    [
     -19.9032,
     46.7524
    ],
    [
     -19.9218,
     46.7361
    ],
    [
     -19.9456,
     46.7397
    ],
    [
     -19.9668,
     46.7324
    ],
    [
     -20.004,
     46.7306
    ]
   ]
  ]
 }
}