{
 "type": "Feature",
 "properties": {
  "id": "nakanotorishima",
  "traced_from": "Yamada Teizaburo, survey sketch of Nakanotorishima, 1908",
  "source_url": "https://commons.wikimedia.org/wiki/File:%E4%B8%AD%E3%83%8E%E9%B3%A5%E5%B3%B6.gif",
  "georeference": null,
  "scale_source": "height set by hand; chart not yet georeferenced",
  "centre": [
   154.42,
   30.75
  ],
  "size_km": [
   22,
   20
  ]
 },
 "geometry": {
  "type": "Polygon",
  "coordinates": [
   [
    [
     154.4131,
     30.7049
    ],
    [
     154.4093,
     30.7049
    ],
    [
     154.4063,
     30.7063
    ],
    [
     154.4036,
     30.7098
    ],
    [
     154.4011,
     30.7139
    ],
    [
     154.3995,
     30.7147
    ],
    [
     154.3956,
     30.7146
    ],
    [
     154.393,
     30.7131
    ],
    [
     154.3885,
     30.7088
    ],
    [
     154.3872,
     30.7083
    ],
    [
     154.384,
     30.7083
    ],
    [
     154.3806,
     30.7089
    ],
    [
     154.3774,
     30.71
    ],
    [
     154.3755,
     30.7112
    ],
    [
     154.3713,
     30.715
    ],
    [
     154.3689,
     30.7189
    ],
    [
     154.3679,
     30.7229
    ],
    [
     154.3662,
     30.7266
    ],
    [
     154.3625,
     30.7297
    ],
    [
     154.3619,
     30.7308
    ],
    [
     154.363,
     30.737
    ],
    [
     154.3629,
     30.7401
    ],
    [
     154.3621,
     30.7428
    ],
    [
     154.3623,
     30.7467
    ],
    [
     154.3636,
     30.7478
    ],
    [
     154.3644,
     30.7493
    ],
    [
     154.3642,
     30.7506
    ],
    [
     154.363,
     30.7508
    ],
    [
     154.3623,
     30.7517
    ],
    [
     154.3664,
     30.7561
    ],
    [
     154.3653,
     30.7612
    ],
    [
     154.3657,
     30.7637
    ],
    [
     154.3667,
     30.7647
    ],
    [
     154.3701,
     30.7667
    ],
    [
     154.3721,
     30.769
    ],
    [
     154.3728,
     30.7711
    ],
    [
     154.373,
     30.7752
    ],
    [
     154.3752,
     30.781
    ],
    [
     154.3784,
     30.7845
    ],
    [
     154.3825,
     30.7874
    ],
    [
     154.3896,
     30.7887
    ],
    [
     154.3947,
     30.7885
    ],
    [
     154.3971,
     30.789
    ],
    [
     154.3992,
     30.7898
    ],
    [
     154.4035,
     30.793
    ],
    [
     154.4063,
     30.794
    ],
    [
     154.4161,
     30.7933
    ],
    [
     154.4202,
     30.7938
    ],
    [
     154.4239,
     30.7948
    ],
    [
     154.4329,
     30.7951
    ],
    [
     154.444,
     30.7932
    ],
    [
     154.4497,
     30.793
    ],
    [
     154.4518,
     30.7915
    ],
    [
     154.4533,
     30.7871
    ],
    [
     154.4566,
     30.7857
    ],
    [
     154.4595,
     30.7836
    ],
    [
     154.4642,
     30.7774
    ],
    [
     154.4669,
     30.7746
    ],
    [
     154.4695,
     30.7731
    ],
    [
     154.4748,
     30.7725
    ],
    [
     154.4764,
     30.7705
    ],
    [
     154.4758,
     30.769
    ],
    [
     154.4721,
     30.7633
    ],
    [
     154.4709,
     30.7599
    ],
    [
     154.4713,
     30.7557
    ],
    [
     154.4764,
     30.7446
    ],
    [
     154.4781,
     30.7381
    ],
    [
     154.4779,
     30.7354
    ],
    [
     154.4738,
     30.7211
    ],
    [
     154.4717,
     30.7177
    ],
    [
     154.4703,
     30.7165
    ],
    [
     154.4684,
     30.7152
    ],
    [
     154.4647,
     30.7138
    ],
    [
     154.4585,
     30.7084
    ],
    [
     154.4542,
     30.7067
    ],
    [
     154.4478,
     30.7067
    ],
    [
     154.439,
     30.7091
    ],
    [
     154.4382,
     30.7088
    ],
    [
     154.4373,
     30.7089
    ],
    [
     154.4322,
     30.7068
    ],
    [
     154.4284,
     30.7065
    ],
    [
     154.4228,
     30.7067
    ],
    [
     154.4181,
     30.7052
    ],
    [
     154.4131,
     30.7049
    ]
   ]
  ]
 }
}