{
 "type": "Feature",
 "properties": {
  "id": "saint-brendan",
  "traced_from": "Gerard Mercator, Nova et aucta orbis terrae descriptio, 1569 \u2014 sheet 4 (North Atlantic)",
  "source_url": "https://commons.wikimedia.org/wiki/File:Gerard_Mercator%27s_1569_map_of_the_world_-_Sheet_04.tif",
  "georeference": null,
  "scale_source": "height set by hand; chart not yet georeferenced",
  "centre": [
   -28.68,
   52.12
  ],
  "size_km": [
   163,
   116
  ]
 },
 "geometry": {
  "type": "Polygon",
  "coordinates": [
   [
    [
     -28.0097,
     51.592
    ],
    [
     -28.2512,
     51.6068
    ],
    [
     -28.3962,
     51.6663
    ],
    [
     -28.7102,
     51.7407
    ],
    [
     -28.843,
     51.711
    ],
    [
     -28.988,
     51.7705
    ],
    [
     -29.1933,
     51.8002
    ],
    [
     -29.5073,
     51.7705
    ],
    [
     -29.6402,
     51.7928
    ],
    [
     -29.7308,
     51.8411
    ],
    [
     -29.767,
     51.9527
    ],
    [
     -29.8395,
     52.0122
    ],
    [
     -29.8153,
     52.0717
    ],
    [
     -29.8636,
     52.1163
    ],
    [
     -29.8757,
     52.1683
    ],
    [
     -29.8515,
     52.213
    ],
    [
     -29.7187,
     52.2948
    ],
    [
     -29.8395,
     52.4138
    ],
    [
     -29.7912,
     52.4956
    ],
    [
     -29.6039,
     52.6332
    ],
    [
     -29.3503,
     52.648
    ],
    [
     -29.2054,
     52.596
    ],
    [
     -29.0363,
     52.6183
    ],
    [
     -28.9638,
     52.6109
    ],
    [
     -28.9216,
     52.5848
    ],
    [
     -28.8793,
     52.4844
    ],
    [
     -28.6136,
     52.4547
    ],
    [
     -28.4686,
     52.4621
    ],
    [
     -28.4203,
     52.4324
    ],
    [
     -28.2754,
     52.3952
    ],
    [
     -28.221,
     52.3617
    ],
    [
     -28.1546,
     52.2687
    ],
    [
     -28.0218,
     52.2762
    ],
    [
     -27.9191,
     52.2353
    ],
    [
     -27.7621,
     52.1163
    ],
    [
     -27.7259,
     52.027
    ],
    [
     -27.5568,
     51.9452
    ],
    [
     -27.4843,
     51.8188
    ],
    [
     -27.5387,
     51.7705
    ],
    [
     -27.6534,
     51.7221
    ],
    [
     -27.744,
     51.644
    ],
    [
     -27.8527,
     51.6366
    ],
    [
     -28.0097,
     51.592
    ]
   ]
  ]
 }
}