{
 "type": "Feature",
 "properties": {
  "id": "san-borondon",
  "traced_from": "Plan de las Afortunadas Islas del Reyno de Canarias, manuscript, c. 1760 (Ministerio de Defensa, Ar.G-T.4-C.1-2)",
  "source_url": "https://commons.wikimedia.org/wiki/File:Ar.Gbis-T.4-C.1_2_(2).jpg",
  "georeference": {
   "km_per_px": 0.073,
   "chart_rotation_deg": 9.5,
   "landmark_rms_km": 14,
   "landmarks": 7
  },
  "centre": [
   -19.015,
   27.911
  ],
  "centre_from_chart": null,
  "turned_deg": null,
  "scaled_by": null,
  "size_km": [
   21,
   58
  ]
 },
 "geometry": {
  "type": "Polygon",
  "coordinates": [
   [
    [
     -18.9805,
     27.6552
    ],
    [
     -18.9928,
     27.6561
    ],
    [
     -19.0369,
     27.6826
    ],
    [
     -19.0434,
     27.689
    ],
    [
     -19.0492,
     27.6995
    ],
    [
     -19.0554,
     27.7046
    ],
    [
     -19.0599,
     27.7159
    ],
    [
     -19.0951,
     27.7381
    ],
    [
     -19.1008,
     27.744
    ],
    [
     -19.1058,
     27.7546
    ],
    [
     -19.1076,
     27.7637
    ],
    [
     -19.1049,
     27.7734
    ],
    [
     -19.1066,
     27.7865
    ],
    [
     -19.0971,
     27.8006
    ],
    [
     -19.0856,
     27.8099
    ],
    [
     -19.0743,
     27.8279
    ],
    [
     -19.0568,
     27.8479
    ],
    [
     -19.0528,
     27.8665
    ],
    [
     -19.0599,
     27.8921
    ],
    [
     -19.0561,
     27.916
    ],
    [
     -19.0582,
     27.9271
    ],
    [
     -19.0709,
     27.9499
    ],
    [
     -19.0781,
     27.9722
    ],
    [
     -19.0925,
     27.9881
    ],
    [
     -19.1093,
     28.017
    ],
    [
     -19.1176,
     28.0245
    ],
    [
     -19.1203,
     28.0347
    ],
    [
     -19.1187,
     28.0423
    ],
    [
     -19.1128,
     28.0495
    ],
    [
     -19.0775,
     28.0747
    ],
    [
     -19.0715,
     28.0813
    ],
    [
     -19.0663,
     28.0941
    ],
    [
     -19.0693,
     28.1056
    ],
    [
     -19.0663,
     28.1118
    ],
    [
     -19.0547,
     28.1148
    ],
    [
     -19.0293,
     28.1285
    ],
    [
     -18.9896,
     28.1711
    ],
    [
     -18.9822,
     28.1762
    ],
    [
     -18.9692,
     28.1794
    ],
    [
     -18.9613,
     28.1779
    ],
    [
     -18.954,
     28.1733
    ],
    [
     -18.9454,
     28.1639
    ],
    [
     -18.9392,
     28.1514
    ],
    [
     -18.9354,
     28.1313
    ],
    [
     -18.94,
     28.0833
    ],
    [
     -18.9312,
     28.0372
    ],
    [
     -18.9353,
     27.9985
    ],
    [
     -18.9315,
     27.9904
    ],
    [
     -18.9198,
     27.9768
    ],
    [
     -18.9194,
     27.9708
    ],
    [
     -18.9267,
     27.9571
    ],
    [
     -18.9273,
     27.9483
    ],
    [
     -18.9179,
     27.923
    ],
    [
     -18.9118,
     27.8745
    ],
    [
     -18.9172,
     27.851
    ],
    [
     -18.9169,
     27.8177
    ],
    [
     -18.9236,
     27.8047
    ],
    [
     -18.9242,
     27.7959
    ],
    [
     -18.9324,
     27.7754
    ],
    [
     -18.9285,
     27.7546
    ],
    [
     -18.9287,
     27.7359
    ],
    [
     -18.9421,
     27.7226
    ],
    [
     -18.9496,
     27.7061
    ],
    [
     -18.9539,
     27.6768
    ],
    [
     -18.9642,
     27.6649
    ],
    [
     -18.9805,
     27.6552
    ]
   ]
  ]
 }
}